id,name,brewery_type,street,address_2,address_3,city,state,county_province,postal_code,country,longitude,latitude,phone,website_url,updated_at,created_at
2,Avondale Brewing Co,micro,201 41st St S,,,Birmingham,Alabama,,35222-1932,United States,-86.774322,33.524521,2057775456,http://www.avondalebrewing.com,2018-08-23T23:19:57.825Z,2018-07-24T01:32:47.255Z
44,Trim Tab Brewing,micro,2721 5th Ave S,,,Birmingham,Alabama,,35233-3401,United States,-86.7914000624146,33.5128492349817,2057030536,http://www.trimtabbrewing.com,2018-08-23T23:20:31.423Z,2018-07-24T01:32:47.815Z
46,Yellowhammer Brewery,micro,2600 Clinton Ave W,,,Huntsville,Alabama,,35805-3046,United States,-86.5932014,34.7277523,2569755950,http://www.yellowhammerbrewery.com,2018-08-23T23:20:33.102Z,2018-07-24T01:32:47.838Z
55,Bearpaw River Brewing Co,micro,4605 E Palmer Wasilla Hwy,,,Wasilla,Alaska,,99654-7679,United States,-149.4127103,61.5752695,,http://bearpawriverbrewing.com,2018-08-23T23:20:40.743Z,2018-07-24T01:32:47.967Z
76,King Street Brewing Co,micro,9050 King Street,,,Anchorage,Alaska,,99515,United States,-149.879076042937,61.1384893547315,9073365464,http://www.kingstreetbrewing.com,2018-08-23T23:20:57.179Z,2018-07-24T01:32:48.301Z
94,1912 Brewing,micro,2045 N Forbes Blvd Ste 105,,,Tucson,Arizona,,85745-1444,United States,-110.992750525872,32.2467372722906,5202564851,http://www.1912brewing.com,2018-08-23T23:21:11.302Z,2018-07-24T01:32:48.582Z
98,Bad Water Brewing,contract,4216 N Brown Ave,,,Scottsdale,Arizona,,85251-3914,United States,-111.924474347826,33.4972615652174,5207459175,http://www.badwaterbrewing.com,2018-08-23T23:21:15.169Z,2018-07-24T01:32:48.636Z
104,BJs Restaurant & Brewery - Chandler,brewpub,3155 W Chandler Blvd,,,Chandler,Arizona,,85226-5175,United States,-111.911126,33.3053455,4809170631,http://www.bjsrestaurants.com,2018-08-23T23:21:21.165Z,2018-07-24T01:32:48.716Z
107,BlackRock Brewers,micro,1664 S Research Loop Ste 200,,,Tucson,Arizona,,85710-6767,United States,-110.821778571134,32.201608314954,5202073203,http://www.brb.beer,2018-08-23T23:21:23.794Z,2018-07-24T01:32:48.758Z
127,Dragoon Brewing Co,micro,1859 W Grant Rd Ste 111,,,Tucson,Arizona,,85745-1214,United States,-111.005452051979,32.2504946147872,5203293606,http://www.dragoonbrewing.com,2018-08-23T23:21:40.563Z,2018-07-24T01:32:49.040Z
141,Grand Canyon Brewing Company,micro,233 W Route 66,,,Williams,Arizona,,86046-2530,United States,-112.1892168,35.2500282,8005132072,http://www.grandcanyonbrewingco.com,2018-08-23T23:21:53.397Z,2018-07-24T01:32:49.251Z
163,Mudshark Brewing Co,micro,210 Swanson Ave,,,Lake Havasu City,Arizona,,86403-0966,United States,-114.342433477881,34.4689736300844,9284532981,http://www.mudsharkbrewingco.com,2018-08-23T23:22:12.542Z,2018-07-24T01:32:49.546Z
182,Richter Aleworks,micro,8279 W Lake Pleasant Pkwy Ste 110,,,Peoria,Arizona,,85382-7434,United States,-112.238054093359,33.6687744976834,6029086553,http://www.richteraleworks.com,2018-08-23T23:22:29.385Z,2018-07-24T01:32:49.796Z
187,SanTan Brewing Co,regional,8 S San Marcos Pl,,,Chandler,Arizona,,85225-7862,United States,-111.8423459,33.3032436,4809178700,http://www.santanbrewing.com,2018-08-23T23:22:33.482Z,2018-07-24T01:32:49.861Z
198,State 48 Brewery,brewpub,13823 W Bell Rd,,,Surprise,Arizona,,85374-3873,United States,-112.357813820157,33.63822125,6235841095,,2018-08-23T23:22:41.468Z,2018-07-24T01:32:49.995Z
219,Wren House Brewing Company,micro,2125 N 24th St,,,Phoenix,Arizona,,85008-2713,United States,-112.0301125,33.516633,6022449184,http://www.wrenhousebrewing.com,2018-08-23T23:22:59.255Z,2018-07-24T01:32:50.299Z
225,Brick Oven Pizza Co / Brick & Forge Brewing,brewpub,2410 Linwood Dr,,,Paragould,Arkansas,,72450-6122,United States,-90.5204797204622,36.0316358142169,8702364200,http://www.brickovenpizzacompany.com,2018-08-23T23:23:05.438Z,2018-07-24T01:32:50.376Z
235,Diamond Bear Brewing Co,micro,600 N Broadway St,,,North Little Rock,Arkansas,,72114-5381,United States,-92.2726892120821,34.7594277548278,5017082739,http://www.diamondbear.com,2018-08-23T23:23:14.931Z,2018-07-24T01:32:50.503Z
247,Lost Forty Brewing,micro,501 Byrd St,,,Little Rock,Arkansas,,72202,United States,-92.260019,34.742845,5013197275,http://www.lost40brewing.com/,2018-08-23T23:23:24.018Z,2018-07-24T01:32:50.710Z
253,Rapp's Barren Brewing Company,micro,1343 E 9th St,,,Mountain Home,Arkansas,,72653-5050,United States,-92.3599724,36.3326432,8704247288,http://www.rappsbarrenbrewing.com,2018-08-23T23:23:29.428Z,2018-07-24T01:32:50.788Z
264,Whistleing Springs Brewing Company / Dark Hills Brewery,planning,,,,Lowell,Arkansas,,72745-9294,United States,-94.1307587,36.2553543,4792836365,http://www.darkhillsbrew.com,2018-08-23T23:23:40.468Z,2018-07-24T01:32:50.920Z
281,7 Sisters Brewing Co,brewpub,181 Tank Farm Rd Ste 110,,,San Luis Obispo,California,,93401-7082,United States,-120.670637530612,35.2467277959184,8058687133,http://www.7sistersbrewing.com,2018-08-23T23:23:55.334Z,2018-07-24T01:32:51.264Z
286,Abnormal Beer Company,micro,16990 Via Tazon Ste 123,,,San Diego,California,,92127-1649,United States,-117.08575,33.02391,8586182463,http://abnormalbeer.co,2018-08-23T23:24:00.025Z,2018-07-24T01:32:51.325Z
305,Altamont Beer Works,micro,2402 Research Dr,,,Livermore,California,,94550-3850,United States,-121.721097428074,37.6783911404914,9254432337,http://www.altamontbeerworks.com,2018-08-23T23:24:16.819Z,2018-07-24T01:32:51.568Z
329,Auburn Alehouse,brewpub,289 Washington St,,,Auburn,California,,95603-5036,United States,-121.078958250811,38.8961210674875,5308852537,http://www.auburnalehouse.com,2018-08-23T23:24:41.928Z,2018-07-24T01:32:51.916Z
333,Back Street Brewery & Tasting Room,micro,1884 S Santa Cruz St,,,Anaheim,California,,92805-6726,United States,-117.896089444444,33.7998367777778,6572364050,http://www.backstreetbrew.com,2018-08-23T23:24:45.724Z,2018-07-24T01:32:51.974Z
361,Bear Republic Brewing Co Pub & Restaurant - Lakeside,brewpub,5000 Roberts Lake Rd,,,Rohnert Park,California,,94928,United States,-122.7101405,38.3649703,7075852722,http://bearrepublic.com,2018-08-23T23:25:11.314Z,2018-07-24T01:32:52.349Z
376,Bird Street Brewing,micro,242 Heinlen St,,,Lemoore,California,,93245-2947,United States,-119.784711,36.3014675555556,5593094649,http://www.birdstreetbrewing.com,2018-08-23T23:25:24.815Z,2018-07-24T01:32:52.533Z
385,Black Hammer Brewing,micro,544 Bryant St,,,San Francisco,California,,94107-1217,United States,-122.3969947,37.780655,4155002273,http://www.blackhammerbrewing.com,2018-08-23T23:25:33.033Z,2018-07-24T01:32:52.642Z
410,Brewbakers Brewing Co,brewpub,219 E Main St,,,Visalia,California,,93291-6355,United States,-119.2906961,36.3300786,5596272739,http://www.brewbakersbrewingco.com,2018-08-23T23:25:54.818Z,2018-07-24T01:32:52.944Z
425,Brewery in Planning - Los Angeles,planning,,,,Los Angeles,California,,90049-1620,United States,-118.2427669,34.0536834,3107796045,,2018-08-23T23:26:04.273Z,2018-07-24T01:32:53.127Z
430,Brewery in Planning - San Diego,planning,,,,San Diego,California,,92121-4396,United States,-117.1627714,32.7174209,8588882188,http://WWW.gravityheights.com,2018-08-23T23:26:06.455Z,2018-07-24T01:32:53.189Z
437,Brewery Twenty Five,micro,106 3rd St,,,Hollister,California,,95023,United States,-121.400836918367,36.8535938163265,8316367640,http://www.brewerytwentyfive.com,2018-08-23T23:26:09.967Z,2018-07-24T01:32:53.273Z
456,Camino Brewing Co LLC,micro,718 S 1st St,,,San Jose,California,,95113,United States,-121.882347823612,37.3253017839889,,http://www.caminobrewing.com,2018-08-23T23:26:25.248Z,2018-07-24T01:32:53.511Z
479,Chula Vista Brewery,micro,294 Third Ave,,,Chula Vista,California,,91910-2701,United States,-117.080369,32.641495,6196168806,http://www.chulavistabrewery.com,2018-08-23T23:26:42.768Z,2018-07-24T01:32:53.796Z
4,Band of Brothers Brewing Company,micro,1605 23rd Ave,,,Tuscaloosa,Alabama,,35401-4653,United States,-87.5621551272424,33.1984907123707,2052665137,,2018-08-23T23:19:59.462Z,2018-07-24T01:32:47.279Z
54,Barnaby Brewing Company,micro,206 N Franklin St,,,Juneau,Alaska,,99801-1225,United States,-134.407726539973,58.3017758843016,9074190916,http://www.barnabybrew.com,2018-08-23T23:20:39.859Z,2018-07-24T01:32:47.953Z
489,Cloverdale Ale Company's Ruth McGowan's Brewpub,brewpub,131 E 1st St,,,Cloverdale,California,,95425-3701,United States,-123.016572852146,38.8053232210103,7078949610,http://www.ruthmcgowansbrewpub.com,2018-08-23T23:26:51.276Z,2018-07-24T01:32:53.922Z
508,Craftsman Brewing Co,micro,1260 Lincoln Ave Ste 100,,,Pasadena,California,,91103-2465,United States,-118.1595567,34.1674435,6262962537,http://www.craftsmanbrewing.com,2018-08-23T23:27:07.240Z,2018-07-24T01:32:54.192Z
525,Devil's Potion Brewing Company LLC,planning,,,,Escondido,California,,92026-3187,United States,-117.0814849,33.1216751,7605329091,http://www.devilspotion.com,2018-08-23T23:27:21.742Z,2018-07-24T01:32:54.405Z
543,Dry River Brewing,micro,671 S Anderson St,,,Los Angeles,California,,90023-1110,United States,-118.223301521739,34.0363873913043,2133755235,http://www.dryriverbrewing.com,2018-08-23T23:27:38.017Z,2018-07-24T01:32:54.647Z
562,Eight Bridges Brewing,micro,332 Earhart Way,,,Livermore,California,,94551-9309,United States,-121.814589292069,37.6989500360251,9259619160,http://www.eightbridgesbrewing.com,2018-08-23T23:27:54.121Z,2018-07-24T01:32:54.897Z
573,Eppig Brewing,micro,3052 El Cajon Blvd Ste 103,,,San Diego,California,,92104-1399,United States,-117.128732,32.755723,6195011840,http://www.eppigbrewing.com,2018-08-23T23:28:03.844Z,2018-07-24T01:32:55.121Z
574,Escape Craft Brewery,micro,721 Nevada St Ste 401,,,Redlands,California,,92373-8053,United States,-117.217577166632,34.0603401026307,9097133727,http://www.escapecraftbrewery.com,2018-08-23T23:28:04.869Z,2018-07-24T01:32:55.136Z
592,Fieldwork Brewing Co,regional,1160 6th St,,,Berkeley,California,,94710-1247,United States,-122.302214696327,37.88157297059,5108981203,http://www.fieldworkbrewing.com,2018-08-23T23:28:19.100Z,2018-07-24T01:32:55.370Z
612,Fort Point Beer Company,regional,644 Mason St,,,San Francisco,California,,94129-1600,United States,-122.410227755102,37.789461244898,4159064021,http://www.fortpointbeer.com,2018-08-23T23:28:36.026Z,2018-07-24T01:32:55.631Z
615,Fountainhead Brewing Co,micro,4621 24th St,,,Sacramento,California,,95822-1412,United States,-121.483117319123,38.5332279038371,9162284610,http://www.fountainheadbrewingco.com,2018-08-23T23:28:38.770Z,2018-07-24T01:32:55.673Z
623,Geartooth AleWerks,micro,1635 S 7th St,,,San Jose,California,,95112-5932,United States,-121.866477333785,37.315251291037,4084832679,http://www.geartoothalewerks.com,2018-08-23T23:28:45.233Z,2018-07-24T01:32:55.783Z
633,Golden State Brewery,micro,1252 Memorex Dr,,,Santa Clara,California,,95050-2812,United States,-121.950316757586,37.3625383916082,4087272337,http://www.goldenstate.beer,2018-08-23T23:28:53.181Z,2018-07-24T01:32:55.910Z
654,Hangar 24 Craft Brewery,regional,1710 Sessums Dr,,,Redlands,California,,92374-1909,United States,-117.1419134,34.0831712,9093891400,http://www.hangar24brewery.com,2018-08-23T23:29:10.400Z,2018-07-24T01:32:56.216Z
667,Hermitage Brewing Company,regional,1627 S 7th St,,,San Jose,California,,95112-5932,United States,-121.866525688348,37.3153140881948,4082910966,http://www.hermitagebrewing.com,2018-08-23T23:29:21.773Z,2018-07-24T01:32:56.418Z
669,High Water Brewing,proprietor,,,,Stockton,California,,95204-2943,United States,-121.2907796,37.9577016,5304409098,http://www.highwaterbrewing.com,2018-08-23T23:29:23.046Z,2018-07-24T01:32:56.445Z
682,Hop Secret Brewing Co,micro,162 W Pomona Ave,,,Monrovia,California,,91016-4558,United States,-118.001973040816,34.134155,,http://www.hopsecretbrewing.com,2018-08-23T23:29:32.990Z,2018-07-24T01:32:56.614Z
702,Indian Valley Brewing,micro,14 Commercial Blvd Ste 125,,,Novato,California,,94949-6110,United States,-122.535014356985,38.0682836733387,4153014983,http://www.indianvalleybrewing.com,2018-08-23T23:29:50.056Z,2018-07-24T01:32:56.856Z
116,Copper Hop Brewing Co/Copper Hop Ranch,micro,,,,,,,,United States,,,,http://www.copperhopranch.weebly.com,2018-07-24T01:32:48.873Z,2018-07-24T01:32:48.873Z
402,Border X,planning,,,,,,,,United States,,,,,2018-07-24T01:32:52.847Z,2018-07-24T01:32:52.847Z
717,Jackrabbit Brewing Co,micro,1323 Terminal St,,,West Sacramento,California,,95691-3514,United States,-121.54112,38.5719882,2096120259,http://www.jackrabbitbrewingcompany.com,2018-08-23T23:58:06.289Z,2018-07-24T01:32:57.039Z
719,Jamul Brewing Co. - Production Only,micro,3113 Calle Allejandro,,,Jamul,California,,91935-3108,United States,-116.87742,32.709923,6195179829,http://www.jamulbrewingco.com,2018-08-23T23:58:08.091Z,2018-07-24T01:32:57.062Z
738,Karl Strauss Brewing Co - Universal CityWalk,brewpub,1000 Universal Studios Blvd,,,Universal City,California,,91608-1008,United States,-118.3529336,34.1322144,8187532739,http://www.karlstrauss.com,2018-08-23T23:58:24.659Z,2018-07-24T01:32:57.291Z
760,Laguna Beach Brewery and Grille,brewpub,237 Ocean Ave,,,Laguna Beach,California,,92651-2106,United States,-117.7835382,33.5427913,9494973381,http://www.lagunabeachbrewery.net,2018-08-23T23:58:43.812Z,2018-07-24T01:32:57.558Z
763,Lassen Ale Works @ The Pioneer Saloon,brewpub,724 Main St,,,Susanville,California,,96130-4372,United States,-120.6326661,40.4055904,5302577666,http://www.lassenaleworks.com,2018-08-23T23:58:46.626Z,2018-07-24T01:32:57.594Z
777,Libertine Brewing Company,brewpub,1234 Broad St,,,San Luis Obispo,California,,93401-3908,United States,-120.6631926,35.2777052,8057720700,http://www.libertinebrewing.com,2018-08-23T23:58:59.770Z,2018-07-24T01:32:57.770Z
786,Long Beach Beer Lab,micro,518 W Willow St,,,Long Beach,California,,90806-2831,United States,-118.2156232,33.8044209,5623413659,http://www.lbbeer.com,2018-08-23T23:59:07.444Z,2018-07-24T01:32:57.878Z
804,Magnolia Dogpatch,micro,2505 3rd St,,,San Francisco,California,,94107-3112,United States,-122.3880818,37.7577437,4158647468,http://www.magnoliasmokestack.com,2018-08-23T23:59:22.426Z,2018-07-24T01:32:58.117Z
809,Marin Brewing Co,brewpub,1809 Larkspur Landing Cir,,,Larkspur,California,,94939-1801,United States,-122.5068874,37.9458177,4154614677,http://www.marinbrewing.com,2018-08-23T23:59:26.600Z,2018-07-24T01:32:58.195Z
814,Mike Hess Brewing - Miramar,micro,7955 Silverton Ave Ste 1201,,,San Diego,California,,92126-6357,United States,-117.151828378447,32.8908008085346,6198876453,http://www.hessbrewing.com,2018-08-23T23:59:31.275Z,2018-07-24T01:32:58.257Z
831,Moonraker Brewing Company (Production Facility),micro,2349 Rickenbacker Way,,,Auburn,California,,95602,United States,-121.081368585457,38.952499158384,5307456816,,2018-08-23T23:59:46.490Z,2018-07-24T01:32:58.471Z
847,New English Brewing Co Inc,micro,11545 Sorrento Valley Rd Ste 305,,,San Diego,California,,92121-1322,United States,-117.230519,32.912641,6198578023,http://www.newenglishbrewing.com,2018-08-24T00:00:00.076Z,2018-07-24T01:32:58.670Z
851,Nickel Beer Co,micro,1485 Hollow Glen Rd,,,Julian,California,,92036,United States,-116.590154368311,33.0762994189637,7607652337,http://www.nickelbeerco.com,2018-08-24T00:00:03.198Z,2018-07-24T01:32:58.718Z
865,Oceanside Brewing Company,micro,312 Via Del Norte,,,Oceanside,California,,92058-1232,United States,-117.352957287439,33.2136973549748,7604537900,http://www.oceansidebrewingco.com,2018-08-24T00:00:15.739Z,2018-07-24T01:32:58.895Z
884,Old Stump Brewery,micro,2896 Metropolitan Pl,,,Pomona,California,,91767-1854,United States,-117.754146518132,34.0976380821684,9098609052,http://www.oldstumpbrewery.com,2018-08-24T00:00:31.940Z,2018-07-24T01:32:59.127Z
897,Palo Alto Brewing Co,contract,1080B La Avenida St,,,Mountain View,California,,94043-1422,United States,-122.071765718906,37.4132678904411,,http://www.paloaltobrewing.com,2018-08-24T00:00:43.305Z,2018-07-24T01:32:59.292Z
903,Pedro Point Brewing,micro,55A Bill Drake Way,,,Pacifica,California,,94044,United States,-122.491021666667,37.6511615833333,6502889149,http://www.pedropointbrewing.com,2018-08-24T00:00:47.756Z,2018-07-24T01:32:59.362Z
924,Port Brewing Co / The Lost Abbey,micro,155 Mata Way Ste 104,,,San Marcos,California,,92069-2983,United States,-117.149141,33.141537,8009186816,http://www.portbrewing.com,2018-08-24T00:01:07.397Z,2018-07-24T01:32:59.652Z
945,Right Eye Brewing Co,micro,301 Spring St,,,Suisun City,California,,94585,United States,-122.041544,38.242484,7074161347,http://www.righteyebrewing.com,2018-08-24T00:01:27.572Z,2018-07-24T01:32:59.917Z
964,Rouleur Brewing Company,micro,5840 El Camino Real Ste 101,,,Carlsbad,California,,92008-8804,United States,-117.269558,33.133904,4422445111,http://www.rouleurbrewing.com,2018-08-24T00:01:45.520Z,2018-07-24T01:33:00.225Z
990,Sante Adairius Rustic Ales,micro,103 Kennedy Dr,,,Capitola,California,,95010-3641,United States,-121.9405748,36.9822865,8313454867,http://www.rusticales.com,2018-08-24T00:02:11.049Z,2018-07-24T01:33:00.572Z
1001,Sequoia Brewing Co - Tower District,brewpub,777 E Olive Ave,,,Fresno,California,,93728-3350,United States,-119.801962153846,36.7577440769231,5592645521,http://www.sequoiabrewing.com,2018-08-24T00:02:21.148Z,2018-07-24T01:33:00.711Z
1030,Sonoma Springs Brewing Co,micro,19449 Riverside Dr Ste 101,,,Sonoma,California,,95476-6357,United States,-122.477788,38.294506,7079387422,http://www.sonomaspringsbrewing.com,2018-08-24T00:02:47.771Z,2018-07-24T01:33:01.073Z
1035,South Lake Brewing Company,micro,1920 Lake Tahoe Blvd,,,South Lake Tahoe,California,,96150-6307,United States,-120.0074997,38.9118004,5305780087,http://www.southlakebeer.com,2018-08-24T00:02:52.173Z,2018-07-24T01:33:01.137Z
1050,State Room Brewery,brewpub,1132 4th St,,,San Rafael,California,,94901-3007,United States,-122.52865849686,37.9732744779465,4152957929,http://stateroombrewery.com,2018-08-24T00:03:05.588Z,2018-07-24T01:33:01.342Z
1059,Stone Brewing World Bistro & Gardens- Liberty Station,brewpub,2816 Historic Decatur Rd Ste 116,,,San Diego,California,,92106-6164,United States,-117.21157,32.7405237,6192692200,http://www.stonelibertystation.com,2018-08-24T00:03:14.354Z,2018-07-24T01:33:01.470Z
1069,Sufferfest Beer Company,proprietor,1770 UNION STREET,,,San Francisco,California,,94123-3404,United States,-122.428394714286,37.7980748571429,4152386431,http://www.sufferfestbeer.com,2018-08-24T00:03:23.447Z,2018-07-24T01:33:01.593Z
1081,Tap and Vine,brewpub,907 Lincoln Way,,,Auburn,California,,95603,United States,-121.06949555199,38.8995673848688,5308898463,http://www.tapandvineauburn.com,2018-08-24T00:03:34.148Z,2018-07-24T01:33:01.748Z
1085,TAPS Fish House and Brewery - Brea,brewpub,101 E Imperial Hwy,,,Brea,California,,92821-4924,United States,-117.9018387,33.9171643,7142570101,http://www.tapsbrea.com,2018-08-24T00:03:37.619Z,2018-07-24T01:33:01.802Z
1101,The Dancing Fox,brewpub,203 S School St,,,Lodi,California,,95240-3511,United States,-121.387849646574,38.097198,2093662634,http://www.dancingfoxwinery.com,2018-08-24T00:03:51.456Z,2018-07-24T01:33:02.056Z
1123,Thunderhawk Alements,micro,8675 Miralani Dr Ste 100,,,San Diego,California,,92126-4355,United States,-117.137466970906,32.8957500613992,6199524832,http://thunderhawkbeer.com,2018-08-24T00:04:11.527Z,2018-07-24T01:33:02.328Z
1129,Topa Topa Brewing Co,micro,104 E Thompson Blvd,,,Ventura,California,,93001-2723,United States,-119.299444632653,34.2781592040816,8056289255,http://www.topatopabrewingco.com,2018-08-24T00:04:16.595Z,2018-07-24T01:33:02.401Z
1137,Track 7 Brewing Co - Natomas,micro,826 Professor Ln Ste 100,,,Sacramento,California,,95834-7743,United States,-121.4908802,38.6543681,9165204677,,2018-08-24T00:04:22.907Z,2018-07-24T01:33:02.497Z
1154,Underground Brewing Co.,brewpub,3940 Broad St # 7415,,,San Luis Obispo,California,,93401-7017,United States,-120.6420324,35.2493387,,,2018-08-24T00:04:37.276Z,2018-07-24T01:33:02.703Z
1158,Urban Roots Brewing,brewpub,1322 V St,,,Sacramento,California,,95818-1418,United States,-121.49459077551,38.5657962653061,9167063741,http://www.urbanrootsbrewing.com,2018-08-24T00:04:41.204Z,2018-07-24T01:33:02.752Z
1177,Wolf Creek Brewery,micro,25108 Rye Canyon Loop,,,Valencia,California,,91355-5004,United States,-118.580786794735,34.4555624289373,6612639653,,2018-08-24T00:04:58.180Z,2018-07-24T01:33:02.985Z
155,Lonesome Valley Brewing,brewpub,3040 N Windsong Dr Ste 101,,,Prescott Valley,Arizona,,86314-2250,United States,,,9285153541,http://www.lonesomevalleybrewing.com,2018-08-11T21:35:48.469Z,2018-07-24T01:32:49.444Z
1180,Woods Bar & Brewery,brewpub,1701 Telegraph Ave,,,Oakland,California,,94612-2107,United States,-122.2704253,37.8069575,4155091695,http://www.woodsbeer.com,2018-08-24T00:05:00.969Z,2018-07-24T01:33:03.025Z
1182,Woods CervecerÃ­a,brewpub,3801 18th St,,,San Francisco,California,,94114-2615,United States,-122.4285438,37.761163,4152739295,http://www.cerveceriasf.com,2018-08-24T00:05:03.005Z,2018-07-24T01:33:03.054Z
1195,3 Freaks Brewing Co,micro,7140 E County Line Rd,,,Highlands Ranch,Colorado,,80126-3926,United States,-104.9426656,39.5659575,7202990994,http://www.3freaksbrewery.com,2018-08-24T00:05:14.991Z,2018-07-24T01:33:03.289Z
1222,Barrels & Bottles Brewery,brewpub,600 12th St Ste 160,,,Golden,Colorado,,80401-6145,United States,-105.2202098,39.7562107,7203283643,http://www.barrelsbottles.com,2018-08-24T00:05:36.634Z,2018-07-24T01:33:03.645Z
1227,BierWerks,brewpub,121 E. Midland Ave,,,Woodland Park,Colorado,,80863,United States,-105.0519462,38.9941414,7196868100,http://www.bierwerks.com,2018-08-24T00:05:41.424Z,2018-07-24T01:33:03.712Z
1229,Big Choice Brewing Co,micro,21 S 1st Ave,,,Brighton,Colorado,,80601-1603,United States,-104.822433,39.9864294285714,3034692616,http://www.bigchoicebrewing.com,2018-08-24T00:05:43.462Z,2018-07-24T01:33:03.737Z
1333,Dodgeton Creek Brewing Co.,planning,,,,Trinidad,Colorado,,81082-9788,United States,-104.5005411,37.169397,7198462339,http://www.dodgetoncreek.com,2018-08-24T00:06:57.576Z,2018-07-24T01:33:05.079Z
207,The Porch Brewing,planning,,,,,,,,United States,,,,,2018-07-24T01:32:50.146Z,2018-07-24T01:32:50.146Z
2217,Yes Face Beer,contract,,,,,,,,United States,,,4042133867,,2018-07-24T01:33:16.710Z,2018-07-24T01:33:16.710Z
254,Rebel Kettle Brewing Company,brewpub,822 E 6th St,,,Little Rock,Arkansas,,72202-2606,United States,-92.2620919591837,34.7421112653061,5013742791,http://www.rebelkettle.com,2018-08-23T23:23:30.847Z,2018-07-24T01:32:50.799Z
1250,Brass Brewing Company,micro,318 E Colorado Ave,,,Colorado Springs,Colorado,,80903-1949,United States,-104.818970612347,38.8326073,,,2018-08-24T00:22:11.364Z,2018-07-24T01:33:04.026Z
1279,Burgundian Brewing Co.,micro,4725 Lipan St,,,Denver,Colorado,,80211-2334,United States,-105.002409475111,39.7825168,4704400420,http://www.facebook.com/BurgundianBrewing,2018-08-24T00:22:21.710Z,2018-07-24T01:33:04.371Z
1296,Chain Reaction Brewing Company,micro,902 S Lipan St,,,Denver,Colorado,,80223-2717,United States,-105.001629,39.698793755102,3039220960,http://www.chainreactionbrewingco.com,2018-08-24T00:22:31.364Z,2018-07-24T01:33:04.590Z
1319,Crystal Springs Brewing Co,micro,657 S Taylor Ave,,,Louisville,Colorado,,80027-3063,United States,-105.119781,39.964883,3038845602,http://www.crystalspringsbrewing.com,2018-08-24T00:22:43.801Z,2018-07-24T01:33:04.877Z
1337,Dostal Alley Brewing Co,brewpub,116 Main St,,,Central City,Colorado,,80427,United States,-105.512426,39.8001431,3035821610,http://www.dostalalley.net,2018-08-24T00:22:52.060Z,2018-07-24T01:33:05.128Z
1354,Estes Park Brewery,micro,470 Prospect Village Dr,,,Estes Park,Colorado,,80517,United States,-105.5261317,40.3714876,9705865421,http://www.epbrewery.net,2018-08-24T00:23:00.338Z,2018-07-24T01:33:05.341Z
304,Alta Brewing Company,micro,1983 Julian Avenue,,,San Diego,California,,92113-1125,United States,-117.141471216793,32.7018758,6197957300,http://www.altabrewing.com,2018-08-23T23:24:16.023Z,2018-07-24T01:32:51.554Z
1370,Glenwood Canyon Brewing Co,brewpub,402 7th St,,,Glenwood Springs,Colorado,,81601-3406,United States,-107.323424,39.5476563,9709451276,http://www.glenwoodcanyon.com,2018-08-24T00:23:08.569Z,2018-07-24T01:33:05.533Z
1373,Golden Block Brewery,brewpub,1227 Greene St,,,Silverton,Colorado,,81433,United States,-107.664230711091,37.8119443404304,9703875962,http://www.goldenblockbrewery.com,2018-08-24T00:23:10.194Z,2018-07-24T01:33:05.569Z
1396,High Alpine Brewing Company,brewpub,111 N Main St,,,Gunnison,Colorado,,81230-2330,United States,-106.927037673469,38.5446227755102,9706424500,http://www.highalpinebrewing.com,2018-08-24T00:23:23.068Z,2018-07-24T01:33:05.849Z
1419,Jessup Farm Barrel House,micro,1921 Jessup Dr,,,Fort Collins,Colorado,,80525-2551,United States,-105.0380013,40.5620458,9705688345,http://jessupfarm.com/barrel-house/,2018-08-24T00:23:33.661Z,2018-07-24T01:33:06.132Z
1428,Lariat Lodge Brewing,brewpub,27618 Fireweed Dr,,,Evergreen,Colorado,,80439-8462,United States,-105.313692483851,39.639351447261,3036741842,http://www.LariatLodgeBrewing.com,2018-08-24T00:23:38.065Z,2018-07-24T01:33:06.249Z
1448,Manitou Brewing Company,brewpub,725 Manitou Ave,,,Manitou Springs,Colorado,,80829-1809,United States,-104.915741327052,38.8569869,7192827709,http://www.manitou-brewing.com,2018-08-24T00:23:49.245Z,2018-07-24T01:33:06.488Z
1466,New Belgium Brewing Co,regional,500 Linden St,,,Fort Collins,Colorado,,80524-2457,United States,-105.067842181802,40.59335825,9702210524,http://www.newbelgium.com,2018-08-24T00:23:56.828Z,2018-07-24T01:33:06.708Z
1474,Odell Brewing Co,regional,800 E Lincoln Ave,,,Fort Collins,Colorado,,80524-2507,United States,-105.063332717858,40.5895239,9704989070,http://www.odellbrewing.com,2018-08-24T00:24:01.453Z,2018-07-24T01:33:06.803Z
1496,Peaks N Pines Brewing Company,micro,4005 Tutt Blvd,,,Colorado Springs,Colorado,,80922-2508,United States,-104.714604513467,38.889659925238,7193586758,http://www.peaksnpinesbrewery.com,2018-08-24T00:24:11.517Z,2018-07-24T01:33:07.066Z
1516,Ratio Beerworks,micro,2920 Larimer St,,,Denver,Colorado,,80205-2309,United States,-104.9812181,39.7615104,3102669264,http://ratiobeerworks.com,2018-08-24T00:24:20.330Z,2018-07-24T01:33:07.320Z
1520,Red Truck Beer Company Ltd.,micro,1020 E Lincoln Ave,,,Fort Collins,Colorado,,80524-2509,United States,-105.058489475164,40.58916845,6046824733,,2018-08-24T00:24:22.140Z,2018-07-24T01:33:07.368Z
1540,"Rocky Mountain Taphouse, LLC",micro,3050 67th Ave Ste 104,,,Greeley,Colorado,,80634-9604,United States,-104.7859342,40.387892,9703026551,http://www.rockymountaintaphouse.com,2018-08-24T00:24:32.112Z,2018-07-24T01:33:07.609Z
1563,Spice Trade Brewing,brewpub,7803 Ralston Rd,,,Arvada,Colorado,,80002-2433,United States,-105.0841731,39.802334,3034319000,http://www.spicetradebrewing.com,2018-08-24T00:24:44.635Z,2018-07-24T01:33:07.889Z
1580,The Grateful Gnome Sandwich Shoppe and Brewery,brewpub,4369 Stuart St,,,Denver,Colorado,,80212-2335,United States,-105.0432655,39.7764426,7205986863,http://www.thegratefulgnome.com,2018-08-24T00:24:51.406Z,2018-07-24T01:33:08.124Z
1582,The Larimer Beer Company,contract,3620 Newport St,,,Denver,Colorado,,80207-1508,United States,-104.909348665308,39.7677376780982,7205076369,http://www.thelarimer.com,2018-08-24T00:24:52.553Z,2018-07-24T01:33:08.150Z
1605,Upslope Brewing Company - Flatiron Park,micro,1898 S Flatiron Ct Ste 110,,,Boulder,Colorado,,80301-2860,United States,-105.2183136,40.0203098,,http://www.upslopebrewing.com,2018-08-24T00:25:03.052Z,2018-07-24T01:33:08.512Z
1608,Ute Pass Brewing Co,brewpub,209 E Midland Ave,,,Woodland Park,Colorado,,80863-3101,United States,-105.05133569001,38.9944899,7196868722,http://www.utepassbrewingcompany.com,2018-08-24T00:25:04.697Z,2018-07-24T01:33:08.563Z
1616,Walter Brewing Company,micro,126 Oneida St,,,Pueblo,Colorado,,81003-3424,United States,-104.610367714286,38.2624164489796,7195420766,http://www.waltersbeer.com,2018-08-24T00:25:09.205Z,2018-07-24T01:33:08.688Z
1646,Beaver Beer Co,contract,307 Greens Farms Rd,,,Westport,Connecticut,,06880-6227,United States,-73.311685,41.12587,,http://www.beaverbeer.com,2018-08-24T00:25:23.884Z,2018-07-24T01:33:09.107Z
1651,Brass Works Brewing Company LLC,micro,2066 Thomaston Ave,,,Waterbury,Connecticut,,06704-1038,United States,-73.0575366209305,41.5974763265155,2035276223,http://www.brassworksbrewing.com,2018-08-24T00:25:27.172Z,2018-07-24T01:33:09.172Z
1659,BruRm At Bar,brewpub,254 Crown St,,,New Haven,Connecticut,,06511-6610,United States,-72.9302577,41.3061639,2034958924,http://www.barnightclub.com,2018-08-24T00:25:29.704Z,2018-07-24T01:33:09.297Z
1668,Connecticut Valley Brewing Company,micro,765 Sullivan Ave,,,South Windsor,Connecticut,,06074-1945,United States,-72.5714790446604,41.8487282897209,8606442707,http://www.ctvalleybrewing.com,2018-08-24T00:25:32.911Z,2018-07-24T01:33:09.416Z
1670,Counterweight Brewing Company,micro,23 Raccio Park Rd,,,Hamden,Connecticut,,06514-1331,United States,-72.9195534130741,41.3932116686678,2038217333,http://www.Counterweightbrewing.com,2018-08-24T00:25:33.898Z,2018-07-24T01:33:09.446Z
1706,Nod Hill Brewery,micro,137 Ethan Allen Hwy,,,Ridgefield,Connecticut,,06877-6238,United States,-73.4438849111635,41.2731614754047,2036171191,http://www.nodhillbrewery.com,2018-08-24T00:25:45.771Z,2018-07-24T01:33:09.922Z
1725,Thimble Island Brewery,micro,16 Business Park Dr,,,Branford,Connecticut,,06405-2924,United States,-72.7720276806763,41.2969578585427,2032082827,http://www.thimbleislandbrewery.com,2018-08-24T00:25:53.876Z,2018-07-24T01:33:10.244Z
1750,Iron Hill Brewery & Restaurant - Newark,brewpub,147 East Main St,,,Newark,Delaware,,19711-7313,United States,-75.7468068,39.6834128,3022669000,http://www.ironhillbrewery.com,2018-08-24T00:26:04.959Z,2018-07-24T01:33:10.602Z
1755,Mispillion River Brewing,micro,255 Mullet Run St,,,Milford,Delaware,,19963,United States,-75.450838711807,38.9307888466891,3024916623,http://www.mispillionriverbrewing.com,2018-08-24T00:26:07.476Z,2018-07-24T01:33:10.668Z
1767,Bardo Brewpub,micro,25 Potomac Ave SE,,,Washington,District of Columbia,,20003-3670,United States,-77.0065830204082,38.8716537346939,7622337070,http://www.bardo.beer,2018-08-24T00:26:13.767Z,2018-07-24T01:33:10.841Z
1794,Alcatraz Brewing,micro,20 Ocean Vista Ln,,,Palm Coast,Florida,,32137-2743,United States,-81.1928702816799,29.6178119569148,3866278909,http://www.alcatraz.beer,2018-08-24T00:26:25.449Z,2018-07-24T01:33:11.246Z
1800,"Angry Chair Brewing, LLC.",micro,6401 N Florida Ave,,,Tampa,Florida,,33604-6007,United States,-82.459381,28.005127,8138921651,http://www.angrychairbrewing.com,2018-08-24T00:26:28.503Z,2018-07-24T01:33:11.331Z
1835,Brew Life Brewing,micro,5767 Beneva Rd,,,Sarasota,Florida,,34233-4105,United States,-82.4975180588235,27.2700131176471,9419523831,http://www.brewlifebrewing.com,2018-08-24T00:26:44.207Z,2018-07-24T01:33:11.771Z
1853,Bullfrog Creek Brewing Company,micro,3632 Lithia Pinecrest Rd,,,Valrico,Florida,,33596-6305,United States,-82.2695872,27.9229731,8137038835,http://www.bullfrogcreekbrewing.com,2018-08-24T00:26:46.872Z,2018-07-24T01:33:12.004Z
1857,Caledonia Brewing,micro,587 Main St,,,Dunedin,Florida,,34698-4998,United States,-82.7840735,28.01394225,7273515105,http://www.caledoniabrewing.com,2018-08-24T00:26:49.312Z,2018-07-24T01:33:12.056Z
1871,Cocoa Beach Brewing Co,brewpub,150 N Atlantic Ave,,,Cocoa Beach,Florida,,32931-2960,United States,-80.6090792,28.3213572,3216132941,http://www.cocoabeachbrewingcompany.com,2018-08-24T00:26:53.216Z,2018-07-24T01:33:12.243Z
1883,Cycle Brewing Production and Warehouse,micro,2135 5th Ave S,,,Saint Petersburg,Florida,,33712-1304,United States,-82.6622215778581,27.766635437218,,,2018-08-24T00:26:59.700Z,2018-07-24T01:33:12.401Z
354,Beach Chalet Brewing Co,brewpub,1000 Great Hwy,,,San Francisco,California,,94121-3268,United States,-122.502981,37.7252994,4153868439,http://www.beachchalet.com,2018-08-23T23:25:04.285Z,2018-07-24T01:32:52.263Z
1899,Dirty Oar Beer Company,micro,329 W King St,,,Cocoa,Florida,,32922-4607,United States,-80.7473064,28.355795,,http://dirtyoarbeercompany.com/,2018-08-24T00:27:07.360Z,2018-07-24T01:33:12.605Z
1900,"Dissent Craft Brewing Company, LLC",micro,5518 Haines Rd N,,,Saint Petersburg,Florida,,33714-1999,United States,-82.6699867630801,27.8222578098218,7273420255,http://www.dissentcraftbrewing.com,2018-08-24T00:27:07.981Z,2018-07-24T01:33:12.617Z
1929,Great Chicago Fire Brewery and Tap Room,brewpub,311 W Magnolia St,,,Leesburg,Florida,,34748-5894,United States,-81.8767662040816,28.8102395102041,3524742739,http://www.chifibrew.com,2018-08-24T00:27:22.840Z,2018-07-24T01:33:12.986Z
1941,Hollywood Brewing Co,micro,3410 N 29th Ave,,,Hollywood,Florida,,33020-1002,United States,-80.1658845,26.0405657,3054144757,http://www.hollywood.beer,2018-08-24T00:27:29.200Z,2018-07-24T01:33:13.159Z
1945,Hourglass Brewing,micro,480 S Ronald Reagan Blvd Ste 1020,,,Longwood,Florida,,32750-5498,United States,-81.3450528024429,28.7036668145749,4072620056,http://www.HourglassBrewing.com,2018-08-24T00:27:30.977Z,2018-07-24T01:33:13.215Z
1972,Legacy Caribbean Craft Brewery,micro,13416 NW 38th Ct,,,Opa Locka,Florida,,33054-4506,United States,-80.2626834,25.8950665,7866816572,http://Www.legacyccb.com,2018-08-24T00:27:45.507Z,2018-07-24T01:33:13.559Z
1989,Motorworks Brewing,micro,1014 9th St W,,,Bradenton,Florida,,34205-7331,United States,-82.57129,27.4908762853266,9415676218,http://www.motorworksbrewing.com,2018-08-24T00:27:53.817Z,2018-07-24T01:33:13.772Z
2000,Odd Breed Wild Ales,micro,50 NE 1st St,,,Pompano Beach,Florida,,33060-6602,United States,-80.1247919998543,26.2323404937182,8646506210,http://www.oddbreed.com,2018-08-24T00:28:00.066Z,2018-07-24T01:33:13.909Z
2027,Proof Brewing Co,micro,644 McDonnell Dr,,,Tallahassee,Florida,,32310-4808,United States,-84.2911601134599,30.4329351226509,,http://www.proofbrewingco.com,2018-08-24T00:28:14.290Z,2018-07-24T01:33:14.250Z
2033,Redlight Redlight Beer Parlour and Brewery,micro,2810 Corrine Dr,,,Orlando,Florida,,32803-2226,United States,-81.3485175701754,28.567899,4078939832,http://www.redlightredlightbeerparlour.com,2018-08-24T00:28:17.540Z,2018-07-24T01:33:14.326Z
2036,River City Brewing Co,brewpub,835 Museum Cir,,,Jacksonville,Florida,,32207-9003,United States,-81.6611172653061,30.3186263877551,9043982299,http://www.rivercitybrewing.com,2018-08-24T00:28:19.259Z,2018-07-24T01:33:14.362Z
2057,Southern Brewing & Winemaking Brewery,brewpub,4500 N Nebraska Ave,,,Tampa,Florida,,33603-4149,United States,-82.4500207,27.9495902,8132387800,http://www.southernbrewingwinemaking.com,2018-08-24T00:28:29.404Z,2018-07-24T01:33:14.617Z
2079,The Ravenous Pig / Cask & Larder,brewpub,565 W Fairbanks Ave,,,Winter Park,Florida,,32789-5005,United States,-81.3558211,28.5933111,3212804200,http://www.caskandlarder.com,2018-08-24T00:28:39.976Z,2018-07-24T01:33:14.893Z
2091,Uncle Ernies Bayfront Grill & Brew House,contract,1151 Bayview Ave,,,Panama City,Florida,,32401-1452,United States,-85.702765,30.1698125,8507638427,http://uncleerniesbayfrontgrill.com/welcome/,2018-08-24T00:28:46.128Z,2018-07-24T01:33:15.073Z
2114,Abide Brewing Company,micro,110 Werz Industrial Blvd Ste 130,,,Newnan,Georgia,,30263-5802,United States,-84.7635664117647,33.4025703529412,6789726747,http://www.abidebrewing.com,2018-08-24T00:28:57.079Z,2018-07-24T01:33:15.371Z
2129,Chattabrewchee Southern Brewhouse,micro,709 4th Ave,,,West Point,Georgia,,31833-1506,United States,-85.1853615243903,32.8762576310151,7065011151,http://www.chattabrewchee.com,2018-08-24T00:28:59.773Z,2018-07-24T01:33:15.554Z
2130,Cherokee Brewing + Pizza Company,brewpub,207-B West Cuyler St,,,Dalton,Georgia,,30720,United States,-84.9694072096123,34.7697666359591,7065299478,http://www.cherokeebrewingandpizza.com,2018-08-24T00:29:00.324Z,2018-07-24T01:33:15.568Z
2161,Max Lager's Wood Fired Grill & Brewery,brewpub,320 Peachtree St NE,,,Atlanta,Georgia,,30308-3210,United States,-84.3870607355802,33.76333225,4045254400,http://www.maxlagers.com,2018-08-24T00:29:12.766Z,2018-07-24T01:33:15.962Z
2179,Porter Pizza & Brewery,brewpub,6370 Powers Ferry Rd NW,,,Sandy Springs,Georgia,,30339,United States,-84.4304239,33.9043481,,http://www.porterpizzabrewery.com,2018-08-24T00:29:21.253Z,2018-07-24T01:33:16.191Z
2181,Printer's Ale Manufacturing Co.,micro,940 Columbia Dr,,,Carrollton,Georgia,,30117-8780,United States,-85.1024965714286,33.6113894489796,7708364253,http://www.printers-ale.com,2018-08-24T00:29:22.410Z,2018-07-24T01:33:16.216Z
2196,Southern Brewing Company,micro,231 Collins Industrial Blvd,,,Athens,Georgia,,30601-1517,United States,-83.3500228701351,33.9811401213053,7065487183,http://www.sobrewco.com,2018-08-24T00:29:29.429Z,2018-07-24T01:33:16.426Z
2201,SweetWater Brewing Co,regional,195 Ottley Dr NE,,,Atlanta,Georgia,,30324-3924,United States,-84.3810721937623,33.80802235,4046912537,http://www.sweetwaterbrew.com,2018-08-24T00:29:32.873Z,2018-07-24T01:33:16.488Z
2219,Beer Lab HI,micro,1010 University Ave Ste B1,,,Honolulu,Hawaii,,96826-1537,United States,-157.821878401556,21.2921440645306,8088880913,http://www.beerlabhi.com,2018-08-24T00:29:40.482Z,2018-07-24T01:33:16.739Z
2227,Home of the Brave Brewing Company,brewpub,909 Waimanu St,,,Honolulu,Hawaii,,96814-3309,United States,-157.853596637989,21.2987568898793,8083968112,http://www.hotbbc.com,2018-08-24T00:29:42.938Z,2018-07-24T01:33:16.842Z
2242,10 Barrel Brewing Co,large,830 W Bannock St,,,Boise,Idaho,,83702-5857,United States,-116.202360204082,43.6174335918367,5416785228,http://www.10barrel.com,2018-08-24T00:29:51.675Z,2018-07-24T01:33:17.038Z
2267,Kootenai River Brewing Co,brewpub,6424 Riverside Street,,,Bonners Ferry,Idaho,,83805-1901,United States,-116.3105154,48.6965721,2082674677,http://kootbrew.com,2018-08-24T00:30:03.468Z,2018-07-24T01:33:17.347Z
2275,MickDuff's Brewing Co,micro,220 Cedar St,,,Sandpoint,Idaho,,83864-1411,United States,-116.54917522449,48.2762009795918,2082096700,http://www.mickduffs.com,2018-08-24T00:30:07.389Z,2018-07-24T01:33:17.444Z
2280,Payette Brewing Co,micro,733 S Pioneer St,,,Boise,Idaho,,83702-5219,United States,-116.214503263623,43.6130136314097,2083440011,http://www.payettebrewing.com,2018-08-24T00:30:09.911Z,2018-07-24T01:33:17.505Z
2297,Von Scheidt Brewing Co,brewpub,157 2nd Ave W,,,Twin Falls,Idaho,,83301-6015,United States,-114.471756,42.5556194285714,2083299608,http://www.vonscheidtbrewing.com,2018-08-24T00:30:18.042Z,2018-07-24T01:33:17.718Z
2313,Afterthought Brewing Company,micro,844 N Ridge Ave,,,Lombard,Illinois,,60148-1215,United States,-88.0223457433187,41.9054974203246,6303011615,http://afterthoughtbrewing.com,2018-08-24T00:30:25.723Z,2018-07-24T01:33:17.945Z
2328,Bent River Brewing Co,brewpub,1413 5th Ave,,,Moline,Illinois,,61265-1335,United States,-90.5173633673469,41.5059051632653,3097972722,http://www.bentriverbrewing.com,2018-08-24T00:30:32.481Z,2018-07-24T01:33:18.180Z
2337,Blue Nose Brewery,micro,6119 East Ave,,,Hodgkins,Illinois,,60525-4126,United States,-87.858334644028,41.7790490756887,7089055198,http://www.bluenosebrewery.com,2018-08-24T00:30:37.459Z,2018-07-24T01:33:18.288Z
2364,DESTIHL - Champaign,brewpub,301 N Neil St,,,Champaign,Illinois,,61820-3163,United States,-88.2437783,40.1184918,2173560301,http://www.destihl.com,2018-08-24T00:30:46.915Z,2018-07-24T01:33:18.615Z
2373,Emmett's Brewing Co - Downers Grove,brewpub,5200 Main St,,,Downers Grove,Illinois,,60515-4688,United States,-88.0105120520319,41.7925884,6304348500,http://www.emmettsbrewingco.com,2018-08-24T00:30:52.104Z,2018-07-24T01:33:18.724Z
2384,Flapjack Brewery,brewpub,6833 Stanley Ave,,,Berwyn,Illinois,,60402-5289,United States,-87.7943628097043,41.8334248420287,,http://www.flapjackbrewery.com,2018-08-24T00:30:58.113Z,2018-07-24T01:33:18.863Z
2396,Gordon Biersch Brewery Restaurant - Bolingbrook,brewpub,639 E Boughton Rd Ste 100,,,Bolingbrook,Illinois,,60440-3126,United States,-88.042356,41.721179,6307396036,http://www.craftworksrestaurants.com,2018-08-24T00:31:05.016Z,2018-07-24T01:33:19.017Z
2401,Granite City Food & Brewery (#22),brewpub,14035 S La Grange Rd,,,Orland Park,Illinois,,60462-1321,United States,-87.8538905553317,41.637482510049,7083641212,http://www.gcfb.com,2018-08-24T00:31:07.828Z,2018-07-24T01:33:19.090Z
2418,Hopskeller Brewing Company,brewpub,116 E 3rd St,,,Waterloo,Illinois,,62298-1608,United States,-90.1485026708463,38.3352174297561,6189392337,http://www.hopskeller.com,2018-08-24T00:31:15.859Z,2018-07-24T01:33:19.312Z
2420,Horse Thief Hollow Brewery,brewpub,10426 S Western Ave,,,Chicago,Illinois,,60643-2508,United States,-87.6819511632652,41.70388555,7737792739,http://www.horsethiefbrewing.com,2018-08-24T00:31:16.933Z,2018-07-24T01:33:19.338Z
2455,Metal Monkey Brewing LLC,micro,515 Anderson Dr Ste 900,,,Romeoville,Illinois,,60446-1494,United States,-88.0778806350934,41.645057495366,8155243139,http://www.metalmonkeybrewing.com,2018-08-24T00:31:32.786Z,2018-07-24T01:33:19.776Z
2466,Myths and Legends Brewing Company,micro,1115 Zygmunt Cir,,,Westmont,Illinois,,60559-2684,United States,-87.9817647,41.7763011,6304427864,http://www.mythsandlegendsbeer.com,2018-08-24T00:31:38.846Z,2018-07-24T01:33:19.914Z
2472,Off Color Brewing,micro,3925 W Dickens Ave,,,Chicago,Illinois,,60647-3453,United States,-87.7253843735564,41.9189269656549,,http://www.offcolorbrewing.com,2018-08-24T00:31:42.250Z,2018-07-24T01:33:19.988Z
2498,RAM Restaurant and Brewery - Wheeling,brewpub,700 N Milwaukee Ave,,,Wheeling,Illinois,,60090-3026,United States,-87.9155543,42.1541156,8475201222,http://www.theram.com,2018-08-24T00:31:55.741Z,2018-07-24T01:33:20.350Z
2513,Ryan Brewing Company,micro,5312 Williams Dr,,,Roscoe,Illinois,,61073,United States,-89.0101578170468,42.4211214006387,8152701223,http://www.ryanbrewingcompany.com,2018-08-24T00:32:03.945Z,2018-07-24T01:33:20.546Z
2532,Stubborn German Brewing Co,micro,119 S Main St,,,Waterloo,Illinois,,62298-1323,United States,-90.1503287598532,38.3353199424359,6185042444,http://www.stubborngermanbrewing.com,2018-08-24T00:32:11.136Z,2018-07-24T01:33:20.781Z
2564,18th Street Brewery,micro,5725 Miller Ave,,,Gary,Indiana,,46403-2871,United States,-87.2688778553589,41.5992834347567,,http://www.18thstreetbrewery.com,2018-08-24T00:32:25.536Z,2018-07-24T01:33:21.193Z
2568,95ate5 Brewpub,brewpub,9585 N Industrial Dr,,,Saint John,Indiana,,46373,United States,-87.4638030517554,41.4440024584439,2193656506,http://www.95ate5.com,2018-08-24T00:32:26.664Z,2018-07-24T01:33:21.246Z
2599,Burn'Em Brewing,brewpub,718 Freyer Rd,,,Michigan City,Indiana,,46360-1911,United States,-86.8297919071235,41.7384971691983,2193938606,http://www.burnembrewing.com,2018-08-24T00:32:40.359Z,2018-07-24T01:33:21.625Z
2616,Danny Boy Beer Works,brewpub,12702 Meeting House Rd,,,Carmel,Indiana,,46032-7292,United States,-86.1971767,39.971556,3176698080,http://www.dannyboybeerworks.com,2018-08-24T00:32:45.430Z,2018-07-24T01:33:21.831Z
2618,Deer Creek Brewery,micro,17661 Cumberland Rd,,,Noblesville,Indiana,,46060-,United States,-85.9962796,40.0443978,3176748266,http://www.deercreekbrewery.com,2018-08-24T00:32:46.570Z,2018-07-24T01:33:21.855Z
2650,Iechyd Da Brewing,brewpub,317 N Main St,,,Elkhart,Indiana,,46516-3034,United States,-85.9753133158581,41.69004065,5742930506,http://www.iechyddabrewingcompany.com,2018-08-24T00:33:00.890Z,2018-07-24T01:33:22.264Z
2662,Metazoa Brewing Co.,micro,140 S College Ave,,,Indianapolis,Indiana,,46202-4004,United States,-86.1458502485116,39.7645504924982,3175082274,http://www.metazoa.beer,2018-08-24T00:33:06.897Z,2018-07-24T01:33:22.422Z
2666,New Albanian Bank Street Brewhouse,brewpub,415 Bank St,,,New Albany,Indiana,,47150-3407,United States,-85.822208424036,38.2865673227507,8127259585,http://www.newalbanian.com,2018-08-24T00:33:08.442Z,2018-07-24T01:33:22.471Z
2684,RAM Restaurant and Brewery - Indianapolis,brewpub,140 S Illinois St,,,Indianapolis,Indiana,,46204,United States,-86.1605094727252,39.76475755,3179559900,http://www.theram.com,2018-08-24T00:33:17.348Z,2018-07-24T01:33:22.692Z
2692,Shoreline Brewery,brewpub,208 Wabash St,,,Michigan City,Indiana,,46360-3244,United States,-86.9062196842105,41.7193131052632,2198794677,http://www.shorelinebrewery.com,2018-08-24T00:33:21.449Z,2018-07-24T01:33:22.793Z
2708,The Red Yeti,brewpub,256 Spring St,,,Jeffersonville,Indiana,,47130-3340,United States,-85.7401585,38.2718249,8122885788,http://www.redyetijeff.com,2018-08-24T00:33:29.743Z,2018-07-24T01:33:22.988Z
2722,Upland Brewing Co - Bloomington Brewpub,regional,350 W 11th St,,,Bloomington,Indiana,,47404-3720,United States,-86.5374792673344,39.173423,8123362337,http://www.uplandbeer.com,2018-08-24T00:33:37.761Z,2018-07-24T01:33:23.175Z
2725,Wasser Brewing Company,brewpub,102 E Franklin St,,,Greencastle,Indiana,,46135-1220,United States,-86.8633102289789,39.6446717121844,7653019363,http://www.wasserbrewing.com,2018-08-24T00:33:39.585Z,2018-07-24T01:33:23.210Z
2745,Big's BBQ Brewpub,brewpub,124 2nd Ave NW,,,Mount Vernon,Iowa,,52314,United States,-91.4177200204082,41.9229993877551,3195351060,http://www.bigsbbqmv.com,2018-08-24T00:33:49.566Z,2018-07-24T01:33:23.466Z
2755,Crawford Brew Works,micro,3659 Devils Glen Rd,,,Bettendorf,Iowa,,52722,United States,-90.483443779661,41.5592441864407,,,2018-08-24T00:33:55.965Z,2018-07-24T01:33:23.593Z
2756,Deb's Brewtopia,micro,106 Cedar St,,,Elkader,Iowa,,52043,United States,-91.4060835272074,42.8548668119706,5632453737,http://www.debsbrewtopia.com,2018-08-24T00:33:56.500Z,2018-07-24T01:33:23.606Z
435,Brewery In Planning- Mission Viejo,planning,,,,,,,,United States,,,,,2018-07-24T01:32:53.249Z,2018-07-24T01:32:53.249Z
2769,Franklin Street Brewing Company,micro,116 S Franklin St,,,Manchester,Iowa,,52057-2121,United States,-91.4577792857143,42.483293244898,5639272722,http://www.franklinstreetbrewing.com,2018-08-24T00:37:54.640Z,2018-07-24T01:33:23.781Z
2786,Lion Bridge Brewing Company,brewpub,59 16th Ave SW,,,Cedar Rapids,Iowa,,52404-5948,United States,-91.66095280967,41.9647894789684,3192004460,http://www.lionbridgebrewing.com,2018-08-24T00:38:02.185Z,2018-07-24T01:33:24.007Z
2800,Pulpit Rock Brewing Co.,micro,207 College Dr,,,Decorah,Iowa,,52101-1304,United States,-91.7962545003461,43.3065402420925,5633803610,http://www.pulpitrockbrewing.net,2018-08-24T00:38:09.224Z,2018-07-24T01:33:24.271Z
2801,Quarter Barrel Arcade,brewpub,616 2nd Ave SE,,,Cedar Rapids,Iowa,,52401-1306,United States,-91.6631809387755,41.9806253265306,3196211836,http://www.thequarterbarrel.com,2018-08-24T00:38:09.776Z,2018-07-24T01:33:24.283Z
2817,Twisted Vine Brewery,micro,3320 Westown Pkwy,,,West Des Moines,Iowa,,50266-1111,United States,-93.7489517002412,41.5936597,5157202940,http://www.twistedvinebrewery.com,2018-08-24T00:38:17.525Z,2018-07-24T01:33:24.495Z
2834,Free State Brewing Co,brewpub,636 Massachusetts St,,,Lawrence,Kansas,,66044-2236,United States,-95.2358091579129,38.9724346875125,7858434555,http://www.freestatebrewing.com,2018-08-24T00:38:24.761Z,2018-07-24T01:33:24.734Z
2849,Norsemen Brewing Co.,micro,830 N Kansas Ave,,,Topeka,Kansas,,66608-1211,United States,-95.6663741987798,39.06706165,7856085065,http://www.norsemenbrewingco.com,2018-08-24T00:38:31.829Z,2018-07-24T01:33:24.928Z
2851,Radius Brewing Company,micro,610 Merchant St,,,Emporia,Kansas,,66801-2859,United States,-96.1813070612245,38.4052199591837,6202084677,http://radiusbrewing@yahoo.com,2018-08-24T00:38:32.802Z,2018-07-24T01:33:24.954Z
2881,Bluegrass Brewing Co - Brewpub,brewpub,300 W Main St,,,Louisville,Kentucky,,40202-2945,United States,-85.7550889765356,38.25620645,5028997070,http://www.bbcbrew.com,2018-08-24T00:38:44.908Z,2018-07-24T01:33:25.391Z
2897,Gordon Biersch Brewery Restaurant - Louisville,brewpub,400 S 4th St,,,Louisville,Kentucky,,40202-3418,United States,-85.7574044,38.2528789,5025898935,http://www.gordonbiersch.com/restaurant,2018-08-24T00:38:54.096Z,2018-07-24T01:33:25.614Z
2902,Hofbrauhaus Newport,brewpub,200 E 3rd St,,,Newport,Kentucky,,41071-1612,United States,-84.494527,39.094846,8594917200,http://www.hofbrauhausnewport.com,2018-08-24T00:38:56.088Z,2018-07-24T01:33:25.679Z
2917,Rock House Brewing,micro,119 Luigart Ct,,,Lexington,Kentucky,,40508-1686,United States,-84.4822984081633,38.0565233673469,8593687064,http://www.rockhousebrewing.com,2018-08-24T00:39:03.899Z,2018-07-24T01:33:25.882Z
2920,Sterling Beer Co.,contract,3214 Preston Hwy,,,Louisville,Kentucky,,40213-1330,United States,-85.7347014047845,38.2019083,5022338485,http://www.sterlingbeer.com,2018-08-24T00:39:05.334Z,2018-07-24T01:33:25.927Z
2941,Crying Eagle Brewing Company,micro,1165 E McNeese St,,,Lake Charles,Louisiana,,70607-4753,United States,-93.2051513265306,30.1762643877551,3379904871,http://www.cryingeagle.com,2018-08-24T00:39:12.947Z,2018-07-24T01:33:26.228Z
2944,Flying Heart Brewing,micro,700 Barksdale Blvd,,,Bossier City,Louisiana,,71111-4502,United States,-93.732075,32.515706,3183448775,http://www.flyingheartbrewing.com,2018-08-24T00:39:14.456Z,2018-07-24T01:33:26.269Z
2948,Gordon Biersch Brewery Restaurant - New Orleans,brewpub,200 Poydras St,,,New Orleans,Louisiana,,70130-1641,United States,-90.0651027,29.9481058,5045522739,http://www.craftworksrestaurants.com,2018-08-24T00:39:15.915Z,2018-07-24T01:33:26.327Z
2973,Wayward Owl Brewing Company,micro,3940 Thalia St,,,New Orleans,Louisiana,,70125-2008,United States,-90.0975913741154,29.9521547,5048271646,http://www.waywardowlbrewing.com,2018-08-24T00:39:28.572Z,2018-07-24T01:33:26.642Z
2992,Bigelow Brewing Company,brewpub,473 Bigelow Hill Rd,,,Skowhegan,Maine,,04976-5126,United States,-69.7296161313716,44.7199196699464,2073996262,http://www.bigelowbrewing.com,2018-08-24T00:39:36.370Z,2018-07-24T01:33:26.894Z
3000,D.L. Geary Brewing Co Inc.,micro,38 Evergreen Dr,,,Portland,Maine,,04103-1066,United States,-70.314848130679,43.7076741571514,2078782337,http://www.gearybrewing.com,2018-08-24T00:39:39.267Z,2018-07-24T01:33:26.993Z
3021,Gritty McDuffs - Portland,brewpub,396 Fore St,,,Portland,Maine,,04101-4026,United States,-70.2533609,43.6564108,2077722739,http://www.grittys.com,2018-08-24T00:39:48.759Z,2018-07-24T01:33:27.266Z
3042,Mason's Brewing Company,micro,15 Hardy St,,,Brewer,Maine,,04412-2207,United States,-68.7695709213165,44.7914659606583,2079896300,http://www.masonsbrewingcompany.com,2018-08-24T00:39:57.575Z,2018-07-24T01:33:27.533Z
3049,Norway Brewing Company,brewpub,237 Main St,,,Norway,Maine,,04268-5913,United States,-70.5268344,44.1973621,2077392126,http://www.norwaybrewing.com,2018-08-24T00:40:01.014Z,2018-07-24T01:33:27.625Z
462,Carmel Valley Brewing Company,micro,,,,,,,,United States,,,8316594341,http://www.carmelvalleybrewing.com,2018-07-24T01:32:53.584Z,2018-07-24T01:32:53.584Z
468,Cellador Ales,micro,,,,,,,,United States,,,,http://www.celladorales.com,2018-07-24T01:32:53.665Z,2018-07-24T01:32:53.665Z
3075,Shipyard Brewing Co,regional,86 Newbury St,,,Portland,Maine,,04101-4219,United States,-70.2486231394133,43.6615851,2077610807,http://www.shipyard.com,2018-08-24T00:40:11.302Z,2018-07-24T01:33:28.019Z
3099,Barley and Hops Grill,brewpub,5473 Urbana Pike,,,Frederick,Maryland,,21704-7275,United States,-77.3995969,39.38204685,3016685555,http://www.barleyandhops.net,2018-08-24T00:40:19.465Z,2018-07-24T01:33:28.388Z
3105,Brewer's Alley Restaurant and Brewery,brewpub,124 N Market St,,,Frederick,Maryland,,21701-5422,United States,-77.4104551496397,39.41607325,3016310089,http://www.brewers-alley.com,2018-08-24T00:40:21.333Z,2018-07-24T01:33:28.474Z
3132,Evolution Craft Brewing Co,regional,200 Elmwood St,,,Salisbury,Maryland,,21804-5522,United States,-75.595254,38.361979,4432602337,http://www.evolutioncraftbrewing.com,2018-08-24T00:40:29.438Z,2018-07-24T01:33:28.870Z
3136,Flying Dog Brewery,regional,4607 Wedgewood Blvd,,,Frederick,Maryland,,21703-7120,United States,-77.4267910677553,39.3628322,3016947899,http://www.flyingdogbrewery.com,2018-08-24T00:40:30.783Z,2018-07-24T01:33:28.920Z
3137,Franklins General Store,micro,5123 Baltimore Ave,,,Hyattsville,Maryland,,20781-2042,United States,-76.9407411387391,38.9519439895478,3019272740,http://Franklinsbrewery.com,2018-08-24T00:40:31.278Z,2018-07-24T01:33:28.934Z
3146,Greene Growlers,brewpub,227 E Diamond Ave,,,Gaithersburg,Maryland,,20877,United States,-77.1935558364428,39.1419364,2402616196,http://www.greenegrowlers.com,2018-08-24T00:40:34.510Z,2018-07-24T01:33:29.066Z
3176,Pub Dog Brewing Company,micro,1203 New Windsor Rd,,,Westminster,Maryland,,21158-6704,United States,-77.0522979602972,39.5504519724238,4108483993,http://www.pubdog.com,2018-08-24T00:40:44.020Z,2018-07-24T01:33:29.505Z
3184,Saints Row Brewing,micro,1211 Taft St,,,Rockville,Maryland,,20850-1344,United States,-77.1340180802385,39.0936171503817,,http://www.saintsrowbeer.com,2018-08-24T00:40:47.652Z,2018-07-24T01:33:29.615Z
3196,The Brewer's Art / Old Line Brewery LLC,brewpub,1106 N Charles St,,,Baltimore,Maryland,,21201-5557,United States,-76.6146068,39.303716,,http://www.thebrewersart.com,2018-08-24T00:40:52.085Z,2018-07-24T01:33:29.773Z
3229,Berkshire Brewing Co Inc,regional,12 Railroad St,,,South Deerfield,Massachusetts,,01373-0096,United States,-72.6102508608935,42.4777979726281,4136656600,http://www.Berkshire-Brewing.com,2018-08-24T00:41:03.580Z,2018-07-24T01:33:30.258Z
3230,Big Elm Brewing,micro,65 Silver St,,,Sheffield,Massachusetts,,01257,United States,-73.351236,42.093595,4132292348,http://www.bigelmbrewery.com,2018-08-24T00:41:04.144Z,2018-07-24T01:33:30.272Z
3252,Brewmasters Tavern / Brewmasters Brewing Services,micro,4 Main St,,,Williamsburg,Massachusetts,,01096-9428,United States,-72.7305059,42.3923659,4132682199,,2018-08-24T00:41:09.225Z,2018-07-24T01:33:30.561Z
3271,Deadwood Brewery / Boston Bowl,brewpub,820 William T Morrissey Blvd,,,Boston,Massachusetts,,02122-3404,United States,-71.047997482376,42.2948560502166,6177401440,http://www.deadwoodbrewery.com,2018-08-24T00:41:15.440Z,2018-07-24T01:33:30.852Z
3279,Entitled Beer Company,proprietor,21 North St,,,Hingham,Massachusetts,,02043-,United States,-70.8861847258737,42.2436072296139,7817401035,http://www.entitledbrewing.com,2018-08-24T00:41:18.710Z,2018-07-24T01:33:30.964Z
3280,Exhibit 'A' Brewing Co.,micro,81 Morton St,,,Framingham,Massachusetts,,01702-7153,United States,-71.4018708794239,42.27880435,,http://www.exhibit-A-brewing.com,2018-08-24T00:41:19.161Z,2018-07-24T01:33:30.979Z
3301,John Harvards Brew House - Framingham,brewpub,1 Worcester Rd,,,Framingham,Massachusetts,,01701-5359,United States,-71.3961924451932,42.30411485,5088752337,http://www.johnharvards.com,2018-08-24T00:41:27.695Z,2018-07-24T01:33:31.266Z
3320,Navigation Brewing Co,micro,122 Western Ave,,,Lowell,Massachusetts,,01851-1433,United States,-71.3246481212121,42.640349969697,,http://www.navigationbrewing.com,2018-08-24T00:41:34.456Z,2018-07-24T01:33:31.534Z
3327,Oak & Iron Brewing Co,brewpub,18 Red Spring Rd,,,Andover,Massachusetts,,01810-3448,United States,-71.1478857877187,42.656149077407,9784754077,http://www.oakandironbrewing.com,2018-08-24T00:41:37.236Z,2018-07-24T01:33:31.622Z
3336,Percival Brewing Company,micro,83 Morse St,,,Norwood,Massachusetts,,02122,United States,-71.2072322984867,42.1722630460252,7816644705,http://www.percivalbeercompany.com,2018-08-24T00:41:40.339Z,2018-07-24T01:33:31.735Z
3354,Slesar Bros Brewing Co - Boston Beer Works,brewpub,112 Canal St,,,Boston,Massachusetts,,02114-1805,United States,-71.0603412,42.364473,6178962337,http://www.beerworks.net,2018-08-24T00:41:47.343Z,2018-07-24T01:33:31.966Z
3375,Wachusett Brewing Co,regional,175 State Rd E,,,Westminster,Massachusetts,,01473-1208,United States,-71.872940157432,42.557835421284,9788749965,http://www.wachusettbrew.com,2018-08-24T00:41:55.642Z,2018-07-24T01:33:32.268Z
3376,Wandering Star Brewing Co,micro,11 Gifford St,,,Pittsfield,Massachusetts,,01201-3701,United States,-73.2120230280269,42.4570644889269,9175733942,http://www.wanderingstarbrewing.com,2018-08-24T00:41:56.112Z,2018-07-24T01:33:32.280Z
3397,Arcadia Brewing Co,micro,701 E Michigan Ave,,,Kalamazoo,Michigan,,49007-4946,United States,-85.5715368,42.2950789,2692760458,http://www.arcadiaales.com,2018-08-24T00:42:04.699Z,2018-07-24T01:33:32.625Z
3403,Atwater In the Park Biergarten and Tap House,brewpub,1175 Lakepointe St,,,Grosse Pointe Park,Michigan,,48230-1319,United States,-82.9399103,42.3814617,3133445104,http://www.atwaterbeer.com,2018-08-24T00:42:07.906Z,2018-07-24T01:33:32.710Z
3424,Big Boiler Brewing,brewpub,318 E Main St,,,Lowell,Michigan,,49331-1714,United States,-85.3365535102041,42.9346293061224,6169873155,http://bigboilerbrewing.com,2018-08-24T00:42:17.329Z,2018-07-24T01:33:33.039Z
3425,Big Cat Brewing Company,brewpub,8699 S Good Harbor Trl,,,Cedar,Michigan,,49621-8580,United States,-85.7931151093116,44.8531928678156,2312282282,http://www.bigcatbrewingco.com,2018-08-24T00:42:17.788Z,2018-07-24T01:33:33.057Z
3430,Bilbo's Pizza and Brewery,brewpub,3307 Stadium Dr,,,Kalamazoo,Michigan,,49008-1528,United States,-85.6312249418605,42.271602248062,2693825544,http://www.bilbospizza.com,2018-08-24T00:42:19.754Z,2018-07-24T01:33:33.138Z
3456,Brewery Vivant,brewpub,925 Cherry St SE,,,Grand Rapids,Michigan,,49506-1403,United States,-85.6468380909091,42.9596159090909,6167191604,http://www.breweryvivant.com,2018-08-24T00:42:28.729Z,2018-07-24T01:33:33.476Z
3476,Cognito Brewing Company,brewpub,142 W Monroe St,,,Bangor,Michigan,,49013-1333,United States,-86.1115220816327,42.3130809897959,9718088863,http://www.cognitobrewingcompany.com,2018-08-24T00:42:36.741Z,2018-07-24T01:33:33.747Z
3478,ConfluxCity Brewing Company,micro,110 N Water St,,,Portland,Michigan,,48875,United States,-84.9032148381293,42.8714242896063,5175269091,http://www.confluxcitybrew.com,2018-08-24T00:42:37.634Z,2018-07-24T01:33:33.776Z
3494,Draught Horse Brewery,brewpub,57721 Grand River Ave,,,New Hudson,Michigan,,48165-8542,United States,-83.61459,42.5113546,2486173000,http://www.draughthorsebrewery.com,2018-08-24T00:42:45.501Z,2018-07-24T01:33:33.998Z
3518,Final Gravity Brewing Company,micro,246 N Burdick St,,,Kalamazoo,Michigan,,49007-3828,United States,-85.5831588823529,42.2932447058824,,http://www.finalgravitybrew.com,2018-08-24T00:42:55.326Z,2018-07-24T01:33:34.299Z
3524,Fountain Hill Brewery,brewpub,151 Fountain St NE,,,Grand Rapids,Michigan,,49503-3263,United States,-85.664754,42.965489,6162343690,,2018-08-24T00:42:58.010Z,2018-07-24T01:33:34.372Z
3530,Gonzo's BigDogg Brewery,brewpub,140 S Westnedge Ave,,,Kalamazoo,Michigan,,49007-4600,United States,-85.590082607993,42.2908852,2693822739,http://www.gonzosbiggdoggbrewing.com,2018-08-24T00:43:00.287Z,2018-07-24T01:33:34.443Z
534,Double Peak Brewing Company,planning,,,,,,,,United States,,,,,2018-07-24T01:32:54.529Z,2018-07-24T01:32:54.529Z
512,Culver Beer Company,micro,2719 Loker Ave W Ste D,,,Carlsbad,California,,92010-6679,United States,,,7608142355,http://www.culverbeer.com,2018-08-11T21:36:00.746Z,2018-07-24T01:32:54.244Z
3534,Grand River Brewery,brewpub,117 W Louis Glick Hwy,,,Jackson,Michigan,,49201-1327,United States,-84.406597,42.249334,5179622427,http://www.grandrivermarketplace.com,2018-08-24T00:43:02.095Z,2018-07-24T01:33:34.497Z
3552,Harpers Restaurant and Brewpub,brewpub,131 Albert Ave,,,East Lansing,Michigan,,48823-4315,United States,-84.4828245246491,42.73626665,5173334040,http://www.harpersbrewpub.com,2018-08-24T00:43:09.362Z,2018-07-24T01:33:34.725Z
3571,Jamesport Brewing Co,brewpub,410 S James St,,,Ludington,Michigan,,49431-2159,United States,-86.447873020905,43.9516856656598,2318452522,http://www.jamesportbrewingcompany.com,2018-08-24T00:43:17.180Z,2018-07-24T01:33:34.960Z
3578,Kelsey Block Brewing Company,brewpub,41 N Main St,,,Three Rivers,Michigan,,49093-1531,United States,-85.6333396122449,41.9447466122449,2697183667,http://www.kelseyblock.com,2018-08-24T00:43:20.490Z,2018-07-24T01:33:35.079Z
3599,Looking Glass Brewing Company,brewpub,115 N Bridge St,,,Dewitt,Michigan,,48820-8901,United States,-84.5692237142857,42.8424362857143,5175827287,http://www.facebook.com/DeWittBreweryProject/,2018-08-24T00:43:30.330Z,2018-07-24T01:33:35.350Z
3614,Mitten Brewing Co - Northport,brewpub,112 W Nagonaba St,,,Northport,Michigan,,49670-5018,United States,-85.6180190909091,45.129833,6163182448,,2018-08-24T00:43:36.787Z,2018-07-24T01:33:35.546Z
3623,Newaygo Brewing Co,brewpub,19 State Rd,,,Newaygo,Michigan,,49337-7951,United States,-85.795858083189,43.4238664248786,2314526551,http://www.newaygobrewing.com,2018-08-24T00:43:40.554Z,2018-07-24T01:33:35.663Z
3641,Oracle Brewing Company,micro,122 N Michigan Ave,,,Saginaw,Michigan,,48602-4234,United States,-83.9640135102041,43.417723,9894017446,http://www.oraclebeer.com,2018-08-24T00:43:47.539Z,2018-07-24T01:33:35.890Z
3659,Pileated Brewing Co,micro,2290 South Industrial Highway,,,Ann Arbor,Michigan,,48104,United States,-83.7338530381679,42.2528624961832,7343696290,http://www.pileatedbrewing.com,2018-08-24T00:43:55.050Z,2018-07-24T01:33:36.121Z
3663,Railtown Brewing Co,micro,3595 68th St SE,,,Dutton,Michigan,,49316-8503,United States,-85.5783306530612,42.841188877551,6168812364,http://www.railtownbrewing.com,2018-08-24T00:43:56.435Z,2018-07-24T01:33:36.176Z
3670,River Rouge Brewing Company,micro,406 E 4th St,,,Royal Oak,Michigan,,48067-2757,United States,-83.1405958686869,42.4872653131313,2488020555,http://www.riverrougebrew.com,2018-08-24T00:43:59.712Z,2018-07-24T01:33:36.279Z
3688,Sherwood Brewing Co,brewpub,45689 Hayes Rd,,,Shelby Township,Michigan,,48315-6214,United States,-82.9736141428571,42.6320201428571,5865329669,http://www.sherwoodbrewing.com,2018-08-24T00:44:07.869Z,2018-07-24T01:33:36.515Z
3689,Shipwreck Brewing Company,brewpub,24409 Jefferson Ave,,,Saint Clair Shores,Michigan,,48080-1318,United States,-82.8887785856805,42.4712223090048,5869442266,http://www.shipwreckbrewingcompany.com,2018-08-24T00:44:08.299Z,2018-07-24T01:33:36.527Z
3710,Tapistry Brewing Company,micro,4236 Lake St,,,Bridgman,Michigan,,49106-9109,United States,-86.5561575,41.9427559,2692667349,http://www.tapistrybrewing.com,2018-08-24T00:44:18.183Z,2018-07-24T01:33:36.819Z
3712,Tecumseh Brewing Company,brewpub,128 W Chicago Blvd,,,Tecumseh,Michigan,,49286-1553,United States,-83.946191,42.004052,5178151726,http://www.tecumsehbrewingco.com,2018-08-24T00:44:19.242Z,2018-07-24T01:33:36.844Z
3724,The Mitten Brewing Co,brewpub,527 Leonard St NW,,,Grand Rapids,Michigan,,49504-4278,United States,-85.68101,42.9850773333333,6166085612,http://www.mittenbrewing.com,2018-08-24T00:44:24.797Z,2018-07-24T01:33:37.017Z
3742,Tripelroot,brewpub,146 E Main Ave,,,Zeeland,Michigan,,49464-1736,United States,-86.0146348246228,42.81211765,6169530050,http://www.tripelroot.com,2018-08-24T00:44:32.320Z,2018-07-24T01:33:37.254Z
3755,Walldorff Brewpub & Bistro,brewpub,105 E State St,,,Hastings,Michigan,,49058-1808,United States,-85.284584,42.6487487,2699454400,http://www.walldorffbrewpub.com,2018-08-24T00:44:38.945Z,2018-07-24T01:33:37.428Z
3757,Watermark Brewing Company,micro,5781 Saint Joseph Ave,,,Stevensville,Michigan,,49127-1238,United States,-86.51963025,42.0128666818182,2692810872,http://www.watermarkbrewing.com,2018-08-24T00:44:40.161Z,2018-07-24T01:33:37.456Z
3762,Witch's Hat Brewing,micro,601 S Lafayette St,,,South Lyon,Michigan,,48178-1453,United States,-83.6509930768823,42.4554252170515,2484862595,http://www.witchshatbrewing.com,2018-08-24T00:44:41.305Z,2018-07-24T01:33:37.518Z
3785,Barrel Theory Beer Company,micro,248 7th St E,,,Saint Paul,Minnesota,,55101-2349,United States,-93.0880348205128,44.9510655128205,6516003422,http://www.barreltheory.com,2018-08-24T00:44:51.098Z,2018-07-24T01:33:37.831Z
3802,BoomTown Brewery and Woodfire Grill,brewpub,531 E Howard St,,,Hibbing,Minnesota,,55746-1713,United States,-92.9355964,47.4276931,2184401710,http://www.boomtownwoodfire.com,2018-08-24T00:44:58.216Z,2018-07-24T01:33:38.065Z
3812,Carmody Irish Pub & Brewing,brewpub,308 E Superior St,,,Duluth,Minnesota,,55802-2120,United States,-92.0941880943814,46.7898679947981,2187404747,http://www.carmodyirishpub.com,2018-08-24T00:45:00.853Z,2018-07-24T01:33:38.197Z
584,Falls Canyon Brewing Co.,planning,,,,,,,,United States,,,,,2018-07-24T01:32:55.260Z,2018-07-24T01:32:55.260Z
561,Eel River Brewing Co - Facility and Warehouse,micro,600 K Bridge St,,,Scotia,California,,95565,United States,,,7077641772,,2018-08-11T21:36:02.426Z,2018-07-24T01:32:54.884Z
3832,Forager Brewing Company,brewpub,1005 6th St NW,,,Rochester,Minnesota,,55901-2741,United States,-92.4786810104941,44.0293769630614,5072587490,http://www.foragerbrewery.com,2018-08-24T00:45:10.895Z,2018-07-24T01:33:38.454Z
3850,"Gull Dam Brewing, Inc.",micro,23836 Smiley Rd,,,Nisswa,Minnesota,,56468,United States,-94.2976626608308,46.4983497833438,2189632739,http://www.gulldambrewing.com,2018-08-24T00:45:18.433Z,2018-07-24T01:33:38.687Z
3852,HammerHeart Brewing Company,micro,7785 Lake Dr,,,Lino Lakes,Minnesota,,55014-1109,United States,-93.1064135,45.1890903,6513482654,http://www.hammerheartbrewing.com,2018-08-24T00:45:19.341Z,2018-07-24T01:33:38.715Z
3875,Lakes & Legends Brewing Company,micro,1368 Lasalle Ave,,,Minneapolis,Minnesota,,55403-2316,United States,-93.2794629,44.9689387,6129996020,http://www.lakesandlegends.com,2018-08-24T00:45:28.880Z,2018-07-24T01:33:39.020Z
3894,Nutmeg Brewhouse,brewpub,1905 County Road 42 W,,,Burnsville,Minnesota,,55306-6211,United States,-93.3054737692308,44.7463634615385,9528921438,http://www.nutmegbrewhouse.com,2018-08-24T00:45:37.098Z,2018-07-24T01:33:39.264Z
3896,OMNI Brewing Company,micro,9462 Deerwood Ln N,,,Maple Grove,Minnesota,,55369-3629,United States,-93.4258984285714,45.1260514285714,7152229832,,2018-08-24T00:45:37.980Z,2018-07-24T01:33:39.288Z
3897,Oswald Brewing Company,brewpub,110 S Main St,,,Blue Earth,Minnesota,,56013-2007,United States,-94.2184542040816,44.1061044897959,5075263101,http://www.oswaldbrewingcompany.com,2018-08-24T00:45:38.476Z,2018-07-24T01:33:39.304Z
3916,Spilled Grain Brewhouse,micro,300 Elm St E,,,Annandale,Minnesota,,55302-9406,United States,-94.1194613181467,45.2595823784151,3202741129,http://www.spilledgrainbrewhouse.com,2018-08-24T00:45:46.610Z,2018-07-24T01:33:39.579Z
3940,Urban Lodge Brewery,brewpub,415 N Benton Dr,,,Sauk Rapids,Minnesota,,56379-1534,United States,-94.1628024974759,45.5857195333456,3202815454,http://urbanlodgebrewery.com,2018-08-24T00:45:56.143Z,2018-07-24T01:33:39.879Z
3944,Vine Park Brewing Co,micro,1254 7th St W,,,Saint Paul,Minnesota,,55102-4123,United States,-93.1655001,44.9040455,6512281355,http://www.vinepark.com,2018-08-24T00:45:57.651Z,2018-07-24T01:33:39.934Z
3957,Chandeleur Island Brewing Company,micro,2711 14th St,,,Gulfport,Mississippi,,39501-1928,United States,-89.0954070161456,30.367827,2287019985,http://www.chandeleurbrew.com,2018-08-24T00:46:03.091Z,2018-07-24T01:33:40.172Z
3976,Anheuser-Busch InBev,large,1 Busch Pl,,,Saint Louis,Missouri,,63118-1849,United States,-90.2118998,38.5954536,3145772000,http://www.anheuser-busch.com,2018-08-24T00:46:11.169Z,2018-07-24T01:33:40.443Z
3994,Bronze Owl Brewing,brewpub,506 Vine St,,,Poplar Bluff,Missouri,,63901-7331,United States,-90.3957733846154,36.7566310769231,5738405202,http://www.bronzeowlbrewing.com,2018-08-24T00:46:16.932Z,2018-07-24T01:33:40.712Z
3998,Cathedral Square Brewery,contract,3914 Lindell Blvd,,,Saint Louis,Missouri,,63108-3204,United States,-90.2439837,38.6394897,3148033605,http://www.cathedralsquarebrewery.com,2018-08-24T00:46:18.987Z,2018-07-24T01:33:40.767Z
4002,Cinder Block Brewery,brewpub,110 E 18th Ave,,,North Kansas City,Missouri,,64116-3635,United States,-94.5794652075528,39.1403371573456,8165608365,http://www.cinderblockbrewery.com,2018-08-24T00:46:20.410Z,2018-07-24T01:33:40.821Z
4023,Griesedieck Brothers Brewery,contract,1240 Switzer Ave,,,Saint Louis,Missouri,,63147-1840,United States,-90.2349872112676,38.7090351126761,3143093210,http://www.gb-beer.com,2018-08-24T00:46:29.773Z,2018-07-24T01:33:41.120Z
4039,McCoy's Public House,brewpub,4057 Pennsylvania Ave,,,Kansas City,Missouri,,64111-3021,United States,-94.5911729,39.1002989,8169600866,http://www.mccoyspublichouse.com,2018-08-24T00:46:36.359Z,2018-07-24T01:33:41.334Z
4044,Morgan Street Brewery,proprietor,721 N 2nd St,,,Saint Louis,Missouri,,63102-2518,United States,-90.1846587143656,38.6303271900035,3142319970,http://www.morganstreetbrewery.com,2018-08-24T00:46:38.691Z,2018-07-24T01:33:41.400Z
4072,Strange Days Brewing Co,micro,316 Oak St,,,Kansas City,Missouri,,64106,United States,-94.5799451187632,39.1100614,8164695321,http://www.strangedaysbrewing.com,2018-08-24T00:46:48.321Z,2018-07-24T01:33:41.766Z
4084,Weston Brewing Co / O'Malley's Pub,micro,500 Welt St,,,Weston,Missouri,,64098-1242,United States,-94.899934,39.411378,,http://www.westonirish.com,2018-08-24T00:46:53.436Z,2018-07-24T01:33:41.933Z
4088,2 Basset Brewery,micro,202 E Main St,,,White Sulphur Springs,Montana,,59645-9081,United States,-110.900486489644,46.5480760866913,4065472337,http://www.2bassetbrewery.com,2018-08-24T00:46:55.355Z,2018-07-24T01:33:41.996Z
4114,Cabinet Mountain Brewing Co,brewpub,206 Mineral Ave,,,Libby,Montana,,59923-1952,United States,-115.5506412,48.3936508,4062932739,http://www.cabinetmountainbrewing.com,2018-08-24T00:47:04.988Z,2018-07-24T01:33:42.374Z
4133,Harvest Moon Brewing,micro,7 5th St S,,,Belt,Montana,,59412-0510,United States,-110.92985271363,47.3822191883646,4062773188,http://www.harvestmoonbrew.com,2018-08-24T00:47:12.187Z,2018-07-24T01:33:42.675Z
4150,Meadowlark Brewing,brewpub,117 S Central Ave,,,Sidney,Montana,,59270-4123,United States,-104.1602945,47.7105211,,http://www.meadowlarkbrewing.com,2018-08-24T00:47:19.695Z,2018-07-24T01:33:42.889Z
4165,Red Lodge Ales Brewing Co,micro,1445 N Broadway Ave,,,Red Lodge,Montana,,59068-9383,United States,-109.24653926506,45.1972705301205,4064464607,http://www.redlodgeales.net,2018-08-24T00:47:25.147Z,2018-07-24T01:33:43.113Z
4184,Benson Brewery,brewpub,6059 Maple St,,,Omaha,Nebraska,,68104-4050,United States,-96.0063451111111,41.2848975555556,4029348668,http://www.bensonbrewery.com,2018-08-24T00:47:32.331Z,2018-07-24T01:33:43.367Z
4192,Brickway Brewery and Distillery,micro,1116 Jackson St,,,Omaha,Nebraska,,68102-2825,United States,-95.930905244898,41.2544908163265,4029332613,http://www.drinkbrickway.com,2018-08-24T00:47:35.050Z,2018-07-24T01:33:43.479Z
4199,Farnam House Brewing Company,brewpub,3558 Farnam St,,,Omaha,Nebraska,,68131-3304,United States,-95.9658017764832,41.2578153029739,4024016086,http://www.farnamhousebrewing.com,2018-08-24T00:47:37.853Z,2018-07-24T01:33:43.569Z
4223,Pals Brewing Company,brewpub,4520 South Buffalo Bill Avenue,,,North Platte,Nebraska,,69101,United States,-100.7916041,41.12294,6088079332,http://www.palsbrewingcompany.com,2018-08-24T00:47:47.154Z,2018-07-24T01:33:43.928Z
4232,Thunderhead Brewing Co,brewpub,18 E 21st St,,,Kearney,Nebraska,,68847-5402,United States,-99.080732,40.6966518333333,3082371558,http://www.thunderheadbrewing.com,2018-08-24T00:47:50.761Z,2018-07-24T01:33:44.064Z
4235,White Elm Brewing Co,micro,720 Van Dorn St,,,Lincoln,Nebraska,,68502-3353,United States,-96.7167126,40.7856925,4022616078,http://www.whiteelmbrewing.com,2018-08-24T00:47:52.147Z,2018-07-24T01:33:44.106Z
4239,Alibi Ale Works,micro,204 E Enterprise St,,,Incline Village,Nevada,,89451-9456,United States,-119.953711697581,39.2481932808664,7752987001,http://www.alibialeworks.com,2018-08-24T00:47:54.027Z,2018-07-24T01:33:44.168Z
1205,Altered Code Brewing,planning,,,,,,,,United States,,,,http://www.alteredcodebrewing.com,2018-07-24T01:33:03.421Z,2018-07-24T01:33:03.421Z
622,GBC,micro,26015 Jefferson Ave Ste D,,,Murrieta,California,,92562-6985,United States,,,,,2018-08-11T21:36:04.629Z,2018-07-24T01:32:55.771Z
4269,Pigeon Head Brewery,micro,840 E 5th St,,,Reno,Nevada,,89512-3508,United States,-119.802684979592,39.5333757755102,7752766766,http://www.pigeonheadbrewery.com,2018-08-24T15:35:41.541Z,2018-07-24T01:33:44.570Z
4283,The Fox Brewpub,brewpub,310 S Carson St,,,Carson City,Nevada,,89701-4754,United States,-119.7708155,39.1269616,7758831369,http://www.foxbrewpub.com,2018-08-24T15:35:47.985Z,2018-07-24T01:33:44.766Z
4284,Tonopah Brewing Co,brewpub,315 S Main St,,,Tonopah,Nevada,,89049,United States,-117.231982349599,38.070350236911,7754822000,http://www.tonopahbrewing.com,2018-08-24T15:35:48.724Z,2018-07-24T01:33:44.780Z
4301,Big Water Brewery,micro,24 Robie Rd,,,Salisbury,New Hampshire,,03268-5423,United States,-71.717004,43.409129,6036486068,http://www.bigwaterbrewery.net,2018-08-24T15:35:58.480Z,2018-07-24T01:33:45.142Z
4328,Martha's Exchange Restaurant and Brewery,brewpub,185 Main St,,,Nashua,New Hampshire,,03060-2701,United States,-71.4654818146987,42.7604446,6038838781,http://www.marthas-exchange.com,2018-08-24T15:36:10.851Z,2018-07-24T01:33:45.493Z
4329,Millyard Brewing,micro,25 E Otterson St,,,Nashua,New Hampshire,,03060-3941,United States,-71.4598818883104,42.7544214,6035055079,http://www.millyardbrewery.com,2018-08-24T15:36:11.493Z,2018-07-24T01:33:45.505Z
4348,Stark Brewing Company,brewpub,500 North Commercial St,,,Manchester,New Hampshire,,03101-1151,United States,-71.4676557,42.9945554,6036254444,http://www.starkbrewingcompany.com,2018-08-24T15:36:19.710Z,2018-07-24T01:33:45.759Z
4377,Birravino,brewpub,183 Riverside Ave,,,Red Bank,New Jersey,,07701-1015,United States,-74.0753623780113,40.3535256530315,7328425990,http://www.birravino.com,2018-08-24T15:36:31.454Z,2018-07-24T01:33:46.179Z
4391,Bucket Brigade Brewery,micro,205 N Main St,,,Cape May Court House,New Jersey,,08210-2121,United States,-74.8194635306123,39.086856,6097782641,http://www.bucketbrigadebrewery.com,2018-08-24T15:36:35.302Z,2018-07-24T01:33:46.376Z
4415,Eight & Sand Beer Co,micro,1003 N Evergreen Ave,,,Woodbury,New Jersey,,08096-,United States,-75.1422203358405,39.8493472478197,8565371339,http://www.eightandsandbeer.com,2018-08-24T15:36:45.871Z,2018-07-24T01:33:46.690Z
4424,Harvest Moon Brewery/Cafe,brewpub,392 George St,,,New Brunswick,New Jersey,,08901-2018,United States,-74.4442058,40.4962516,7322496666,http://www.harvestmoonbrewery.com,2018-08-24T15:36:49.887Z,2018-07-24T01:33:46.809Z
4446,Lower Forge Brewery,micro,14 S Main St,,,Medford,New Jersey,,08055-2414,United States,-74.8236255591221,39.8990962932246,6099759532,http://www.lowerforge.com,2018-08-24T15:36:58.210Z,2018-07-24T01:33:47.097Z
4470,Third State Brewing,micro,352 High St,,,Burlington,New Jersey,,08016-4412,United States,-74.8584192483396,40.0780314070468,6093871620,http://www.thirdstatebrewing.com,2018-08-24T15:37:07.658Z,2018-07-24T01:33:47.418Z
4471,Three 3's Brewery,micro,50 13th St,,,Hammonton,New Jersey,,08037-1559,United States,-74.8114726140078,39.6385625,7328141396,http://www.three3sbrewing.com,2018-08-24T15:37:08.107Z,2018-07-24T01:33:47.431Z
4474,Trap Rock Restaurant And Brewery,brewpub,279 Springfield Ave,,,Berkeley Heights,New Jersey,,07922-1214,United States,-74.4348121711718,40.6890382,9086651755,http://www.traprockrestaurant.net,2018-08-24T15:37:09.472Z,2018-07-24T01:33:47.472Z
4494,Boese Brothers Brewing,micro,601 Gold Ave SW,,,Albuquerque,New Mexico,,87102-3119,United States,-106.654295,35.083957,5053827060,http://www.boesebrothers.com,2018-08-24T15:37:19.203Z,2018-07-24T01:33:47.758Z
4518,Flix Brewhouse,brewpub,3236 La Orilla Rd NW,,,Albuquerque,New Mexico,,87120-2630,United States,-106.681589567802,35.15878955,5054458500,,2018-08-24T15:37:30.939Z,2018-07-24T01:33:48.124Z
4519,Guadalupe Mountain Brewing Company,brewpub,3404 National Parks Hwy,,,Carlsbad,New Mexico,,88220-5349,United States,-104.224021139894,32.3821008,5753617761,,2018-08-24T15:37:31.582Z,2018-07-24T01:33:48.138Z
4540,Palmer Brewery & Cider House,micro,2926 Girard Blvd NE,,,Albuquerque,New Mexico,,87107-1935,United States,-106.613687816327,35.1149330204082,5055080508,,2018-08-24T15:37:39.822Z,2018-07-24T01:33:48.432Z
4562,The Blue Grasshopper Brew Pub,brewpub,4500 Arrowhead Ridge Dr SE,,,Rio Rancho,New Mexico,,87124-5986,United States,-106.648789,35.254421,5058968579,http://www.bghnm.com,2018-08-24T15:37:50.318Z,2018-07-24T01:33:48.732Z
4565,Tractor Brewing Co,micro,1800 4th St NW,,,Albuquerque,New Mexico,,87102-1426,United States,-106.6478962,35.1022749,5052436752,http://www.getplowed.com,2018-08-24T15:37:51.840Z,2018-07-24T01:33:48.773Z
4581,Adirondack Toboggan Company Microbrewery,micro,202A W Main St,,,Gouverneur,New York,,13642-1334,United States,-75.4748923846074,44.3323731052224,3157716313,http://www.adktoboggan.net,2018-08-24T15:37:58.899Z,2018-07-24T01:33:49.045Z
4611,Black Forest Brew Haus,brewpub,2015 New Hwy,,,Farmingdale,New York,,11735-1103,United States,-73.4144329120839,40.7550515,6313919500,http://www.blackforestbrewhaus.com,2018-08-24T15:38:10.962Z,2018-07-24T01:33:49.458Z
4616,Blue Point Brewing Co,large,161 River Ave,,,Patchogue,New York,,11772-3304,United States,-73.0216062980388,40.75913445,6314756944,http://www.bluepointbrewing.com,2018-08-24T15:38:13.401Z,2018-07-24T01:33:49.532Z
4647,Brown's Brewing Co,brewpub,50 Factory Hill Rd,,,North Hoosick,New York,,12133,United States,-73.3451582057618,42.9266144376744,5182732337,http://www.brownsbrewing.com,2018-08-24T15:38:21.495Z,2018-07-24T01:33:49.953Z
4658,Carey's Brew House,brewpub,58 Bridge St,,,Corning,New York,,14830-2239,United States,-77.0608970416667,42.1502577083333,6073775651,http://www.careysbrewhouse.com,2018-08-24T15:38:26.698Z,2018-07-24T01:33:50.130Z
661,Hello Brew Co.,planning,,,,,,,,United States,,,,http://www.hellobrewco.com,2018-07-24T01:32:56.332Z,2018-07-24T01:32:56.332Z
712,Iron Triangle Brewing Company,micro,1581 Industrial St,,,Los Angeles,California,,90021-1217,United States,-118.237361765101,34.036121885906,3109905702,http://www.irontrianglebrewing.com,2018-08-23T23:29:59.707Z,2018-07-24T01:32:56.981Z
4676,Copper City Brewing Company,micro,1111 Oneida St,,,Rome,New York,,13440-,United States,-75.4322995118866,43.2052133836803,3152818987,http://www.coppercitybrewing.com,2018-08-24T15:38:35.002Z,2018-07-24T01:33:50.362Z
4693,Diversion Brewing Co,micro,729 Wyncoop Creek Rd,,,Chemung,New York,,14825-9755,United States,-76.62211,42.019871,6075429168,http://www.diversionbrewing.com,2018-08-24T15:38:44.350Z,2018-07-24T01:33:50.586Z
4703,Empire Brewing Co,brewpub,120 Walton St,,,Syracuse,New York,,13202-1571,United States,-76.1540662455378,43.0480463656723,3156552337,http://www.empirebrew.com,2018-08-24T15:38:47.848Z,2018-07-24T01:33:50.715Z
4707,Erie Canal Brewing Company,micro,135 S Peterboro St,,,Canastota,New York,,13032-1409,United States,-75.7515320204082,43.0785763673469,3155105001,http://www.eriecanalbrewingcompany.com,2018-08-24T15:38:49.380Z,2018-07-24T01:33:50.766Z
4709,Fairport Brewing Co,micro,99 S Main St,,,Fairport,New York,,14450-2100,United States,-77.4416792,43.0988098,5857520613,http://www.fairportbrewing.com,2018-08-24T15:38:50.407Z,2018-07-24T01:33:50.792Z
4722,Flying Bison Brewing Co,micro,840 Seneca St,,,Buffalo,New York,,14210-1414,United States,-78.8458326,42.8758185,7168731557,http://www.flyingbisonbrewing.com,2018-08-24T15:38:57.237Z,2018-07-24T01:33:50.965Z
4744,"Glenmere Brewing Co, Inc",micro,55 Maple Ave,,,Florida,New York,,10921-1124,United States,-74.360033,41.335404,8456511939,http://www.glenmerebrewingco.com,2018-08-24T15:39:06.969Z,2018-07-24T01:33:51.263Z
4754,"Greenport Harbor Brewing Co, LLC",brewpub,42155 Main Rd,,,Peconic,New York,,11958-1502,United States,-72.4545703,41.0415525,6315139019,http://www.harborbrewing.com,2018-08-24T15:39:11.817Z,2018-07-24T01:33:51.407Z
4758,Gun Hill Brewing Co,micro,3227 Laconia Ave,,,Bronx,New York,,10469-1403,United States,-73.855814,40.8721114,7188810010,http://www.gunhillbrewing.com,2018-08-24T15:39:13.763Z,2018-07-24T01:33:51.465Z
4782,Irish Mafia Brewing Co,brewpub,2971 Whalen Rd,,,Bloomfield,New York,,14469-9786,United States,-77.3893869584766,42.8926813391929,5852715172,http://www.irishmafiabrewing.com,2018-08-24T15:39:24.759Z,2018-07-24T01:33:51.805Z
4798,Lafayette Brewing Co,brewpub,391 Washington St,,,Buffalo,New York,,14203-2108,United States,-78.8734526,42.8847967,7168560062,http://www.panamericangrill.com,2018-08-24T15:39:32.439Z,2018-07-24T01:33:52.069Z
4815,Lost Kingdom Brewery / Firehouse Distillery,micro,7160 Main St,,,Ovid,New York,,14521-9401,United States,-76.8228132942931,42.6772422121693,6074034020,http://www.firehousedistillery.net,2018-08-24T15:39:40.111Z,2018-07-24T01:33:52.310Z
4851,Peacemaker Brewing Company,micro,20 Pleasant St,,,Canandaigua,New York,,14424-2047,United States,-77.2786605528567,42.8885116497367,5853963561,http://www.peacemakerbrewing.com,2018-08-24T15:39:52.762Z,2018-07-24T01:33:52.758Z
4860,Pressure Drop Brewing,micro,65 Vandalia St,,,Buffalo,New York,,14204-2739,United States,-78.8610373891982,42.8664042099108,7168489942,http://www.barrelfactory.com,2018-08-24T15:39:56.430Z,2018-07-24T01:33:52.870Z
4884,Rohrbach's Railroad St Brewery,micro,97 Railroad St,,,Rochester,New York,,14609-6039,United States,-77.586694,43.163275,5855468020,http://www.rohrbachs.com,2018-08-24T15:40:06.518Z,2018-07-24T01:33:53.181Z
4892,S & S Farm Brewery,micro,174 Middle Rd,,,Nassau,New York,,12123,United States,-73.5726398153558,42.49050535,5183360766,http://www.sandsbrewery.com,2018-08-24T15:40:09.959Z,2018-07-24T01:33:53.282Z
4899,Sand City Brewing Co.,micro,60 Main St,,,Northport,New York,,11768-1722,United States,-73.3508587,40.8998983,9177965672,http://www.sandcitybeer.com,2018-08-24T15:40:12.570Z,2018-07-24T01:33:53.380Z
4906,Seneca Lodge Craft Brewing At Seneca Lodge,brewpub,3600 Walnut Rd,,,Watkins Glen,New York,,14891-0272,United States,-76.873392,42.369461,6075352014,http://www.senecalodge.com,2018-08-24T15:40:15.622Z,2018-07-24T01:33:53.471Z
4936,Summerhill Brewing LLC,micro,384 Champlin Rd N. Cayuga County,,,Groton,New York,,13073-3212,United States,-76.2960182445814,42.6359438748297,6075916148,http://www.facebook.com/Summerhill.brewing/,2018-08-24T15:40:28.514Z,2018-07-24T01:33:53.885Z
4939,Swiftwater Brewing Company,brewpub,378 Mount Hope Ave,,,Rochester,New York,,14620-1250,United States,-77.6122774848485,43.1423032424242,5855303471,http://www.swiftwaterbrewing.com,2018-08-24T15:40:29.037Z,2018-07-24T01:33:53.924Z
4957,Three Huskies Brewing & Dobber's Grill,brewpub,401 Lakeshore Dr,,,Canandaigua,New York,,14424-2338,United States,-77.251124,42.8723885,5852603530,http://www.threehuskiesbrewing.com,2018-08-24T15:40:37.412Z,2018-07-24T01:33:54.156Z
4987,Willow Rock Brewing Company,micro,115 Game Rd,,,Syracuse,New York,,13210-4216,United States,-76.131471538758,43.0115551772561,3159286948,http://www.willowrockbrew.com,2018-08-24T15:40:49.526Z,2018-07-24T01:33:54.549Z
4993,Woodcock Brothers Brewing,brewpub,638 Lake St,,,Wilson,New York,,14172-9600,United States,-78.825882,43.299013,7163334000,http://www.woodcockbrothersbrewery.com,2018-08-24T15:40:52.546Z,2018-07-24T01:33:54.634Z
5016,Bark Brewing Company,brewpub,3021 Spring Garden St,,,Greensboro,North Carolina,,27403-1968,United States,-79.8436043406271,36.0620103554184,3368561406,http://barkbrewingcompany.com,2018-08-24T15:41:02.410Z,2018-07-24T01:33:54.965Z
5033,Blowing Rock Brewing Company,brewpub,152 Sunset Dr,,,Blowing Rock,North Carolina,,28605-7205,United States,-81.677229,36.1327196,8284149600,http://www.blowingrockbrewing.com,2018-08-24T15:41:10.512Z,2018-07-24T01:33:55.218Z
5035,Blue Ghost Brewing Company,brewpub,125 Underwood Rd,,,Fletcher,North Carolina,,28732-,United States,-82.530580304217,35.4368388,8283760159,http://www.blueghostbrewing.com,2018-08-24T15:41:11.489Z,2018-07-24T01:33:55.244Z
5067,Bull Durham Beer Co,micro,409 Blackwell St,,,Durham,North Carolina,,27701-3972,United States,-78.90481567784,35.9915653,9197443568,http://www.bulldurhambeer.com,2018-08-24T15:41:22.982Z,2018-07-24T01:33:55.653Z
5090,Dirtbag Ales Brewery and Taproom,micro,3623 Legion Rd,,,Hope Mills,North Carolina,,28348-8413,United States,-78.9220969691311,34.9939752576824,9104262537,http://www.dirtbagales.com,2018-08-24T15:41:33.473Z,2018-07-24T01:33:55.965Z
5099,Eleven Lakes Brewing Company,micro,10228 Bailey Rd Ste 201,,,Cornelius,North Carolina,,28031-9420,United States,-80.8605492789893,35.4540068565198,7044000927,http://www.elevenlakesbrewing.com,2018-08-24T15:41:38.237Z,2018-07-24T01:33:56.088Z
5105,Flytrap Brewing,micro,319 Walnut St,,,Wilmington,North Carolina,,28401-4051,United States,-77.9454578768839,34.24034335,9107692881,http://flytrapbrewing.com,2018-08-24T15:41:40.833Z,2018-07-24T01:33:56.164Z
5121,Ghost Harbor Brewing Company,micro,606 B E Colonial Ave,,,Elizabeth City,North Carolina,,27909,United States,-76.2187962244898,36.3004222857143,2525991030,http://www.ghostharborbrewing.com,2018-08-24T15:41:47.030Z,2018-07-24T01:33:56.380Z
5132,Haw River Farmhouse Ales,micro,1713 Saxapahaw-Bethlehem Church Rd,,,Saxapahaw,North Carolina,,27340-0390,United States,-79.31872,35.946942,3365259270,http://www.hawriverales.com,2018-08-24T15:41:51.212Z,2018-07-24T01:33:56.525Z
5135,Hickory Brewery / American Honor Ale House and Brewery,micro,883 Highland Ave SE,,,Hickory,North Carolina,,28602-1106,United States,-81.325497622729,35.7353351663058,8284149600,,2018-08-24T15:41:52.900Z,2018-07-24T01:33:56.564Z
5162,Lake Gaston Brewing Company,brewpub,124 Hay St,,,Fayetteville,North Carolina,,28301-5650,United States,-78.8788145510204,35.0528321020408,9107790444,http://www.lakegastonbrew.com,2018-08-24T15:42:03.638Z,2018-07-24T01:33:56.912Z
5177,Lynnwood Brewing Concern,brewpub,4821 Grove Barton Rd,,,Raleigh,North Carolina,,27613-1900,United States,-78.7162398859078,35.8706036775912,9197850043,http://www.lynnwoodbrewing.beer,2018-08-24T15:42:10.378Z,2018-07-24T01:33:57.119Z
5181,Mash House Restaurant & Brewery,brewpub,4150 Sycamore Dairy Rd,,,Fayetteville,North Carolina,,28303-3459,United States,-78.956548307397,35.0746817120553,9108679223,http://www.themashhouse.com,2018-08-24T15:42:12.393Z,2018-07-24T01:33:57.171Z
5188,Morgan Ridge Railwalk Brewery & Eatery,brewpub,421 N Lee St,,,Salisbury,North Carolina,,28144-4424,United States,-80.4651030558603,35.6692005139709,7047548379,http://www.morganridgerailwalk.com,2018-08-24T15:42:14.343Z,2018-07-24T01:33:57.268Z
5217,Oskar Blues Brewery - Brevard,regional,342 Mountain Industrial Dr,,,Brevard,North Carolina,,28712-5122,United States,-82.7069595,35.2536956,3037760724,http://www.oskarblues.com,2018-08-24T15:42:26.098Z,2018-07-24T01:33:57.661Z
5227,Pisgah Brewing Co,micro,150 Eastside Dr,,,Black Mountain,North Carolina,,28711-8208,United States,-82.35826,35.6079376,8286690190,http://www.pisgahbrewing.com,2018-08-24T15:42:28.512Z,2018-07-24T01:33:57.789Z
5229,Ponysaurus Brewing Company,brewpub,219 Hood St,,,Durham,North Carolina,,27701-3715,United States,-78.8939992244898,35.990086244898,9784827701,http://www.ponysaurusbrewing.com,2018-08-24T15:42:29.557Z,2018-07-24T01:33:57.813Z
5255,Southern Range Brewing,brewpub,151 S Stewart St,,,Monroe,North Carolina,,28112,United States,-80.5509134608754,34.9807363725295,7042894049,http://www.southernrangebrewing.com,2018-08-24T15:42:43.243Z,2018-07-24T01:33:58.178Z
5260,Sugar Creek Brewing Co.,micro,215 Southside Dr,,,Charlotte,North Carolina,,28217-1727,United States,-80.8804506495102,35.1857169251298,7044082021,http://www.sugarcreekbrewing.com,2018-08-24T15:42:45.726Z,2018-07-24T01:33:58.245Z
5275,Thirsty Souls Community Brewing,micro,238 Market St,,,Mount Airy,North Carolina,,27030-3514,United States,-80.6087621,36.5008814,,http://www.thirstysoulscommunitybrewing.com,2018-08-24T15:42:52.456Z,2018-07-24T01:33:58.447Z
5287,Twenty-Six Acres Brewing Company,micro,7285 Westwinds Blvd NW,,,Concord,North Carolina,,28027-3310,United States,-80.7219270261999,35.3861774847151,9802772337,http://www.26acres.com,2018-08-24T15:42:57.186Z,2018-07-24T01:33:58.611Z
5309,Wicked Weed Funkatorium,large,95 Old Shoals Rd,,,Arden,North Carolina,,28704-9401,United States,-82.524955526838,35.4674064,8285759599,http://www.wickedweedbrewing.com,2018-08-24T15:43:07.283Z,2018-07-24T01:33:58.904Z
5321,Buffalo Commons Brewing Company,micro,2307 Memorial Hwy,,,Mandan,North Dakota,,58554-4624,United States,-100.861826744186,46.8240905581395,7015952255,http://www.buffalocommonsbeer.com,2018-08-24T15:43:12.269Z,2018-07-24T01:33:59.072Z
5331,Laughing Sun Brewing,micro,107 N 5th St,,,Bismarck,North Dakota,,58501-4026,United States,-100.7844722,46.8056925,7014009750,http://www.laughingsunbrewing.com,2018-08-24T15:43:17.595Z,2018-07-24T01:33:59.217Z
5351,Barley's Brewing Company (Ale House No. 1),brewpub,467 N High St,,,Columbus,Ohio,,43215-2007,United States,-83.0027669,39.9719408,6142282537,http://www.barleysbrewing.com,2018-08-24T15:43:25.107Z,2018-07-24T01:33:59.536Z
5383,Brick and Barrel,micro,1844 Columbus Rd,,,Cleveland,Ohio,,44113-2412,United States,-81.7008861,41.4895629,5039270629,http://www.brickandbarrelbrewing.com,2018-08-24T15:43:32.373Z,2018-07-24T01:33:59.993Z
5394,Christian Moerlein Brewing Co,regional,1621 Moore St,,,Cincinnati,Ohio,,45202-6438,United States,-84.5153343213929,39.113225087534,5138276025,http://www.christianmoerlein.com,2018-08-24T15:43:37.274Z,2018-07-24T01:34:00.218Z
5408,Dayton Beer Co Production Brewery & Bierhall,micro,41 Madison St,,,Dayton,Ohio,,45402-2105,United States,-84.1852886764706,39.7622667647059,9372282337,http://www.thedaytonbeerco.com,2018-08-24T15:43:43.518Z,2018-07-24T01:34:00.437Z
5426,Father John's Microbrewery,brewpub,301 W Butler St,,,Bryan,Ohio,,43506-1608,United States,-84.553828,41.473192,4196331313,http://www.fatherjohnsbrewery.com,2018-08-24T15:43:50.829Z,2018-07-24T01:34:00.690Z
5427,Fibonacci Brewing Company,micro,1445 Compton Rd,,,Cincinnati,Ohio,,45231-3559,United States,-84.4805528,39.218908,5138321422,http://fibbrew.com,2018-08-24T15:43:51.294Z,2018-07-24T01:34:00.702Z
5445,Granville Brewing Company,micro,5371 Columbus Rd,,,Granville,Ohio,,43023-9192,United States,-82.5886160260201,40.0352737879005,,http://www.granvillewbrewing.com,2018-08-24T15:43:59.706Z,2018-07-24T01:34:00.934Z
5458,Hofbrauhaus Cleveland / Cincinatti Restaurant Group,brewpub,1550 Chester Ave,,,Cleveland,Ohio,,44114-3615,United States,-81.6811534444444,41.5031089191919,2166212337,http://www.hofbrauhauscleveland.com,2018-08-24T15:44:06.085Z,2018-07-24T01:34:01.111Z
5474,Knotty Pine Brewing,brewpub,1765 W 3rd Ave,,,Columbus,Ohio,,43212-2769,United States,-83.0529324,39.9852813,6148171515,http://www.knottypinebrewing.net,2018-08-24T15:44:14.258Z,2018-07-24T01:34:01.349Z
5477,Lake Rat Brewing,brewpub,108 S Main St,,,Celina,Ohio,,45822,United States,-84.5706936734694,40.5482005714286,4197331830,http://www.lakeratbrewing.com,2018-08-24T15:44:15.711Z,2018-07-24T01:34:01.388Z
5496,Magic City Brewing Company,micro,161 2nd St NW,,,Barberton,Ohio,,44203,United States,-81.6073882927244,41.0144467231506,3307039806,http://Www.magiccitybrewingcompany.com,2018-08-24T15:44:23.362Z,2018-07-24T01:34:01.649Z
5513,Moerlein Lager House,brewpub,115 Joe Nuxhall Way,,,Cincinnati,Ohio,,45202-4143,United States,-84.5087167704914,39.09630095,5134212337,http://www.moerleinlagerhouse.com,2018-08-24T15:44:30.805Z,2018-07-24T01:34:01.882Z
779,Line 51 Brewing,contract,,,,,,,,United States,,,,http://www.line51beer.com,2018-07-24T01:32:57.795Z,2018-07-24T01:32:57.795Z
5521,Muskellunge Brewing Company,micro,425 5th St NW,,,Canton,Ohio,,44702,United States,-81.3767243265306,40.8019184081633,,http://www.muskybrewco.com,2018-08-24T15:44:34.180Z,2018-07-24T01:34:01.997Z
5522,Nano Brew Cleveland,brewpub,1859 W 25th St,,,Cleveland,Ohio,,44113,United States,-81.7045531,41.4860486,2168626631,http://www.nanobrewcleveland.com,2018-08-24T15:44:34.666Z,2018-07-24T01:34:02.049Z
5540,Paradigm Shift Brewing,micro,128 North Ave NE,,,Massillon,Ohio,,44646-5526,United States,-81.5218392857143,40.7986581428571,3308800008,http://www.paradigmshiftbrew.com,2018-08-24T15:44:40.762Z,2018-07-24T01:34:02.306Z
5562,Random Precision Brewing Company,micro,2365 W Dublin Granville Rd,,,Columbus,Ohio,,43235-2700,United States,-83.05232,40.090144,6143893864,http://www.randomprecisionbrewing.com,2018-08-24T15:44:50.093Z,2018-07-24T01:34:02.629Z
5568,Rivals Sports Grille,contract,6710 Smith Rd,,,Middleburg Heights,Ohio,,44130-2656,United States,-81.8043347217913,41.3853154944618,2162670005,http://www.rivalscleveland.com,2018-08-24T15:44:52.006Z,2018-07-24T01:34:02.709Z
5572,Rocky River Brewing Co,brewpub,21290 Center Ridge Rd,,,Rocky River,Ohio,,44116-3204,United States,-81.8553198004012,41.4610006539348,4408952739,http://www.rockyriverbrewco.com,2018-08-24T15:44:53.919Z,2018-07-24T01:34:02.765Z
5579,Sandy Springs Brewing Company,brewpub,232 N Market St,,,Minerva,Ohio,,44657-1616,United States,-81.1038201428571,40.7295667857143,3304516926,http://www.sandyspringsbrewery.com,2018-08-24T15:44:56.171Z,2018-07-24T01:34:02.859Z
5597,Swine City Brewing Company,micro,4614 Industry Dr,,,Fairfield,Ohio,,45014-1923,United States,-84.5310617847279,39.3489541799819,7045601214,http://www.swinecitybrewing.com,2018-08-24T15:45:02.739Z,2018-07-24T01:34:03.101Z
5601,Tap and Screw Brewery,brewpub,4721 Red Bank Rd,,,Cincinnati,Ohio,,45277,United States,-84.4043431560687,39.158691,5134511763,http://www.tapandscrew.com,2018-08-24T15:45:04.576Z,2018-07-24T01:34:03.152Z
5617,The Woodburn Brewery,micro,2800 Woodburn Ave,,,Cincinnati,Ohio,,45206-1793,United States,-84.4768398,39.1289592,5132212337,http://www.woodburnbrewery.com,2018-08-24T15:45:11.146Z,2018-07-24T01:34:03.359Z
5627,Two Monks Brewing Company,micro,352 Massillon Rd,,,Akron,Ohio,,44312-2021,United States,-81.4629236768124,41.0520502548408,2347382337,http://www.2monksbru.com,2018-08-24T15:45:15.418Z,2018-07-24T01:34:03.493Z
5645,Wooly Pig Farm Brewery,micro,23631 Township Road 167,,,Fresno,Ohio,,43824-9704,United States,-81.7357237229063,40.2914143959077,7406935050,http://www.woolypigfarmbrewery.com,2018-08-24T15:45:23.502Z,2018-07-24T01:34:03.738Z
5662,Broken Arrow Brewing Co.,micro,333 W Dallas St,,,Broken Arrow,Oklahoma,,74012-4026,United States,-95.7944889512195,36.0502661951219,9182868101,http://www.brokenarrowbrewingco.com,2018-08-24T15:45:30.319Z,2018-07-24T01:34:03.976Z
5681,Prairie Artisan Ales,micro,1803B S 49th West Ave,,,Tulsa,Oklahoma,,74107-,United States,-96.0481155,36.0784446,9189494318,http://www.prairieales.com,2018-08-24T15:45:37.690Z,2018-07-24T01:34:04.233Z
5707,Allegory Brewing,micro,777 NE 4th St,,,McMinnville,Oregon,,97128-4502,United States,-123.191780632618,45.2108191743635,9713731253,http://www.allegorybrewing.com,2018-08-24T15:45:48.550Z,2018-07-24T01:34:04.592Z
5711,Arlington Club,micro,811 SW Salmon St,,,Portland,Oregon,,97205-3094,United States,-122.681859641942,45.51786855,5032234141,http://www.thearlingtonclub.com,2018-08-24T15:45:50.469Z,2018-07-24T01:34:04.653Z
5715,Backside Brewing Co,brewpub,1640 NE Odell Ave,,,Roseburg,Oregon,,97470-3320,United States,-123.337788095084,43.2144983853367,5415801906,http://www.backsidebrewingco.com,2018-08-24T15:45:51.872Z,2018-07-24T01:34:04.704Z
5734,Block 15 Brewery & Tap Room,brewpub,3415 SW Deschutes St,,,Corvallis,Oregon,,97333-9283,United States,-123.26904899802,44.5305284,5417522337,http://www.block15.com,2018-08-24T15:46:00.338Z,2018-07-24T01:34:04.938Z
5758,Cascade Brewing Barrel House,micro,939 SE Belmont St,,,Portland,Oregon,,97214-2519,United States,-122.656005749976,45.5167536,5032658603,http://www.cascadebrewing.com,2018-08-24T15:46:08.535Z,2018-07-24T01:34:05.354Z
5763,Chetco Brewing Company,micro,830 Railroad St,,,Brookings,Oregon,,97415,United States,-124.2875954,42.0521588,5416615347,http://www.chetcobrew.com,2018-08-24T15:46:10.891Z,2018-07-24T01:34:05.424Z
5768,Coldfire Brewing,micro,263 Mill St,,,Eugene,Oregon,,97401-2410,United States,-123.086497632653,44.0567465714286,5415569374,http://www.coldfirebrewing.com,2018-08-24T15:46:13.160Z,2018-07-24T01:34:05.490Z
5933,Scout Beer,micro,1516 SE 10th Ave,,,Portland,Oregon,,97214-3585,United States,-122.655590489796,45.5120189183673,5032064735,http://www.scoutpdx.com,2018-08-24T15:47:12.443Z,2018-07-24T01:34:07.722Z
6282,Spring House Brewery,micro,209 Hazel St,,,Lancaster,Pennsylvania,,17603-5629,United States,-76.3071090416667,40.029367375,7178720925,http://www.springhousebeer.com,2018-08-24T15:49:13.355Z,2018-07-24T01:34:12.749Z
1259,Brewery In Planning - CO,planning,,,,,,,,United States,,,,,2018-07-24T01:33:04.134Z,2018-07-24T01:33:04.134Z
5792,Drinking Horse Brewing Company,micro,11517 SE Highway 212,,,Clackamas,Oregon,,97015-9053,United States,-122.378124,45.4288733,5035648165,http://www.drinkinghorsebeer.com,2018-08-24T16:01:27.718Z,2018-07-24T01:34:05.810Z
5805,Full Sail Brewery - Riverplace,micro,0307 SW Montgomery St,,,Portland,Oregon,,97201-5125,United States,-122.673521447995,45.50957205,5032225343,http://www.fullsailbrewing.com,2018-08-24T16:01:44.127Z,2018-07-24T01:34:05.982Z
5824,Hondo's Brew and Cork Pub,micro,2703 Marine Dr,,,Astoria,Oregon,,97103-2900,United States,-123.814042588465,46.1888581655929,5033252234,http://www.hondosbrew.net,2018-08-24T16:02:11.911Z,2018-07-24T01:34:06.246Z
5837,Laurelwood Public House & Brewery - SE Portland,brewpub,6716 SE Milwaukie Ave,,,Portland,Oregon,,97202-5618,United States,-122.64849505,45.47415655,5039436157,,2018-08-24T16:02:29.973Z,2018-07-24T01:34:06.412Z
5853,McKenzie Brewing Company,brewpub,199 E 5th Ave,,,Eugene,Oregon,,97401-8715,United States,-123.089843,44.054404,5416862739,http://www.steelheadbrewery.com,2018-08-24T16:02:51.699Z,2018-07-24T01:34:06.617Z
5862,McMenamins Highland Pub and Brewery,brewpub,4225 SE 182nd Ave,,,Gresham,Oregon,,97030-5082,United States,-122.475814964173,45.4915603,5036653015,http://www.mcmenamins.com,2018-08-24T16:03:04.947Z,2018-07-24T01:34:06.734Z
5867,McMenamins Oak Hills Brewery,micro,14740 NW Cornell Rd Ste 80,,,Portland,Oregon,,97229-5400,United States,-122.7105079,45.5330425,5036450117,http://www.mcmenamins.com,2018-08-24T16:03:12.648Z,2018-07-24T01:34:06.806Z
5892,Ochoco Brewing Co,micro,380 N Main St,,,Prineville,Oregon,,97754-1852,United States,-120.846967510482,44.3035904064028,5412330883,http://www.ochocobrewing.com,2018-08-24T16:03:46.774Z,2018-07-24T01:34:07.138Z
5908,Portal Brewing Co,brewpub,100 E 6th St,,,Medford,Oregon,,97501-5902,United States,-122.873661,42.326944,5419410240,http://www.portalbrewingco.com,2018-08-24T16:04:09.680Z,2018-07-24T01:34:07.354Z
5927,Rusty Truck Brewing Company,brewpub,4649 SW Highway 101,,,Lincoln City,Oregon,,97367-1557,United States,-124.020991309017,44.9327331894951,5419947729,http://www.rustytruckbrewing.com,2018-08-24T16:04:38.553Z,2018-07-24T01:34:07.637Z
5944,Smockville Brewhouse,brewpub,22793 SW Pine St,,,Sherwood,Oregon,,97140-9303,United States,-122.8406694,45.3566248,5036101506,http://www.smockvillebrewhouse.com,2018-08-24T16:05:01.092Z,2018-07-24T01:34:07.870Z
5954,Table Rock Brewing LLC,micro,825 Dakota Ave,,,Medford,Oregon,,97501-3443,United States,-122.880767947368,42.316445631579,5419440829,,2018-08-24T16:05:13.070Z,2018-07-24T01:34:08.003Z
5955,Tandem Brewing Co,brewpub,17 SE 3rd Ave,,,Ontario,Oregon,,97914-2803,United States,-116.962771930002,44.0239107528541,2087416774,http://www.tandembrewing.com,2018-08-24T16:05:14.576Z,2018-07-24T01:34:08.019Z
5980,Wild Ride Brewing,micro,332 SW 5th St,,,Redmond,Oregon,,97756-2103,United States,-121.173076419679,44.2739129418471,5415168544,http://www.wildridebrew.com,2018-08-24T16:05:46.014Z,2018-07-24T01:34:08.369Z
5999,Allegheny City Brewing,micro,507 Foreland St,,,Pittsburgh,Pennsylvania,,15212-4910,United States,-80.0006107346519,40.454249330209,4129043732,http://www.alleghenycitybrewing.com,2018-08-24T16:06:09.640Z,2018-07-24T01:34:08.675Z
6014,Barley Creek Brewing Co,brewpub,1774 Sullivan Trl,,,Tannersville,Pennsylvania,,18372-7893,United States,-75.3289057481617,41.05236395,5706299399,http://www.barleycreek.com,2018-08-24T16:06:28.598Z,2018-07-24T01:34:08.882Z
6053,Brewtus Brewing Co,micro,23 Chestnut Ave,,,Sharon,Pennsylvania,,16146-,United States,-80.5074993646832,41.2326788756257,7243086293,http://www.brewtusbrewing.com,2018-08-24T16:07:05.490Z,2018-07-24T01:34:09.528Z
6063,Butler Brew Works,brewpub,101 S Main St,,,Butler,Pennsylvania,,16001-5907,United States,-79.895238,40.860914,7242645347,http://www.butlerbrewworks.com,2018-08-24T16:07:19.649Z,2018-07-24T01:34:09.673Z
6082,Couch Brewery,micro,1351 Washington Blvd,,,Pittsburgh,Pennsylvania,,15206-1801,United States,-79.9090141,40.4695304,4124411724,http://www.couchbrewery.com,2018-08-24T16:07:49.623Z,2018-07-24T01:34:09.941Z
6083,Covered Bridge Brewhaus Taproom,micro,506 N 8th St,,,Shamokin,Pennsylvania,,17872-5302,United States,-76.5568208393969,40.7907603702511,5702054867,http://squareup.com/store/covered-bridge-brewhaus,2018-08-24T16:07:51.088Z,2018-07-24T01:34:09.957Z
6095,Depot Saloon,brewpub,9 S Race St,,,Greenville,Pennsylvania,,16125-2213,United States,-80.390239,41.40444,7245884201,http://www.depotsaloon.com,2018-08-24T16:08:07.573Z,2018-07-24T01:34:10.179Z
6105,Earth Bread + Brewery,brewpub,7136 Germantown Ave,,,Philadelphia,Pennsylvania,,19119-1843,United States,-75.1903546,40.0591996,2152426666,http://www.earthbreadbrewery.com,2018-08-24T16:08:19.580Z,2018-07-24T01:34:10.329Z
6126,GearHouse Brewing Company,brewpub,253 Grant St,,,Chambersburg,Pennsylvania,,17201-1627,United States,-77.6567421470779,39.9412217960911,8034226145,http://www.gearhousebrewingco.com,2018-08-24T16:08:48.102Z,2018-07-24T01:34:10.631Z
6128,Golden Avalanche Brewing Co,brewpub,272 W Main St,,,Kutztown,Pennsylvania,,19530-1604,United States,-75.7780207,40.5164127,6106839600,http://www.kutztowntavern.com/GoldenAvalancheBrewery,2018-08-24T16:08:49.709Z,2018-07-24T01:34:10.656Z
6144,Hofbrauhaus Pittsburgh,brewpub,2705 S Water St,,,Pittsburgh,Pennsylvania,,15203,United States,-79.9639442,40.4279919,4122242328,http://www.hofbrauhauspittsburgh.com,2018-08-24T16:09:09.168Z,2018-07-24T01:34:10.882Z
6151,Insurrection Aleworks,micro,1635 E Railroad St,,,Heidelberg,Pennsylvania,,15106-4026,United States,-80.0875544081633,40.3926401428571,4122762030,http://insurrectionaleworks.com,2018-08-24T16:09:16.906Z,2018-07-24T01:34:10.972Z
6183,"Lion Brewery Inc, The",regional,700 N Pennsylvania Ave,,,Wilkes Barre,Pennsylvania,,18705-2451,United States,-75.859363,41.254896,5708238801,http://www.lionbrewery.com,2018-08-24T16:09:56.820Z,2018-07-24T01:34:11.378Z
6186,Lost Tavern Brewing,micro,782 Main St,,,Hellertown,Pennsylvania,,18055-1540,United States,-75.3411606,40.5809687,4848513980,http://www.losttavernbrewing.com,2018-08-24T16:10:02.419Z,2018-07-24T01:34:11.422Z
6190,Mad Chef Craft Brewing,brewpub,2023 Miller Rd,,,East Petersburg,Pennsylvania,,17520-1624,United States,-76.3496026006417,40.0936698487036,7172836469,http://www.madchefcraftbrewing.com,2018-08-24T16:10:06.847Z,2018-07-24T01:34:11.474Z
6194,Market Cross Pub & Brewery,micro,113 N Hanover St,,,Carlisle,Pennsylvania,,17013-2422,United States,-77.1887288571429,40.2033574285714,7172581234,http://www.marketcrosspub.com,2018-08-24T16:10:12.931Z,2018-07-24T01:34:11.528Z
6226,Pennsylvania Brewing Co,micro,800 Vinial St,,,Pittsburgh,Pennsylvania,,15212-5151,United States,-79.9916372219515,40.457132,4122379402,http://www.pennbrew.com,2018-08-24T16:10:58.189Z,2018-07-24T01:34:11.958Z
6239,Reclamation Brewing Company,brewpub,221 S Main St,,,Butler,Pennsylvania,,16001-5908,United States,-79.8954362682927,40.8587651585366,7242820831,http://www.reclamationbrewing.com,2018-08-24T16:11:14.674Z,2018-07-24T01:34:12.135Z
6245,Rivertowne Brewery - Production Facility,micro,5578 Old William Penn Hwy,,,Export,Pennsylvania,,15632-9303,United States,-79.6373887951658,40.4214737342474,7245192145,http://www.myrivertowne.com,2018-08-24T16:11:23.639Z,2018-07-24T01:34:12.228Z
6274,Snitz Creek Brewery,brewpub,7 N 9th St,,,Lebanon,Pennsylvania,,17046-4902,United States,-76.4263773185968,40.3393772758069,7174504467,http://www.snitzcreekbrewery.com,2018-08-24T16:11:59.275Z,2018-07-24T01:34:12.639Z
1410,Iron Mule Brewery,planning,,,,,,,,United States,,,,,2018-07-24T01:33:06.017Z,2018-07-24T01:33:06.017Z
6290,Stone Church Pizza & Brewpub,brewpub,600 S Hermitage Rd,,,Hermitage,Pennsylvania,,16148-3629,United States,-80.451969,41.225649,7243087770,http://www.stonechurchbrewpub.com,2018-08-24T16:12:15.846Z,2018-07-24T01:34:12.855Z
6315,Towerhill Brewery,brewpub,237 W Butler Ave,,,Chalfont,Pennsylvania,,18914-3020,United States,-75.21378230705,40.2798437775317,2158228788,http://www.towerhillbrewery.com,2018-08-24T16:12:51.654Z,2018-07-24T01:34:13.195Z
6330,Voodoo Brewing Co,brewpub,215 1/2 Arch St,,,Meadville,Pennsylvania,,16335-3432,United States,-80.154209,41.637124,8143373676,http://www.voodoobrewery.com,2018-08-24T16:13:08.235Z,2018-07-24T01:34:13.392Z
6332,Wacker Brewing Co,micro,417 W Grant St,,,Lancaster,Pennsylvania,,17603,United States,-76.3136543877551,40.0379942653061,7176172711,http://www.wackerbrewing.com,2018-08-24T16:13:11.214Z,2018-07-24T01:34:13.418Z
6348,Zeroday Brewing Company,brewpub,250 Reily St Ste 103,,,Harrisburg,Pennsylvania,,17102-2550,United States,-76.8915931,40.2717061,7177456218,http://www.zerodaybrewing.com,2018-08-24T16:13:31.172Z,2018-07-24T01:34:13.632Z
6372,Whalers Brewing Company,micro,1174 Kingstown Rd,,,Wakefield,Rhode Island,,02879-8316,United States,-71.4970673093227,41.4506997,4015520002,https://whalers.com,2018-08-24T16:14:05.240Z,2018-07-24T01:34:13.955Z
6378,Blue Ridge Brewing Co/Foothills Brewing,brewpub,308 Trade St,,,Greer,South Carolina,,29651-3432,United States,-82.2262648,34.9361559,8642324677,http://www.blueridgebrewing.com,2018-08-24T16:14:12.507Z,2018-07-24T01:34:14.058Z
6392,Conquest Brewing Co.,micro,947 S Stadium Rd,,,Columbia,South Carolina,,29201-4724,United States,-81.023822122449,33.9710088163265,8037123063,http://www.conquestbrewing.com,2018-08-24T16:14:24.633Z,2018-07-24T01:34:14.275Z
6421,New Groove Artisan Brewery,brewpub,4078 Highway 9,,,Boiling Springs,South Carolina,,29316-8501,United States,-82.017032,35.072809,8645863900,http://www.newgroovebrew.com,2018-08-24T16:14:54.723Z,2018-07-24T01:34:14.671Z
6422,New South Brewing Co,micro,1109 Campbell St,,,Myrtle Beach,South Carolina,,29577-3527,United States,-78.8898911334989,33.6973479679603,8439162337,http://www.newsouthbrewing.com,2018-08-24T16:14:56.181Z,2018-07-24T01:34:14.684Z
6432,River Rat Brewery,brewpub,1231 Shop Rd,,,Columbia,South Carolina,,29201-4744,United States,-81.0112538602882,33.9732558901252,8037245712,http://www.riverratbrewery.com,2018-08-24T16:15:11.254Z,2018-07-24T01:34:14.811Z
6467,Firehouse Brewing Co,brewpub,610 Main St,,,Rapid City,South Dakota,,57701-2736,United States,-103.227556215794,44.08144085,6053481915,http://www.firehousebrewing.com,2018-08-24T16:15:45.696Z,2018-07-24T01:34:15.325Z
6469,Granite City Food & Brewery (#2),brewpub,2620 S Louise Ave,,,Sioux Falls,South Dakota,,57106-4329,United States,-96.7727843992402,43.523371915769,6053620000,http://www.gcfb.net,2018-08-24T16:15:48.699Z,2018-07-24T01:34:15.356Z
6493,Big River Grille & Brewing Works - Chattanooga,brewpub,222 Broad St,,,Chattanooga,Tennessee,,37402-1009,United States,-85.310708746297,35.0538755447393,4232672739,http://www.craftworksrestaurants.com,2018-08-24T16:16:16.074Z,2018-07-24T01:34:15.727Z
6494,Blackberry Farm Brewery,micro,910 E Harper Ave,,,Maryville,Tennessee,,37804-4023,United States,-83.965755,35.762562,8659848166,http://www.blackberryfarm.com,2018-08-24T16:16:17.605Z,2018-07-24T01:34:15.741Z
6517,Depot Street Brewing Co,micro,904 Depot St,,,Jonesborough,Tennessee,,37659-5662,United States,-82.4805452434381,36.2876539466407,4237537628,http://www.depotstreetbrewing.com,2018-08-24T16:16:41.019Z,2018-07-24T01:34:16.094Z
6534,Heaven & Ale Brewing Co,brewpub,300 Cherokee Blvd Ste 101,,,Chattanooga,Tennessee,,37405-3811,United States,-85.311847,35.064349,4044416434,http://www.heavenandalebrewing.com,2018-08-24T16:16:57.160Z,2018-07-24T01:34:16.416Z
6536,High Cotton Brewing,micro,598 Monroe Ave,,,Memphis,Tennessee,,38103-3214,United States,-90.0404790748779,35.1408806482536,9015434444,http://www.highcottonbrewing.com,2018-08-24T16:17:00.275Z,2018-07-24T01:34:16.442Z
6554,McHale's Brewhouse,brewpub,724 Ashland Ter,,,Chattanooga,Tennessee,,37415-3536,United States,-85.2757397642444,35.1164058264354,4238772124,http://www.mchalesbrewhouse.com,2018-08-24T16:17:28.852Z,2018-07-24T01:34:16.690Z
6566,Perrylodgic Brewing Company,micro,3465 US-79 N,,,Paris,Tennessee,,38242-9998,United States,-88.3268031,36.2785418,7314077100,http://www.perrylodgic.com,2018-08-24T16:17:41.241Z,2018-07-24T01:34:16.859Z
6569,Red Silo Brewing Co,micro,118 W 1st St,,,Cookeville,Tennessee,,38501-2490,United States,-85.5086010623437,36.1653550099297,9316512333,http://www.redsilo.beer,2018-08-24T16:17:45.796Z,2018-07-24T01:34:16.897Z
6572,Schulz Brau Brewing Company,micro,126 Bernard Ave,,,Knoxville,Tennessee,,37917-7116,United States,-83.9273236025641,35.9767572564103,8002459764,http://www.schulzbraubrewing.com,2018-08-24T16:17:47.263Z,2018-07-24T01:34:16.936Z
6586,The Black Abbey Brewing Company,micro,2952 Sidco Dr Ste 211,,,Nashville,Tennessee,,37204-3710,United States,-86.7559029967888,36.1048168612864,6157550070,http://www.blackabbeybrewing.com,2018-08-24T16:18:08.315Z,2018-07-24T01:34:17.147Z
6617,Armadillo Ale Works,micro,221 S Bell Ave,,,Denton,Texas,,76201-4259,United States,-97.1283005126262,33.212866660001,9405804446,http://www.armadilloaleworks.com,2018-08-24T16:18:40.212Z,2018-07-24T01:34:17.608Z
6643,Bitter Sisters Brewing Company,micro,15103 Surveyor Blvd,,,Addison,Texas,,75001-4316,United States,-96.845846,32.951222,9724790949,http://www.bittersistersbrewery.com,2018-08-24T16:19:10.508Z,2018-07-24T01:34:17.970Z
6680,Brick Oven Pizza Co/ Brick & Forge Brewing,brewpub,4714 S 14th St,,,Abilene,Texas,,79605-4733,United States,-99.7833577689721,32.4296805543171,8702364200,,2018-08-24T16:19:30.693Z,2018-07-24T01:34:18.531Z
6692,Cellarman's Pub & Brewery,brewpub,2130 Texoma Pkwy,,,Sherman,Texas,,75090-2622,United States,-96.5995301069266,33.66188865,9038130994,http://www.cellarmanspub.com,2018-08-24T16:19:45.696Z,2018-07-24T01:34:18.692Z
6716,Double Horn Brewing Co,brewpub,208 Avenue H,,,Marble Falls,Texas,,78654-5750,United States,-98.2763544519811,30.5712779534811,8306935165,http://www.doublehornbrewing.com,2018-08-24T16:20:11.169Z,2018-07-24T01:34:19.006Z
6724,Faust Hotel Restaurant and Brew Pub,micro,499 S Castell Ave,,,New Braunfels,Texas,,78130-7618,United States,-98.12031,29.698525,8306257791,http://www.faustbrewing.com,2018-08-24T16:20:20.414Z,2018-07-24T01:34:19.114Z
6737,Freetail Brewing Co,micro,2000 S Presa St,,,San Antonio,Texas,,78210-2835,United States,-98.482853,29.401901,2103954974,http://www.freetailbrewing.com,2018-08-24T16:20:37.310Z,2018-07-24T01:34:19.298Z
6766,"Horny Toad Brewing Co, LLC",micro,313 Edward St,,,Rowena,Texas,,76875-3609,United States,-100.04654669697,31.6475051818182,3252121177,http://www.hornytoadbrewery.com,2018-08-24T16:21:10.202Z,2018-07-24T01:34:19.704Z
6770,Humperdinks - Dallas (Greenville),brewpub,6050 Greenville Ave,,,Dallas,Texas,,75206-1909,United States,-96.7679845479263,32.8586789,2143681203,http://www.humperdinks.com,2018-08-24T16:21:15.030Z,2018-07-24T01:34:19.759Z
6780,Jester King Brewery,micro,13187 Fitzhugh Rd,,,Austin,Texas,,78736-6510,United States,-98.0824692,30.2547264,5125375100,http://www.jesterkingbrewery.com,2018-08-24T16:21:26.875Z,2018-07-24T01:34:19.903Z
6813,Nine Band Brewing Co.,micro,9 Prestige Cir,,,Allen,Texas,,75002-3419,United States,-96.6728078612257,33.0931001,9726635707,http://www.ninebandbrewing.com,2018-08-24T16:22:02.538Z,2018-07-24T01:34:20.370Z
6822,Oasis Texas Brewing Company,micro,6548 Comanche Trl Ste 301,,,Austin,Texas,,78732-1210,United States,-98.151206,30.043267,5122849407,http://www.otxbc.com,2018-08-24T16:22:10.184Z,2018-07-24T01:34:20.501Z
908,Phantom Carriage Brewery,brewpub,18525 S Main St,,,Gardena,California,,90248-4611,United States,,,3105385834,http://www.phantomcarriage.com,2018-08-11T21:36:16.194Z,2018-07-24T01:32:59.429Z
909,Pine and Palm Brewing,micro,352 W Bedford Ave Ste 102,,,Fresno,California,,93711-6079,United States,,,,http://www.pineandpalmbrewing.com,2018-08-11T21:36:16.223Z,2018-07-24T01:32:59.441Z
956,Rock Bottom Brewery - Long Beach,brewpub,1 Pine Ave,,,Long Beach,California,,90802-4759,United States,-118.192482,33.767797,5623082255,http://www.rockbottom.com,2018-08-24T00:01:38.221Z,2018-07-24T01:33:00.115Z
6836,Pegasus City Brewery,micro,2222 Vantage St,,,Dallas,Texas,,75207-6102,United States,-96.8339969571821,32.7991564828495,9723667722,http://www.pegasuscitybrewery.com,2018-08-24T16:22:28.539Z,2018-07-24T01:34:20.701Z
6869,Seguin Brewing Company,micro,111 W Gonzales St,,,Seguin,Texas,,78155-5630,United States,-97.9652837755102,29.5695708163265,2107713913,http://www.seguinbrewing.com,2018-08-24T16:23:04.284Z,2018-07-24T01:34:21.165Z
6898,Texas Ale Project,micro,1001 N Riverfront Blvd,,,Dallas,Texas,,75207-4201,United States,-96.8148593,32.7818812,2149650606,http://www.texasaleproject.com,2018-08-24T16:23:32.873Z,2018-07-24T01:34:21.565Z
6902,Texas Leaguer Brewing Company,micro,13503 Pike Rd,,,Missouri City,Texas,,77489-1033,United States,-95.5480643,29.627854,8328959000,http://www.txleaguer.com,2018-08-24T16:23:39.059Z,2018-07-24T01:34:21.616Z
6916,Thirsty Bro Brewing,micro,141 E Main St,,,Royse City,Texas,,75189-3712,United States,-96.3319303877551,32.9752143877551,2818417246,http://www.ThirstyBroBrewingCo.com,2018-08-24T16:23:52.913Z,2018-07-24T01:34:21.790Z
6934,Two Rows Restaurant and Brewery - Allen,contract,711 Central Expy S,,,Allen,Texas,,75013-8012,United States,-96.6798728886911,33.0921542,9723968670,http://www.tworows.com/,2018-08-24T16:24:09.279Z,2018-07-24T01:34:22.034Z
6962,Bohemian Brewery and Grill,micro,94 E 7200 S,,,Midvale,Utah,,84047-1532,United States,-111.894010991033,40.6206923048805,8015665474,http://www.bohemianbrewery.com,2018-08-24T16:24:41.267Z,2018-07-24T01:34:22.417Z
6967,Desert Edge Brewery,brewpub,551 E 600 S,,,Salt Lake City,Utah,,84102-2717,United States,-111.875021142025,40.7563910792927,8015218917,http://www.desertedgebrewery.com,2018-08-24T16:24:44.332Z,2018-07-24T01:34:22.485Z
7002,Wasatch Brew Pub - Sugarhouse,brewpub,2110 S Highland Dr,,,Salt Lake City,Utah,,84106-2807,United States,-111.8503182,40.6987539,8017831127,http://www.wasatchbeers.com,2018-08-24T16:25:24.076Z,2018-07-24T01:34:22.960Z
7010,Bobcat Brewery & Cafe,brewpub,5 Main St,,,Bristol,Vermont,,05443-1317,United States,-73.0781120400805,44.13284975,8024533311,http://www.bobcatcafe.com,2018-08-24T16:25:31.399Z,2018-07-24T01:34:23.096Z
7018,Farnham Ale & Lager,micro,82 Ethan Allen Dr,,,South Burlington,Vermont,,05403-5971,United States,-73.1539127449664,44.482903885906,8027351288,http://www.farnham-alelager.com,2018-08-24T16:25:38.815Z,2018-07-24T01:34:23.212Z
7046,Otter Creek Brewing Co,regional,793 Exchange St,,,Middlebury,Vermont,,05753-1193,United States,-73.1707577239178,44.0331564353663,8023880727,http://www.ottercreekbrewing.com,2018-08-24T16:26:19.304Z,2018-07-24T01:34:23.589Z
7058,The Norwich Inn - Jasper Murdock's Alehouse,brewpub,325 Main St,,,Norwich,Vermont,,05055-9453,United States,-72.3091387,43.7150119,8026491143,http://www.norwichinn.com,2018-08-24T16:26:35.696Z,2018-07-24T01:34:23.746Z
7082,Back Bay Brewing Company,micro,614 Norfolk Ave,,,Virginia Beach,Virginia,,23451-4419,United States,-75.9797441428571,36.8377837142857,7575317750,http://www.backbaybrewingco.com,2018-08-24T16:27:08.471Z,2018-07-24T01:34:24.177Z
7098,Belly Love Brewing Company,brewpub,725 E Main St,,,Purcellville,Virginia,,20132-3178,United States,-77.7015903,39.1364247,5404413159,http://www.bellylovebrewing.com,2018-08-24T16:27:27.910Z,2018-07-24T01:34:24.396Z
7105,Billsburg Brewery,micro,2054 Jamestown Rd,,,Williamsburg,Virginia,,23185-7911,United States,-76.7129558,37.2682365,,http://www.billsburg.com,2018-08-24T16:27:37.217Z,2018-07-24T01:34:24.499Z
7131,Bull Island Brewing Company,brewpub,758 Settlers Landing Rd,,,Hampton,Virginia,,23669-4035,United States,-76.3420654545455,37.0248734545455,7577889489,http://www.bullislandbrewing.com,2018-08-24T16:28:00.661Z,2018-07-24T01:34:24.834Z
7156,Eavesdrop Brewery,micro,7223 Centreville Rd Ste 115,,,Manassas,Virginia,,20111,United States,-77.469,38.752531,7034208955,http://www.eavesdropbrewery.com,2018-08-24T16:28:31.194Z,2018-07-24T01:34:25.177Z
7171,Gordon Biersch Brewery Restaurant - Virginia Beach,brewpub,4561 Virginia Beach Blvd,,,Virginia Beach,Virginia,,23462-3015,United States,-76.1345641,36.8432205,7574902739,http://www.craftworksrestaurants.com,2018-08-24T16:28:49.482Z,2018-07-24T01:34:25.405Z
7203,Legend Brewing Co,brewpub,1 High St,,,Portsmouth,Virginia,,23704-3814,United States,-76.2966634213108,36.83482035,8042328871,,2018-08-24T16:29:22.127Z,2018-07-24T01:34:25.854Z
7210,Loudoun Brewing Co,micro,310 E Market St,,,Leesburg,Virginia,,20176-4101,United States,-77.532576,39.09743,5712236097,http://www.loudounbrewing.com,2018-08-24T16:29:31.276Z,2018-07-24T01:34:25.945Z
7235,Ono Brewing Company,micro,4520 Daly Dr Ste 102,,,Chantilly,Virginia,,20151-3735,United States,-77.4437006339208,38.8832787522685,5714096662,http://www.onobrewco.com,2018-08-24T16:29:59.425Z,2018-07-24T01:34:26.286Z
1006,Shanty Shack Brewing,brewpub,138 Fern St,,,Santa Cruz,California,,95060-2118,United States,-122.030853013199,36.9859968034963,8313160800,http://shantyshackbrewing.com,2018-08-24T00:02:26.436Z,2018-07-24T01:33:00.776Z
7249,Reason Beer,micro,1180 Seminole Trl Ste 290,,,Charlottesville,Virginia,,22901-5713,United States,-78.486033001597,38.0679283078808,4342494572,http://www.reasonbeer.com,2018-08-24T16:30:18.922Z,2018-07-24T01:34:26.507Z
7253,Restless Moons Brewing,micro,120 W Wolfe St,,,Harrisonburg,Virginia,,22802-3815,United States,-78.870847259293,38.4518952234726,5402172726,http://www.restlessmoons.com,2018-08-24T16:30:23.497Z,2018-07-24T01:34:26.568Z
7281,Studio Brew,brewpub,221 Moore St,,,Bristol,Virginia,,24201-4302,United States,-82.1823137347038,36.5986280768857,4233603258,http://www.studiobrew.beer,2018-08-24T16:31:01.113Z,2018-07-24T01:34:26.994Z
7297,Three Notch'd Sour House,micro,520 2nd St SE,,,Charlottesville,Virginia,,22902-5794,United States,-78.4820248,38.0261159,4349563141,http://threenotchdbrewing.com/,2018-08-24T16:31:21.980Z,2018-07-24T01:34:27.212Z
7303,Triple Crossing Brewing Company,micro,113 S. Foushee St.,,,Richmond,Virginia,,23220-5616,United States,-77.4455177,37.5415927,8043991780,http://www.triplecrossingbeer.com,2018-08-24T16:31:31.017Z,2018-07-24T01:34:27.296Z
7312,Wasserhund Brewing Company,brewpub,1805 Laskin Rd Ste 102,,,Virginia Beach,Virginia,,23454-4553,United States,-76.0276214674499,36.849165,7573511326,http://www.wasserhundbrewing.com,2018-08-24T16:31:40.178Z,2018-07-24T01:34:27.418Z
7333,Adam's Northwest Bistro / Twin Rivers Brewing,brewpub,104 N Lewis St,,,Monroe,Washington,,98272-1502,United States,-121.970886952765,47.8558847142728,3607944056,http://www.adamsnwbistro.com,2018-08-24T16:32:08.563Z,2018-07-24T01:34:27.780Z
7340,Aslan Brewing Company,micro,1330 N Forest St,,,Bellingham,Washington,,98225-4702,United States,-122.475450877551,48.7480153061224,3603934106,http://aslanbrewing.com,2018-08-24T16:32:19.367Z,2018-07-24T01:34:27.877Z
7351,Bale Breaker Brewing Company,regional,1801 Birchfield Rd,,,Yakima,Washington,,98901-9577,United States,-120.435573023058,46.5768554077014,5094244000,http://www.balebreaker.com,2018-08-24T16:32:35.704Z,2018-07-24T01:34:28.043Z
7370,Blackbeard's Brewing Company,brewpub,700 W Ocean Ave,,,Westport,Washington,,98595-9603,United States,-124.1175413,46.8867861,3602687662,http://www.blackbeardsbrewing.com,2018-08-24T16:33:02.265Z,2018-07-24T01:34:28.374Z
7387,Brothers Cascadia Brewing,micro,9811 NE 15th Ave,,,Vancouver,Washington,,98665-9102,United States,-122.6553318,45.6499058,3607188927,http://www.brotherscascadiabrewing.com,2018-08-24T16:33:14.450Z,2018-07-24T01:34:28.676Z
7401,Chief Spring's Fire and Irons Brew Pub,brewpub,148 E Main St,,,Dayton,Washington,,99328-1351,United States,-117.9811345,46.3192285,5093824677,http://www.fireandironsbrewpub.com,2018-08-24T16:33:28.636Z,2018-07-24T01:34:28.873Z
7432,Dungeness Brewing Company,micro,4017 S Mount Angeles Rd,,,Port Angeles,Washington,,98362-8966,United States,-123.418449,48.087279,3607751877,http://www.dungenessbrewing.com,2018-08-24T16:34:08.119Z,2018-07-24T01:34:29.315Z
7433,Dwinell Country Ales,micro,206 W Broadway St,,,Goldendale,Washington,,98620-9130,United States,-120.824777313583,45.822927,5097733138,http://www.countryales.com,2018-08-24T16:34:09.583Z,2018-07-24T01:34:29.328Z
7434,Dystopian State Brewing,micro,611 S Baker St,,,Tacoma,Washington,,98402-2318,United States,-122.443306593961,47.2583606145584,2533023466,http://www.dystopianstate.com,2018-08-24T16:34:11.036Z,2018-07-24T01:34:29.341Z
7464,Flyers Restaurant and Brewery,brewpub,32295 State Route 20,,,Oak Harbor,Washington,,98277-5923,United States,-122.652847439221,48.2991197,3606755858,http://www.eatatflyers.com,2018-08-24T16:34:49.811Z,2018-07-24T01:34:29.777Z
7486,Good Brewing Company,micro,16104 125th Pl NE,,,Woodinville,Washington,,98072-7983,United States,-122.171787667615,47.7446995850893,4252473245,http://www.globalbeercompany.com,2018-08-24T16:35:21.412Z,2018-07-24T01:34:30.128Z
7499,Hellbent Brewing Company,micro,13035 Lake City Way NE,,,Seattle,Washington,,98125-4428,United States,-122.2931111,47.7238772,2063613707,http://www.hellbentbrewingcompany.com,2018-08-24T16:35:37.928Z,2018-07-24T01:34:30.315Z
7526,Lagunitas Seattle Taproom and Beer Sanctuary,brewpub,1550 NW 49th St,,,Seattle,Washington,,98107-4731,United States,-122.3784629,47.6645881,2067842230,,2018-08-24T16:36:09.395Z,2018-07-24T01:34:30.718Z
7534,Loowit Brewing,micro,507 Columbia St,,,Vancouver,Washington,,98660-3194,United States,-122.6734331,45.6251071,3605662323,http://www.loowitbrewing.com,2018-08-24T16:36:21.311Z,2018-07-24T01:34:30.829Z
7537,Lost Canoe Brewing Co,micro,1208 10th St,,,Snohomish,Washington,,98290-2099,United States,-122.096621963598,47.9241141959796,3605683984,http://www.facebook.com/lostcanoebrew/,2018-08-24T16:36:24.408Z,2018-07-24T01:34:30.869Z
7563,Mill Creek Brewpub,brewpub,11 S Palouse St,,,Walla Walla,Washington,,99362-1925,United States,-118.334927236137,46.0692793903828,5095222440,http://www.millcreek-brewpub.com,2018-08-24T16:36:58.980Z,2018-07-24T01:34:31.275Z
7582,Northern Ales,brewpub,325 W 3rd Ave,,,Kettle Falls,Washington,,99141-0993,United States,-118.065184317399,48.6097979307548,,http://northernales.com,2018-08-24T16:37:26.953Z,2018-07-24T01:34:31.557Z
7587,Northwest Peaks Brewery,micro,5718 Rainier Ave S,,,Seattle,Washington,,98118-2704,United States,-122.277436437754,47.5509916925813,2067252337,http://www.nwpeaksbrewery.com,2018-08-24T16:37:30.036Z,2018-07-24T01:34:31.625Z
7612,Perry Street Brewing Co.,micro,1025 S Perry St # 2,,,Spokane,Washington,,99202-3464,United States,-117.389802164913,47.6460507290258,5092792820,http://www.perrystreetbrewing.com,2018-08-24T16:38:02.362Z,2018-07-24T01:34:32.047Z
7628,RAM Restaurant and Brewery - Puyallup South Hill,brewpub,103 35th Ave SE,,,Puyallup,Washington,,98374-1231,United States,-122.292784973154,47.1585707114094,2538413317,http://www.theram.com,2018-08-24T16:38:24.900Z,2018-07-24T01:34:32.254Z
7632,Rattlesnake Mountain Brewery / Kimo's Restaurant,brewpub,1250 Columbia Center Blvd,,,Richland,Washington,,99352-4839,United States,-119.223482230166,46.2250454328982,5097835747,http://www.rattlesnakemountainbrewery.com,2018-08-24T16:38:30.950Z,2018-07-24T01:34:32.322Z
7658,Scrappy Punk Brewing,micro,9029A 112th Dr SE,,,Snohomish,Washington,,98290-,United States,-122.080104887189,47.9136556714666,5038101655,http://www.facebook.com/scrappypunkbrew,2018-08-24T16:39:08.635Z,2018-07-24T01:34:32.696Z
7674,SnoTown Brewery,micro,511 2nd St,,,Snohomish,Washington,,98290-3009,United States,-122.088761,47.912652,4252318113,http://www.facebook.com/SnoTownBrewery/,2018-08-24T16:39:31.054Z,2018-07-24T01:34:32.914Z
7676,Sound To Summit,brewpub,1830 Bickford Ave Ste 111,,,Snohomish,Washington,,98290-1751,United States,-122.102392660754,47.9330785850761,3602948127,http://www.sound2summit.com,2018-08-24T16:39:34.104Z,2018-07-24T01:34:32.942Z
7698,The Heavy Metal Brewing Co.,brewpub,809 Macarthur Blvd,,,Vancouver,Washington,,98661-7013,United States,-122.6171177,45.6275368,3602581691,http://www.theheavymetalbrewingco.com,2018-08-24T16:39:59.918Z,2018-07-24T01:34:33.233Z
7721,Valley Brewing Co,micro,3215 River Rd,,,Yakima,Washington,,98902-1142,United States,-120.553068,46.618456,5099495944,http://www.valleybrewingco.com,2018-08-24T16:40:29.188Z,2018-07-24T01:34:33.559Z
7731,Water Buffalo Brewery,micro,136 Russet Rd,,,Walla Walla,Washington,,99362-8253,United States,-118.406074773204,46.0522032720417,5092407139,http://www.waterbuffalobrewery.com,2018-08-24T16:40:43.000Z,2018-07-24T01:34:33.694Z
7756,Blackwater Brewing Co,micro,912 William Ave,,,Davis,West Virginia,,26260-0356,United States,-79.4695264,39.1274943,3042098118,http://www.BlackwaterBrewingWV.com,2018-08-24T16:41:14.910Z,2018-07-24T01:34:34.048Z
1054,Steele and Hops Public House,brewpub,1901 Mendocino Ave,,,Santa Rosa,California,,95401,United States,-122.717258,38.459216,7075232201,http://www.steeleandhops.com,2018-08-24T00:03:09.801Z,2018-07-24T01:33:01.406Z
7768,North End Tavern & Brewery,brewpub,3500 Emerson Ave,,,Parkersburg,West Virginia,,26104-1806,United States,-81.5330081,39.2874512,3044285854,http://www.netbrewery.com,2018-08-24T16:41:31.129Z,2018-07-24T01:34:34.218Z
7778,Weathered Ground Brewery,micro,2027 Flat Top Rd,,,Cool Ridge,West Virginia,,25843-9303,United States,-81.0968258333333,37.6483385666667,3047166230,http://www.weatheredgroundbrewery.com,2018-08-24T16:41:42.098Z,2018-07-24T01:34:34.346Z
7796,Bent Kettle Brewing Company,micro,1507 Montclair Pl,,,Fort Atkinson,Wisconsin,,53538-3102,United States,-88.861232,42.9348495,9203909038,http://www.bentkettle.com,2018-08-24T16:42:06.305Z,2018-07-24T01:34:34.606Z
7816,"Bullquarian Brewhouse, LLC",brewpub,1128 17th Ave,,,Monroe,Wisconsin,,53566-2007,United States,-89.6383092995843,42.60032375,6084266720,,2018-08-24T16:42:25.901Z,2018-07-24T01:34:34.866Z
7820,City Brewing Co,regional,925 3rd St S,,,La Crosse,Wisconsin,,54601-4411,United States,-91.2533504575855,43.8043552291685,6087854200,http://www.citybrewery.com,2018-08-24T16:42:31.763Z,2018-07-24T01:34:34.919Z
7835,Driftless Brewing Co,micro,102 Sunbeam Blvd W,,,Soldiers Grove,Wisconsin,,54655-1001,United States,-90.7657183245046,43.3892199668922,66086245577,http://www.driftlessbrewing.com,2018-08-24T16:42:52.603Z,2018-07-24T01:34:35.147Z
7855,Good City Brewing Company,brewpub,2108 N Farwell Ave,,,Milwaukee,Wisconsin,,53202-1115,United States,-87.8889038,43.0565468,4145394173,http://www.goodcitybrewing.com,2018-08-24T16:43:18.152Z,2018-07-24T01:34:35.407Z
7864,Hinterland Brewery,micro,1001 Lombardi Ave,,,Green Bay,Wisconsin,,54304-3956,United States,-88.0489040625,44.498960015625,9204388050,http://www.hinterlandbeer.com,2018-08-24T16:43:32.279Z,2018-07-24T01:34:35.522Z
7865,Hop & Barrel Brewing Company LLC,micro,310 2nd St,,,Hudson,Wisconsin,,54016-1508,United States,-92.756671162684,44.9732967107142,6517959439,http://www.hopandbarrelbrewing.com,2018-08-24T16:43:33.797Z,2018-07-24T01:34:35.534Z
7881,Legends Brewhouse and Eatery (#1),brewpub,2840 Shawano Ave,,,Green Bay,Wisconsin,,54313-6725,United States,-88.036448,44.521795,9206621111,http://www.legendseatery.com,2018-08-24T16:43:57.501Z,2018-07-24T01:34:35.740Z
7897,MobCraft Beer,proprietor,505 S 5th St,,,Milwaukee,Wisconsin,,53204-1518,United States,-87.916937387519,43.0261838359198,6083463003,http://www.mobcraftbeer.com,2018-08-24T16:44:20.439Z,2018-07-24T01:34:35.951Z
7912,O'so Brewing,micro,3028 Village Park Dr,,,Plover,Wisconsin,,54467-4300,United States,-89.5234305300291,44.4534004372744,7152542163,http://www.osobrewing.com,2018-08-24T16:44:39.019Z,2018-07-24T01:34:36.148Z
7920,Port Huron Brewing Co,micro,805 Business Park Dr,,,Wisconsin Dells,Wisconsin,,53965-9440,United States,-89.7465766666667,43.6285166666667,6082530340,http://www.porthuronbeer.com,2018-08-24T16:44:50.940Z,2018-07-24T01:34:36.255Z
7937,Rowlands Calumet Brewery Co (#2),micro,57 School St,,,Chilton,Wisconsin,,53014-,United States,-88.164013274801,44.0291830997522,9208492534,,2018-08-24T16:45:18.907Z,2018-07-24T01:34:36.472Z
7939,Rush River Brewing Co,micro,990 Antler Ct,,,River Falls,Wisconsin,,54022-4880,United States,-92.6386153347867,44.8911208,7154262054,http://www.rushriverbeer.com,2018-08-24T16:45:20.381Z,2018-07-24T01:34:36.498Z
7953,Sprecher Brewing Co / Chameleon Brewing,micro,701 W Glendale Ave,,,Glendale,Wisconsin,,53209-6509,United States,-87.9196951139335,43.09929865,4149647837,http://www.sprecherbrewery.com,2018-08-24T16:45:39.187Z,2018-07-24T01:34:36.677Z
1106,The Rare Barrel,micro,940 Parker St,,,Berkeley,California,,94710,United States,-122.2914445,37.8576209,5109846585,http://www.therarebarrel.com,2018-08-24T00:03:55.603Z,2018-07-24T01:33:02.119Z
7981,Urban Harvest Brewing Company,micro,1024 S 5th St,,,Milwaukee,Wisconsin,,53204-1733,United States,-87.9167274897959,43.0208094081633,4142494074,http://www.urbanharvestbrewing.com,2018-08-24T16:46:14.451Z,2018-07-24T01:34:37.085Z
7999,Bitter Creek Brewing Co,brewpub,604 Broadway St,,,Rock Springs,Wyoming,,82901-6348,United States,-109.21812427755,41.5868390443439,3073624782,http://www.bittercreekbrewing.com,2018-08-24T16:46:39.138Z,2018-07-24T01:34:37.322Z
8025,Suds Brothers Brewing Co,brewpub,1012 Main St,,,Evanston,Wyoming,,82930-3443,United States,-110.966093616751,41.2679868715664,3074447837,http://www.sudsbrothersbrewery.com,2018-08-24T16:47:09.293Z,2018-07-24T01:34:37.653Z
8030,Supreme Core Cider,micro,2400 T St SE,,,Washington,District of Columbia,,20002,United States,-77.025991,38.9099469,2022155029,https://supremecorecider.com/,2020-04-24T00:00:00.000Z,2020-04-24T00:00:00.000Z
8032,Reformation Brewery (Canton),micro,225 Reformation Pkwy Suite 500,,,Canton,Georgia,,30114-2798,United States,-84.4953245,34.2351928,6783410828,http://www.reformationbrewery.com,2020-04-24T00:00:00.000Z,2020-04-24T00:00:00.000Z
8033,Reformation Brewery (Smyrna),micro,6255 Riverview Rd SE Bldg 4000 Suite 200,,,Mableton,Georgia,,30126-3034,United States,-84.50383175533018,33.800123706679635,6787167131,http://www.reformationbrewery.com,2020-04-24T00:00:00.000Z,2020-04-24T00:00:00.000Z
1155,Unsung Brewing Company,micro,1332 Bell Ave Ste 2D,,,Tustin,California,,92780-6439,United States,,,,,2018-08-11T21:36:27.130Z,2018-07-24T01:33:02.717Z
1217,Avery Brewing Co,regional,4910 Nautilus Ct N,,,Boulder,Colorado,,80301-3242,United States,-105.204765186937,40.0625835,,,2018-08-24T00:05:32.893Z,2018-07-24T01:33:03.576Z
1216,Avant Garde Beer,planning,,,,,,,,United States,,,3035191320,,2018-07-24T01:33:03.563Z,2018-07-24T01:33:03.563Z
1261,Brewery in Planning - Commerce City,planning,,,,,,,,United States,,,7203731644,,2018-07-24T01:33:04.157Z,2018-07-24T01:33:04.157Z
1323,Dean and Co,micro,201 Grant St,,,La Junta,Colorado,,81050,United States,,,,,2018-08-11T21:36:34.644Z,2018-07-24T01:33:04.927Z
1362,Finkel & Garf Brewing Co.,micro,5455 Spine Rd Ste A,,,Boulder,Colorado,,80301-3364,United States,,,,http://www.finkelandgarf.com,2018-08-11T21:36:35.908Z,2018-07-24T01:33:05.435Z
1442,LUKI Brewery,planning,,,,,,,,United States,,,3034034434,http://www.lukibrew.com,2018-07-24T01:33:06.416Z,2018-07-24T01:33:06.416Z
1462,Mountain Toad Brewing,micro,900 Washington Ave,,,Golden,Colorado,,80401-1047,United States,-105.22425625,39.75807905,7206383244,http://mountaintoadbrewing.com,2018-08-24T00:23:55.661Z,2018-07-24T01:33:06.662Z
1513,Rally King Brewing,micro,1624 S Lemay Ave Unit 4,,,Fort Collins,Colorado,,80525-1188,United States,,,9705688936,http://www.rallykingbrewing.com,2018-08-11T21:36:40.902Z,2018-07-24T01:33:07.284Z
1578,The Barn Brewery,planning,,,,,,,,United States,,,,,2018-07-24T01:33:08.097Z,2018-07-24T01:33:08.097Z
1649,Blackrock Beer Co,planning,,,,,,,,United States,,,6314823118,http://www.blackrockbeerco.com,2018-07-24T01:33:09.147Z,2018-07-24T01:33:09.147Z
1665,Cliffside Brewing,micro,16B Center St,,,Wallingford,Connecticut,,06492-4110,United States,-72.8236736045008,41.4566458293791,,http://www.cliffsidebrewing.com,2018-08-24T00:25:31.874Z,2018-07-24T01:33:09.376Z
1672,Donderwolk,micro,St Anthoniusplaats 14,,,,,,,United States,,,,http://www.facebook.com/donderwolkbrouwerij,2018-07-24T01:33:09.474Z,2018-07-24T01:33:09.474Z
1685,Great New London Brewing Co / Safe Harbor Brewing,contract,,,,,,,,United States,,,8605998213,http://www.safeharborbeer.com,2018-07-24T01:33:09.644Z,2018-07-24T01:33:09.644Z
1727,Tox Brewing Company,planning,,,,New London,Connecticut,,06320,United States,,,,http://www.toxbrewing.com,2018-08-11T21:36:47.789Z,2018-07-24T01:33:10.285Z
1776,Handsome Beer Company,contract,,,,,,,,United States,,,,,2018-07-24T01:33:10.953Z,2018-07-24T01:33:10.953Z
1837,Brewery In Planning - Asheville,planning,,,,,,,,United States,,,8184197015,,2018-07-24T01:33:11.797Z,2018-07-24T01:33:11.797Z
1860,Cayo Hueso Brewing,planning,,,,,,,,United States,,,,,2018-07-24T01:33:12.094Z,2018-07-24T01:33:12.094Z
1869,Clermont Brewing Company,planning,,,,Clermont,Florida,,34711-2108,United States,,,,,2018-08-11T21:36:52.809Z,2018-07-24T01:33:12.213Z
1927,Grayton Beer Brewpub,brewpub,217 Serenoa Rd,,,Santa Rosa Beach,Florida,,32459-6099,United States,,,8502314786,,2018-08-11T21:36:54.657Z,2018-07-24T01:33:12.957Z
1968,Lake Tribe Brewing,micro,3357 Garber Dr Unit 4,,,Tallahassee,Florida,,32303-1123,United States,,,,http://www.laketribebrewing.com,2018-08-11T21:36:55.904Z,2018-07-24T01:33:13.509Z
2023,Pirate Republic Brewing,brewpub,"Woodes Rogers Walk, Nassau, Bahamas",,,,,,,United States,,,,,2018-07-24T01:33:14.197Z,2018-07-24T01:33:14.197Z
2092,Unseen Creatures Brewing & Blending,planning,,,,,,,,United States,,,7862512109,http://www.unseencreaturesbrewing.com,2018-07-24T01:33:15.085Z,2018-07-24T01:33:15.085Z
2123,Brewery in Planning - Savannah,planning,,,,,,,,United States,,,9126575003,,2018-07-24T01:33:15.481Z,2018-07-24T01:33:15.481Z
2199,Steady Hand Beer Co.,planning,,,,,,,,United States,,,,http://www.steadyhandbeer.com,2018-07-24T01:33:16.462Z,2018-07-24T01:33:16.462Z
2222,"Brewery In Planning - Kahului, HI",planning,,,,,,,,United States,,,,,2018-07-24T01:33:16.780Z,2018-07-24T01:33:16.780Z
2224,Broken Boundary Brewery,planning,,,,,,,,United States,,,,,2018-07-24T01:33:16.805Z,2018-07-24T01:33:16.805Z
2272,Magic Valley Brewing,brewpub,208 Broadway Ave N,,,Buhl,Idaho,,83316-1625,United States,-114.761052755102,42.6000951428571,2084206021,,2018-08-24T00:30:06.195Z,2018-07-24T01:33:17.407Z
2307,5 Rabbit Cerveceria Inc,planning,,,,,,,,United States,,,,,2018-07-24T01:33:17.870Z,2018-07-24T01:33:17.870Z
2345,"Brewery In Planning- Chicago, IL",planning,,,,,,,,United States,,,,,2018-07-24T01:33:18.384Z,2018-07-24T01:33:18.384Z
2325,Bearded Owl Brewing,brewpub,112 State St Ste 1A,,,Peoria,Illinois,,61602-5121,United States,,,3093601980,,2018-08-11T21:37:07.970Z,2018-07-24T01:33:18.143Z
2376,Emmett's Brewing Co - Wheaton,brewpub,121 W Front St,,,Wheaton,Illinois,,60187-5108,United States,-88.107052318347,41.8649421654249,6303832020,http://www.emmettsbrewingco.com,2018-08-24T00:30:53.760Z,2018-07-24T01:33:18.761Z
2424,Industry Brewing,brewpub,8012 N Hale Ave,,,Peoria,Illinois,,61615-2050,United States,-89.6076456326531,40.7861340612245,3098392930,http://www.spicehospgroup.com,2018-08-24T00:31:18.504Z,2018-07-24T01:33:19.392Z
2506,Riverlands Brewing Company,planning,,,,,,,,United States,,,6303772262,http://www.riverlandsbrewing.com,2018-07-24T01:33:20.449Z,2018-07-24T01:33:20.449Z
2525,Smylie Brothers Brewing Co,brewpub,1615 Oak Ave,,,Evanston,Illinois,,60201-3611,United States,-87.6864692,42.0476547,2249997320,http://www.smyliebros.com,2018-08-24T00:32:07.628Z,2018-07-24T01:33:20.696Z
2566,2Toms Brewing Company,brewpub,,,,,,,,United States,,,2604027644,http://www.2tomsbrewing.com,2018-07-24T01:33:21.219Z,2018-07-24T01:33:21.219Z
2531,Strikhedonia Brewing Company LLC,planning,,,,Saint Charles,Illinois,,60174-4591,United States,,,,,2018-08-11T21:37:16.002Z,2018-07-24T01:33:20.770Z
2578,Big Leaf Brewing,micro,1320 Durkees Ferry Rd,,,West Terre Haute,Indiana,,47885-9626,United States,,,8122812187,,2018-08-11T21:37:17.678Z,2018-07-24T01:33:21.370Z
2646,Hoosier Brewing Company,micro,,,,,,,,United States,,,3178359705,http://www.hoosierbrewingco.com,2018-07-24T01:33:22.214Z,2018-07-24T01:33:22.214Z
2680,"Pokro Brewing Company, The",micro,311 N Broad St,,,Griffith,Indiana,,46319-2222,United States,-87.4275573320627,41.5266943049435,2199247950,http://www.pokrobrewing.com,2018-08-24T00:33:14.975Z,2018-07-24T01:33:22.643Z
2731,Zorn Brew Works,micro,605 E 9th St,,,Michigan City,Indiana,,46360-3651,United States,-86.8921678567784,41.714577,2193316322,http://www.zornbrewworks.com,2018-08-24T00:33:41.836Z,2018-07-24T01:33:23.284Z
2810,The Arizona Beer Garden LLC,planning,,,,,,,,United States,,,,,2018-07-24T01:33:24.400Z,2018-07-24T01:33:24.400Z
2854,Salt City Brewing,micro,514 N Main Street,,,Hutchinson,Kansas,,67501,United States,-97.9317530573845,38.0586914288921,6209606210,,2018-08-24T00:38:33.791Z,2018-07-24T01:33:24.989Z
2833,Fields & Ivy Brewery,planning,,,,Olathe,Kansas,,66061-7464,United States,,,9136710349,,2018-08-11T21:37:25.745Z,2018-07-24T01:33:24.721Z
2932,Brewery In Planning - Natchitoches,planning,,,,,,,,United States,,,,,2018-07-24T01:33:26.110Z,2018-07-24T01:33:26.110Z
2961,Rally Cap Brewing Company,planning,,,,,,,,United States,,,,,2018-07-24T01:33:26.490Z,2018-07-24T01:33:26.490Z
2986,Bath Brewing Company,brewpub,141 Front St,,,Bath,Maine,,04530,United States,-69.8141459329791,43.9140854135672,2075603389,http://www.bathbrewing.com,2018-08-24T00:39:33.620Z,2018-07-24T01:33:26.823Z
3038,Maine Beer Co,micro,525 US Route 1,,,Freeport,Maine,,04032-7009,United States,,,2072215711,http://www.mainebeercompany.com,2018-08-11T21:37:32.878Z,2018-07-24T01:33:27.484Z
3120,Chick Brewing Company,contract,,,,,,,,United States,,,4108499059,http://www.chickbeer.com,2018-07-24T01:33:28.692Z,2018-07-24T01:33:28.692Z
3127,Denizens Brewing Company,planning,,,,,,,,United States,,,3015579818,,2018-07-24T01:33:28.796Z,2018-07-24T01:33:28.796Z
3144,Grail Point Brewery,proprietor,,,,Emmitsburg,Maryland,,21727-0702,United States,,,2408442379,http://www.grailpointbeer.co,2018-08-11T21:37:36.272Z,2018-07-24T01:33:29.039Z
3201,Union Collective,planning,,,,,,,,United States,,,,,2018-07-24T01:33:29.837Z,2018-07-24T01:33:29.837Z
3251,Brewmaster Jack,contract,,,,,,,,United States,,,4133677190,http://www.brewmasterjack.com,2018-07-24T01:33:30.549Z,2018-07-24T01:33:30.549Z
3312,Medford Brewing,contract,,,,,,,,United States,,,,http://www.medfordbrewingcompany.com,2018-07-24T01:33:31.420Z,2018-07-24T01:33:31.420Z
3377,Wash Ashore Beer Company,contract,,,,,,,,United States,,,,http://www.washashorebeer.com,2018-07-24T01:33:32.293Z,2018-07-24T01:33:32.293Z
3398,Arclight Brewing Company,micro,544 N Main St,,,Watervliet,Michigan,,49098-9797,United States,-86.2593923773585,42.1910483207547,2693320718,http://www.arclightbrewing.com,2018-08-24T00:42:05.364Z,2018-07-24T01:33:32.637Z
3399,Arvon Brewing Co.,micro,3057 Broadway Ave SW,,,Grandville,Michigan,,49418-1528,United States,-85.7720434,42.909272,6162240086,http://www.arvonbrewingco.com,2018-08-24T00:42:05.792Z,2018-07-24T01:33:32.649Z
3400,Ascension Brewing Company,brewpub,42000 Grand River Ave,,,Novi,Michigan,,48375-1831,United States,-83.4609783,42.4783271,2483082093,http://www.ascension.beer,2018-08-24T00:42:06.270Z,2018-07-24T01:33:32.664Z
3402,Atwater Grand Rapids,brewpub,201 Michigan St NW,,,Grand Rapids,Michigan,,49503-2323,United States,-85.672454,42.970463,6166493020,,2018-08-24T00:42:07.327Z,2018-07-24T01:33:32.696Z
3447,Brewery Faisan,planning,,,,Detroit,Michigan,,48207,United States,,,5867032030,http://www.breweryfaisan.com,2018-08-11T21:37:46.808Z,2018-07-24T01:33:33.362Z
3509,Falling Down Beer Co.,brewpub,2270 E 10 Mile Rd,,,Warren,Michigan,,48091-3701,United States,-82.9805361,42.4787048,,,2018-08-24T00:42:52.573Z,2018-07-24T01:33:34.188Z
3549,Guardian Brewing Company,planning,,,,Saugatuck,Michigan,,49453,United States,,,8125213611,http://www.guardianbrewingco.com,2018-08-11T21:37:50.157Z,2018-07-24T01:33:34.689Z
3636,Old Post Brewing,planning,,,,,,,,United States,,,,,2018-07-24T01:33:35.825Z,2018-07-24T01:33:35.825Z
3647,Paddle Hard Brewing,micro,118 Michigan Ave,,,Grayling,Michigan,,49738-1741,United States,-84.709584,44.66521,9897456388,http://paddlehardbrewing.com,2018-08-24T00:43:50.392Z,2018-07-24T01:33:35.968Z
3696,South Haven Brewpub,brewpub,515 Williams St Ste 23,,,South Haven,Michigan,,49090-1493,United States,,,2697677105,http://www.southhavenbrewpub.com,2018-08-11T21:37:56.441Z,2018-07-24T01:33:36.631Z
3746,TwoGuys Brewing,brewpub,2356 Porter St SW,,,Wyoming,Michigan,,49519,United States,-85.723550125,42.92114925,6165529690,http://www.twoguysbrewing.beer,2018-08-24T00:44:34.101Z,2018-07-24T01:33:37.311Z
3768,14 Lakes Brewery,micro,,,,Crosslake,Minnesota,,56442,United States,,,2186924129,,2018-08-11T21:37:58.724Z,2018-07-24T01:33:37.614Z
3841,Gluek Beer,contract,,,,,,,,United States,,,,,2018-07-24T01:33:38.570Z,2018-07-24T01:33:38.570Z
3846,Granite City Food & Brewery (#10),brewpub,3330 Pilot Knob Rd,,,Eagan,Minnesota,,55121-2055,United States,-93.1671452352941,44.8377987058824,6514524600,http://www.gcfb.net,2018-08-24T00:45:16.600Z,2018-07-24T01:33:38.633Z
3901,Portage Brewing Company,micro,107 South 5th St,,,,,,,United States,,,2185476217,http://www.portagebeer.com,2018-07-24T01:33:39.387Z,2018-07-24T01:33:39.387Z
3955,1817 Brewery,micro,100 B South Olive St,,,okolona,Mississippi,,38860,United States,-88.750264,34.001703,6623055907,,2018-08-24T00:46:02.182Z,2018-07-24T01:33:40.141Z
4003,City Barrel Brewing Co,planning,,,,Kansas City,Missouri,,64108-1803,United States,,,,,2018-08-11T21:38:07.350Z,2018-07-24T01:33:40.834Z
4058,Pursuit Brewing & Blending,planning,,,,,,,,United States,,,,,2018-07-24T01:33:41.581Z,2018-07-24T01:33:41.581Z
4111,Brother Joseph's Brewing Company,planning,,,,,,,,United States,,,,http://www.xcmdt.com,2018-07-24T01:33:42.335Z,2018-07-24T01:33:42.335Z
4149,MAP Brewing Company,brewpub,510 Manley Rd,,,Bozeman,Montana,,59715-8784,United States,-111.0400807,45.7033199,4065874070,http://www.mapbrewing.com,2018-08-24T00:47:19.247Z,2018-07-24T01:33:42.876Z
4200,First Street Brewing,micro,119 N St Joseph Ave,,,Hastings,Nebraska,,68901-7553,United States,-98.3877197959184,40.5844988979592,4028342400,http://www.firststreetbrewing.com,2018-08-24T00:47:38.449Z,2018-07-24T01:33:43.582Z
4202,Gottberg Brew Pub,brewpub,2804 13th St,,,Columbus,Nebraska,,68601-4919,United States,-97.3621271020408,41.4294006122449,4025626488,http://www.dustersrestaurant.com,2018-08-24T00:47:38.942Z,2018-07-24T01:33:43.613Z
4203,Granite City Food & Brewery (#16),brewpub,1001 N 102nd St,,,Omaha,Nebraska,,68114-2155,United States,-96.071539,41.268008,4023935000,http://www.gcfb.net,2018-08-24T00:47:39.392Z,2018-07-24T01:33:43.629Z
4224,Pint Nine Brewing Company,micro,10411 Portal Rd Ste 104,,,,,,,United States,,,4023591418,http://www.pintninebrewing.com,2018-07-24T01:33:43.941Z,2018-07-24T01:33:43.941Z
4201,Flyover Brewing Co,planning,,,,Scottsbluff,Nebraska,,69361-2458,United States,,,6163224564,http://www.flyoverbrewingco.com,2018-08-11T21:38:15.145Z,2018-07-24T01:33:43.598Z
4250,Brewery In Planning - Las Vegas,planning,,,,Las Vegas,Nevada,,89144-4473,United States,,,,,2018-08-11T21:38:16.910Z,2018-07-24T01:33:44.317Z
4300,Belgian Mare Brewery,micro,207 Gilsum Mine Rd,,,Alstead,New Hampshire,,03602-3915,United States,-72.2854221324114,43.109848380754,6038357801,http://www.belgianmare.com,2018-08-24T15:35:57.985Z,2018-07-24T01:33:45.128Z
4369,Ashton Brewing Company,planning,,,,,,,,United States,,,9083035455,http://ashtonbrewing.com,2018-07-24T01:33:46.073Z,2018-07-24T01:33:46.073Z
4409,Descendants Brewing Company,brewpub,61 Bridge St,,,Milford,New Jersey,,08848-1264,United States,-75.095372,40.568461,,,2018-08-24T15:36:43.487Z,2018-07-24T01:33:46.615Z
4462,Side Brewing,planning,,,,,,,,United States,,,9088016119,http://www.sidebrewing.com,2018-07-24T01:33:47.314Z,2018-07-24T01:33:47.314Z
4517,Ex Novo Albuquerque,planning,,,,,,,,United States,,,,,2018-07-24T01:33:48.107Z,2018-07-24T01:33:48.107Z
4552,Second Street Brewery - Rufina,brewpub,2920 Rufina St,,,Santa Fe,New Mexico,,87507-2999,United States,-105.990999285302,35.6587573846638,5059823030,http://www.secondstreetbreweryrufina.com,2018-08-24T15:37:45.374Z,2018-07-24T01:33:48.595Z
4637,Brewery in Planning - Washington,planning,,,,,,,,United States,,,2025776004,,2018-07-24T01:33:49.808Z,2018-07-24T01:33:49.808Z
4701,Ellicottville Brewing - Little Valley,planning,,,,,,,,United States,,,,,2018-07-24T01:33:50.689Z,2018-07-24T01:33:50.689Z
4665,Cheshmeh Brewing Co,planning,,,,White Plains,New York,,10605-3517,United States,,,,,2018-08-11T21:38:32.364Z,2018-07-24T01:33:50.220Z
4704,Empire City Beer Company,planning,,,,New York,New York,,10012,United States,,,9178040571,http://www.hitemhard.com,2018-08-11T21:38:33.652Z,2018-07-24T01:33:50.727Z
4753,Greenpoint Beer,brewpub,7 N 15th St,,,Brooklyn,New York,,11222-2838,United States,-73.9960761707317,40.6689340731707,9177501541,http://www.greenpointbeer.com,2018-08-24T15:39:11.282Z,2018-07-24T01:33:51.393Z
4830,Mount Vernon Brewery,contract,230 Concord Rd,,,,,,,United States,,,,http://www.broncksbeer.com,2018-07-24T01:33:52.502Z,2018-07-24T01:33:52.502Z
4853,Peekskill Brewing Co,brewpub,47 S Water St # 53,,,Peekskill,New York,,10566-2035,United States,-73.9292934,41.2867311,9147342337,http://www.peekskillbrewery.com,2018-08-24T15:39:53.719Z,2018-07-24T01:33:52.782Z
4902,Scale House Brewery,brewpub,5930 State Route 414,,,Hector,New York,,14841-9662,United States,,,6075462030,http://www.scalehousebrews.com,2018-08-11T21:38:40.942Z,2018-07-24T01:33:53.419Z
4951,The New Buffalo Brewing Co. Inc,contract,11163 Main St,,,Clarence,New York,,14031-1701,United States,-78.5705294096029,42.9844251745315,7162007275,http://www.newbuffalobrewing.com,2018-08-24T15:40:34.296Z,2018-07-24T01:33:54.080Z
5011,Armory Beer Company,planning,,,,,,,,United States,,,,http://www.armorybeer.com,2018-07-24T01:33:54.896Z,2018-07-24T01:33:54.896Z
5047,Brewers,planning,,,,Charlotte,North Carolina,,28217,United States,,,,,2018-08-11T21:38:45.927Z,2018-07-24T01:33:55.399Z
5057,Brewery In Planning - Southern Pines,planning,,,,,,,,United States,,,,,2018-07-24T01:33:55.525Z,2018-07-24T01:33:55.525Z
5107,Fonta Flora Brewery At Whipoorwill Farm,micro,6751 NC HWY 126,,,Nebo,North Carolina,,28761,United States,,,8284750153,,2018-08-11T21:38:47.845Z,2018-07-24T01:33:56.192Z
5157,Joymongers Brewing Co.,micro,576 N Eugene St,,,Greensboro,North Carolina,,27401,United States,-79.7938094489796,36.0787189591837,3367635255,http://www.joymongers.com,2018-08-24T15:42:01.747Z,2018-07-24T01:33:56.849Z
5237,Regulator Brewing Company,micro,,,,,,,,United States,,,9195892739,http://www.regulatorbrewing.com,2018-07-24T01:33:57.928Z,2018-07-24T01:33:57.928Z
5268,The Laboratory Mill Brewery,micro,848 Southfork Rd,,,Lincolnton,North Carolina,,28092,United States,,,,,2018-08-11T21:38:52.884Z,2018-07-24T01:33:58.355Z
5332,Old Ten Brewing,planning,,,,,,,,United States,,,7014719835,http://www.oldtenbrewing.com,2018-07-24T01:33:59.230Z,2018-07-24T01:33:59.230Z
5357,Black Frog Brewing Co,micro,831 S McCord Rd,,,Holland,Ohio,,43528-8746,United States,-83.7032185,41.6171284,4193897136,http://www.blackfrogbrewery.com,2018-08-24T15:43:27.530Z,2018-07-24T01:33:59.619Z
5413,Double Edge Brewing Co,micro,158 W Chestnut St,,,Lancaster,Ohio,,43130-4308,United States,-82.6042529,39.7123647,7402777465,http://www.double-edge.beer,2018-08-24T15:43:45.629Z,2018-07-24T01:34:00.508Z
5462,Hoof Hearted Brewing - Brewery and Kitchen,brewpub,850 N 4th St,,,Columbus,Ohio,,43215-1845,United States,,,6144014033,,2018-08-11T21:38:59.473Z,2018-07-24T01:34:01.164Z
5516,Mother Stewart's Brewing Co,micro,109 W North St,,,Springfield,Ohio,,45504-2546,United States,-83.8119656562835,39.9271684098324,,,2018-08-24T15:44:31.724Z,2018-07-24T01:34:01.922Z
5560,RAM Restaurant and Brewery - Dublin,brewpub,6623 Longshore St,,,,,,,United States,,,6146980308,,2018-07-24T01:34:02.601Z,2018-07-24T01:34:02.601Z
5564,Revel Urban Winery / Revel OTR,brewpub,111 E 12th St,,,Cincinnati,Ohio,,45202,United States,-84.5126641,39.1085275,5135799463,http://www.revelotr.com,2018-08-24T15:44:51.072Z,2018-07-24T01:34:02.656Z
5615,The Phoenix Brewing Company,micro,131 N Diamond St,,,Mansfield,Ohio,,44902-1331,United States,-82.513951877551,40.7620183673469,4195222552,http://www.phoenixbrewing.com,2018-08-24T15:45:10.239Z,2018-07-24T01:34:03.333Z
5687,Skydance Brewing Company,planning,,,,,,,,United States,,,4056868201,http://www.facebook.com/SkydanceBrewing/,2018-07-24T01:34:04.311Z,2018-07-24T01:34:04.311Z
5718,Bandon Brewing Company,brewpub,395 2nd St SE,,,Bandon,Oregon,,97411-9605,United States,-124.412249423341,43.1191571987033,5413473911,http://www.bandonbrewingco.com,2018-08-24T15:45:53.265Z,2018-07-24T01:34:04.740Z
5770,Common Block Brewing Company,contract,315 E 5th Street,,,Medford,Oregon,,97501,United States,-122.872489,42.3289615454545,5413262277,http://www.commonblockbrewing.com,2018-08-24T15:46:14.085Z,2018-07-24T01:34:05.517Z
5839,Leikam Brewing,micro,,,,,,,,United States,,,5032309636,http://www.leikambrewing.com,2018-07-24T01:34:06.437Z,2018-07-24T01:34:06.437Z
5868,McMenamins Old Church Brewery,brewpub,30340 SW Boones Ferry Rd,,,Wilsonville,Oregon,,97070-,United States,-122.772676461076,45.3007043,5034272505,http://www.mcmenamins.com/Wilsonville,2018-08-24T16:03:14.123Z,2018-07-24T01:34:06.819Z
5869,McMenamins Old St. Francis School,brewpub,700 NW Bond St,,,Bend,Oregon,,97703-2702,United States,-121.314499,44.0566885,5413825174,http://www.mcmenamins.com,2018-08-24T16:03:15.596Z,2018-07-24T01:34:06.834Z
5870,McMenamins on Monroe,brewpub,2001 NW Monroe Ave Ste 106,,,Corvallis,Oregon,,97330-5567,United States,,,5417580880,,2018-08-11T21:39:15.994Z,2018-07-24T01:34:06.847Z
5921,Rogue Ales Brewery,regional,2320 SE Osu Dr,,,Newport,Oregon,,97365-5261,United States,,,5032413800,http://rogue.com,2018-08-11T21:39:18.198Z,2018-07-24T01:34:07.545Z
5970,Vanport Brewing Company,planning,,,,Portland,Oregon,,97211-2907,United States,,,5032670219,,2018-08-11T21:39:20.562Z,2018-07-24T01:34:08.227Z
6035,Brasserie Reghaia,regional,Route Nationale 5,,,,,,,United States,,,771791,,2018-07-24T01:34:09.200Z,2018-07-24T01:34:09.200Z
6050,Brewery In Planning - Philadelphia,planning,,,,,,,,United States,,,,,2018-07-24T01:34:09.487Z,2018-07-24T01:34:09.487Z
6080,Copper Kettle Brewing Co,micro,557 Greenfield Ave,,,Pittsburgh,Pennsylvania,,15207-1093,United States,-79.9404082589853,40.426118665802,,,2018-08-24T16:07:46.643Z,2018-07-24T01:34:09.914Z
6123,Full Pint Brewing Company,micro,1963 Lincoln Hwy,,,North Versailles,Pennsylvania,,15137-2749,United States,-79.8261204,40.385971,4124676414,http://fullpintbrewing.com,2018-08-24T16:08:43.615Z,2018-07-24T01:34:10.588Z
6173,Lancaster Brewing Co,micro,302 N Plum St # 304,,,Lancaster,Pennsylvania,,17602-2402,United States,-76.2985330081352,40.0438635,7173916258,http://www.lancasterbrewing.com,2018-08-24T16:09:47.600Z,2018-07-24T01:34:11.256Z
6223,Olde Bedford Brewing Company,micro,109 Railroad St,,,Bedford,Pennsylvania,,15522-1014,United States,-78.5033435,40.021898,9072297942,http://www.oldebbc.com,2018-08-24T16:10:53.425Z,2018-07-24T01:34:11.919Z
6316,Triple Bottom Brewing Company,planning,,,,,,,,United States,,,6105375367,http://www.triplebottombrewing.com,2018-07-24T01:34:13.209Z,2018-07-24T01:34:13.209Z
6324,Union Barrel Works,brewpub,6 N Reamstown Rd,,,Stevens,Pennsylvania,,17578,United States,,,7173357837,,2018-08-11T21:39:32.957Z,2018-07-24T01:34:13.314Z
6400,Fireforge Crafted Beer,micro,,,,,,,,United States,,,,,2018-07-24T01:34:14.381Z,2018-07-24T01:34:14.381Z
6424,Old Mill Brewpub,brewpub,711 E Main St,,,Lexington,South Carolina,,29072-3670,United States,-81.2298014,33.9772343,8037852337,http://www.oldmillbrewpub.net,2018-08-24T16:14:59.400Z,2018-07-24T01:34:14.710Z
6475,Mt. Rushmore Brewing Company,brewpub,140 Mt Rushmore Rd,,,Custer,South Dakota,,57730-1829,United States,-103.605392,43.764722,,http://www.mtrushmorebrewing.com,2018-08-24T16:15:58.097Z,2018-07-24T01:34:15.450Z
6529,Gladiator Brewing Co.,planning,,,,Clarksville,Tennessee,,37040,United States,,,9137497035,,2018-08-11T21:39:42.223Z,2018-07-24T01:34:16.328Z
6579,Southern Grist Brewing Company,micro,1201 Porter Rd,,,Nashville,Tennessee,,37206-1733,United States,-86.729011,36.188838,6157271201,http://www.southerngristbrewing.com,2018-08-24T16:17:57.886Z,2018-07-24T01:34:17.047Z
6633,Barrow Brewing Company,micro,108 Royal St,,,Salado,Texas,,76571,United States,-97.5370313333333,30.9429598888889,2549473544,http://www.barrowbrewing.com,2018-08-24T16:18:59.830Z,2018-07-24T01:34:17.825Z
6676,Brewery In Planning- Houston,planning,,,,,,,,United States,,,8325490286,,2018-07-24T01:34:18.476Z,2018-07-24T01:34:18.476Z
6631,Barking Armadillo Brewing,planning,,,,Austin,Texas,,78723-3342,United States,,,,,2018-08-11T21:39:46.076Z,2018-07-24T01:34:17.797Z
6632,Barrel Assembly,planning,,,,Austin,Texas,,78751-3019,United States,,,15124236579,http://www.barrelassembly.com,2018-08-11T21:39:46.107Z,2018-07-24T01:34:17.810Z
6651,"Bnaf, LLC",planning,,,,Austin,Texas,,78727-7602,United States,,,,,2018-08-11T21:39:46.729Z,2018-07-24T01:34:18.121Z
6719,Ember Brewing Company,planning,,,,,,,,United States,,,8177291007,http://emberbrewingcompany.com,2018-07-24T01:34:19.047Z,2018-07-24T01:34:19.047Z
6740,Frisky Brewing Company,planning,,,,Odessa,Texas,,79765,United States,,,,http://www.friskybrewing.com,2018-08-11T21:39:49.675Z,2018-07-24T01:34:19.336Z
6788,Lakewood Brewing Co,micro,2302 Executive Dr,,,Garland,Texas,,75041-6121,United States,-96.6813725967853,32.8884228477965,9728642337,http://www.lakewoodbrewing.com,2018-08-24T16:21:34.212Z,2018-07-24T01:34:20.037Z
6840,Pinthouse Pizza Round Rock,planning,,,,Round Rock,Texas,,78681,United States,,,,,2018-08-11T21:39:53.189Z,2018-07-24T01:34:20.753Z
6843,Pondaseta Brewing Co.,planning,,,,Amarillo,Texas,,79119,United States,,,,http://www.pondaseta.com,2018-08-11T21:39:53.282Z,2018-07-24T01:34:20.794Z
6891,Steam Theory Brewing Co,planning,,,,Dallas,Texas,,75212-4101,United States,,,,http://www.steamtheorybrewing.com,2018-08-11T21:39:54.926Z,2018-07-24T01:34:21.479Z
6942,Vector Brewing,planning,,,,,,,,United States,,,,http://www.vectorbrewing.com,2018-07-24T01:34:22.145Z,2018-07-24T01:34:22.145Z
6978,Ogden River Brewing,planning,,,,,,,,United States,,,,,2018-07-24T01:34:22.636Z,2018-07-24T01:34:22.636Z
6993,Strap Tank Brewing Co.,brewpub,569 S 1750 W,,,Springville,Utah,,84663-3088,United States,,,,,2018-08-11T21:39:58.087Z,2018-07-24T01:34:22.838Z
7060,Upper Pass Beer Co,micro,,,,,,,,United States,,,9732228076,http://www.upperpassbeer.com,2018-07-24T01:34:23.772Z,2018-07-24T01:34:23.772Z
7047,"Outer Limits Brewing, LLC",planning,,,,Proctorsville,Vermont,,05153-9518,United States,,,2072057076,,2018-08-11T21:40:00.312Z,2018-07-24T01:34:23.601Z
7094,Beale's,brewpub,510 Grove St,,,Bedford,Virginia,,24523,United States,-79.51785,37.33585,,http://www.bealesbeer.com,2018-08-24T16:27:23.383Z,2018-07-24T01:34:24.336Z
7119,"Brewery In Planning - Gordonsville, VA",planning,,,,,,,,United States,,,5403530183,,2018-07-24T01:34:24.679Z,2018-07-24T01:34:24.679Z
7165,Folsom's Brewing Company,planning,,,,,,,,United States,,,,,2018-07-24T01:34:25.309Z,2018-07-24T01:34:25.309Z
7154,Dragon Run Brewing,planning,,,,Manquin,Virginia,,23106,United States,,,8043800730,http://www.dragonrunbrewing.com,2018-08-11T21:40:04.841Z,2018-07-24T01:34:25.153Z
7196,Jack's Run Brewing Co,micro,108 North 21st Street,,,Purcellville,Virginia,,20132,United States,-77.7149118539252,39.13704895,5404413382,http://www.jacksrunbrewing.com,2018-08-24T16:29:14.790Z,2018-07-24T01:34:25.762Z
7246,Quattro Goombas Brewery,brewpub,22860 James Monroe Hwy,,,Aldie,Virginia,,20105-1916,United States,,,7035091332,http://www.goombabrewery.com,2018-08-11T21:40:08.270Z,2018-07-24T01:34:26.464Z
7295,Three Notch'd Brewing Company,micro,520 2nd St SE,,,Charlottesville,Virginia,,22902-5794,United States,-78.4820248,38.0261159,,,2018-08-24T16:31:18.943Z,2018-07-24T01:34:27.182Z
7374,Bottle Bay Brewing,proprietor,,,,,,,,United States,,,5097239267,http://www.bottlebaybrewing.com,2018-07-24T01:34:28.447Z,2018-07-24T01:34:28.447Z
7400,Cheeky Monkey Brewery and Cidery,brewpub,4259 Caves Rd,,,,,,,United States,,,61897555555,http://www.cheekymonkeybrewery.com.au,2018-07-24T01:34:28.859Z,2018-07-24T01:34:28.859Z
7455,Feral Brewing Company,micro,152 Haddrill Rd,,,,,,,United States,,,61892964657,,2018-07-24T01:34:29.640Z,2018-07-24T01:34:29.640Z
7447,English Setter Brewing Company,brewpub,15310 E Marietta Ave Ste 4,,,Spokane,Washington,,99216-1876,United States,,,5094133663,http://www.englishsetterbrewing.com,2018-08-11T21:40:15.554Z,2018-07-24T01:34:29.526Z
7448,Enso Brewing Company,micro,,,,Vashon,Washington,,98070,United States,,,,,2018-08-11T21:40:15.585Z,2018-07-24T01:34:29.542Z
7538,Lost Woods Brewery,micro,,,,,,,,United States,,,2536784438,,2018-07-24T01:34:30.882Z,2018-07-24T01:34:30.882Z
7497,Headworks Brewing,planning,,,,Enumclaw,Washington,,98022-3525,United States,,,,http://www.headworksbrewing.com,2018-08-11T21:40:17.511Z,2018-07-24T01:34:30.289Z
7581,Northbridge Brewing Co,micro,44 Lake St,,,,,,,United States,,,61861516481,http://www.northbridgebrewingco.com.au,2018-07-24T01:34:31.544Z,2018-07-24T01:34:31.544Z
7601,O-Town Brewing Company,micro,,,,,,,,United States,,,3607014706,http://www.o-townbrewing.com,2018-07-24T01:34:31.831Z,2018-07-24T01:34:31.831Z
7657,Schooner Exact Brewing Co,micro,3901 1st Ave S,,,Seattle,Washington,,98134-2236,United States,-122.3354879,47.5678008,2064329734,,2018-08-24T16:39:07.161Z,2018-07-24T01:34:32.683Z
7695,The Byte Brewing Co.,planning,,,,,,,,United States,,,3607180348,http://www.ByteBrewing.com,2018-07-24T01:34:33.193Z,2018-07-24T01:34:33.193Z
7747,Yakima Valley Hops,micro,702 N 1st Ave Ste D,,,Yakima,Washington,,98902-2121,United States,,,2086494677,,2018-08-11T21:40:28.514Z,2018-07-24T01:34:33.914Z
7804,Brewery In Planning - Delavan,planning,,,,,,,,United States,,,,,2018-07-24T01:34:34.708Z,2018-07-24T01:34:34.708Z
7856,Gray Brewing Co,micro,2424 W Court St,,,Janesville,Wisconsin,,53548,United States,-89.0497268926174,42.6793079395973,6087565430,,2018-08-24T16:43:19.671Z,2018-07-24T01:34:35.419Z
7854,Good City Brewing Company,planning,,,,,,,,United States,,,,,2018-07-24T01:34:35.395Z,2018-07-24T01:34:35.395Z
7907,Old Abe Brewing,contract,,,,,,,,United States,,,,,2018-07-24T01:34:36.084Z,2018-07-24T01:34:36.084Z
7980,Untitled Art Beer,contract,,,,,,,,United States,,,,,2018-07-24T01:34:37.072Z,2018-07-24T01:34:37.072Z
7968,The Fermentorium,brewpub,7481 Hwy 60,,,Cedarburg,Wisconsin,,53012-9702,United States,,,,,2018-08-11T21:40:36.989Z,2018-07-24T01:34:36.873Z
1,5 Rivers Brewing LLC,planning,,,,Spanish Fort,Alabama,,36527-3161,United States,-87.9152724,30.6749127,2516897483,http://5riversbrewing.com,2018-08-23T23:19:56.771Z,2018-07-24T01:32:47.240Z
3,Back Forty Beer Co,micro,200 N 6th St,,,Gadsden,Alabama,,35901-3361,United States,-86.005006,34.016888,2564674912,http://www.backfortybeer.com,2018-08-23T23:19:58.654Z,2018-07-24T01:32:47.268Z
5,Below the Radar Brewing Co,brewpub,220 Holmes Ave NE,,,Huntsville,Alabama,,35801-4837,United States,-86.5858393061225,34.7327236530612,2564696617,http://www.btrbrew.com,2018-08-23T23:20:00.300Z,2018-07-24T01:32:47.293Z
6,Big Beach Brewing Company,micro,300 E 24th Ave,,,Gulf Shores,Alabama,,36542-3104,United States,-87.683039,30.278051,2519482337,http://www.bigbeachbrewing.com,2018-08-23T23:20:01.170Z,2018-07-24T01:32:47.305Z
9,Blue Pants Brewery,micro,"500 Lanier Rd, Bld 1 - Ste A",,,Madison,Alabama,,35758-8675,United States,,,2566796330,http://www.bluepantsbrew.com,2018-08-11T21:35:43.498Z,2018-07-24T01:32:47.341Z
13,Cahaba Brewing Co,micro,4500 5th Ave S Ste C,,,Birmingham,Alabama,,35222-2911,United States,,,2059669444,http://www.cahababrewing.com,2018-08-11T21:35:43.648Z,2018-07-24T01:32:47.400Z
15,Chattahoochee Brewing Co,micro,505 13th St Ste A,,,Phenix City,Alabama,,36867-5128,United States,,,3345590663,http://www.beerontheriver.com,2018-08-11T21:35:43.723Z,2018-07-24T01:32:47.426Z
17,"Common Bond Brewers, LLC",micro,424 Bibb Street Suite 150,,,Montgomery,Alabama,,36104,United States,,,3346762292,http://www.commonbondbrewers.com,2018-08-11T21:35:43.787Z,2018-07-24T01:32:47.451Z
22,Folklore Brewing,micro,153 Mary Lou Ln,,,Dothan,Alabama,,36301-9521,United States,,,3347022337,http://www.folklorebrewing.com,2018-08-11T21:35:43.941Z,2018-07-24T01:32:47.512Z
24,Goat Island Brewing,micro,1646 A John H Cooper Drive,,,Cullman,Alabama,,35055,United States,,,2565909081,http://www.goatislandbrewing.com,2018-08-11T21:35:43.999Z,2018-07-24T01:32:47.539Z
34,Red Hills Brewing Co,micro,2823 Central Ave Ste 107,,,Birmingham,Alabama,,35209-2581,United States,,,2055822897,http://www.redhillsbrew.com,2018-08-11T21:35:44.279Z,2018-07-24T01:32:47.675Z
7,Birmingham District Brewing,planning,,,,Birmingham,Alabama,,35242-5651,United States,-86.8024326,33.5206824,6019380486,,2018-08-23T23:20:01.613Z,2018-07-24T01:32:47.318Z
8,Black Warrior Brewing Co.,micro,2216 University Blvd,,,Tuscaloosa,Alabama,,35401-1542,United States,-87.565915,33.2106175454545,,http://www.blackwarriorbrewing.com,2018-08-23T23:20:02.508Z,2018-07-24T01:32:47.329Z
10,Bluewater Brewing Co,micro,318 S Royal Ave,,,Florence,Alabama,,35630-4810,United States,-87.6597052887684,34.8041295,2562751221,http://www.facebook.com/pg/BluewaterBrewingCompanyInc,2018-08-23T23:20:04.204Z,2018-07-24T01:32:47.353Z
11,Brewery in Planning - Mobile,planning,,,,Mobile,Alabama,,36606-1415,United States,-88.0430541,30.6943566,,,2018-08-23T23:20:04.603Z,2018-07-24T01:32:47.369Z
12,Brewpub In Planning - Birmingham,planning,,,,Birmingham,Alabama,,35222,United States,-86.8024326,33.5206824,2565854531,,2018-08-23T23:20:05.060Z,2018-07-24T01:32:47.386Z
14,Chandler's Ford Brewing LLC,planning,,,,Huntsville,Alabama,,35802,United States,-86.5859011,34.729847,2564576999,http://chandlersfordbrewing.com,2018-08-23T23:20:06.898Z,2018-07-24T01:32:47.414Z
16,Cheaha Brewing Co,brewpub,1208 Walnut Ave,,,Anniston,Alabama,,36201-4526,United States,-85.8337740514949,33.6601671,2567707300,http://www.cheahabrewingcompany.com,2018-08-23T23:20:08.838Z,2018-07-24T01:32:47.439Z
18,Cross-Eyed Owl Brewing Co.,micro,105 1st Ave NE,,,Decatur,Alabama,,35601-2301,United States,-86.9866330204082,34.6041206530612,2564310931,http://www.xeobrewing.com,2018-08-23T23:20:10.679Z,2018-07-24T01:32:47.462Z
19,Druid City Brewing,micro,607 14th St,,,Tuscaloosa,Alabama,,35401-3439,United States,-87.5437361470987,33.1999747350306,2058868140,http://www.druidcitybrewing.com,2018-08-23T23:20:11.558Z,2018-07-24T01:32:47.474Z
20,Fairhope Brewing Co,micro,914 Nichols Ave,,,Fairhope,Alabama,,36532-3684,United States,-87.898282,30.516291,2512797517,,2018-08-23T23:20:12.518Z,2018-07-24T01:32:47.485Z
21,Ferus Artisan Ales,planning,,,,Trussville,Alabama,,35173-1480,United States,-86.6084342,33.6196266,2053680240,,2018-08-23T23:20:12.957Z,2018-07-24T01:32:47.497Z
23,Ghost Train Brewing Co,micro,2616 3rd Ave S,,,Birmingham,Alabama,,35233-2619,United States,-86.7940615102041,33.5141593469388,2053702487,http://www.ghosttrainbrewing.com,2018-08-23T23:20:14.678Z,2018-07-24T01:32:47.526Z
25,Good People Brewing Co,micro,114 14th St S,,,Birmingham,Alabama,,35233-1415,United States,-86.8121799456595,33.5075946077931,6154984165,http://www.goodpeoplebrewing.com,2018-08-23T23:20:16.507Z,2018-07-24T01:32:47.552Z
27,Haint Blue Brewing Company,contract,806 Monroe Street,,,Mobile,Alabama,,36602,United States,-88.051261838738,30.6847432069419,,http://haintbluebrew.com,2018-08-23T23:20:18.151Z,2018-07-24T01:32:47.577Z
28,InnerSpace Brewing Company,micro,2414 Clinton Ave W,,,Huntsville,Alabama,,35805-3014,United States,-86.5932014,34.7277523,2564895599,http://www.innerspacebrewing.com,2018-08-23T23:20:19.029Z,2018-07-24T01:32:47.589Z
29,Mad Malts Brewery & Tap Room,micro,109 Maple Ave NW,,,Huntsville,Alabama,,35801-4634,United States,-86.585242,34.746475,2564243543,http://www.madmaltsbrewing.com,2018-08-23T23:20:19.899Z,2018-07-24T01:32:47.601Z
30,Main Channel Brewing Company,micro,2090 Gunter Ave,,,Guntersville,Alabama,,35976-2113,United States,-86.3121603492064,34.3387368412698,2569605070,http://www.mainchannelbeer.com,2018-08-23T23:20:20.700Z,2018-07-24T01:32:47.615Z
31,Old Black Bear Brewing,micro,208 Main St,,,Madison,Alabama,,35758-1813,United States,-86.7492240909091,34.6932934545455,2568504639,,2018-08-23T23:20:21.567Z,2018-07-24T01:32:47.633Z
32,Old Majestic Brewing Company,planning,,,,Mobile,Alabama,,36602-2404,United States,-88.0430541,30.6943566,2514347387,,2018-08-23T23:20:21.979Z,2018-07-24T01:32:47.646Z
33,Red Clay Brewing Company,micro,704 N Railroad Ave,,,Opelika,Alabama,,36801-4344,United States,-85.3787541825702,32.6493954206225,3347375409,http://www.redclaybrewingcompany.com,2018-08-23T23:20:22.832Z,2018-07-24T01:32:47.660Z
35,Rocket Republic Brewing Company,micro,289 Production Ave,,,Madison,Alabama,,35758-8991,United States,-86.7740173304273,34.6728014,2563254677,http://www.rocketrepublicbrewing.com,2018-08-23T23:20:24.482Z,2018-07-24T01:32:47.693Z
36,Salty Nut Brewery,micro,2406 Clinton Ave W,,,Huntsville,Alabama,,35805-3014,United States,-86.5932014,34.7277523,2567138877,http://www.saltynutbrewery.com,2018-08-23T23:20:25.319Z,2018-07-24T01:32:47.707Z
37,Sand Mtn brewery,planning,,,,Section,Alabama,,35771,United States,-85.986644,34.5789747,2564180658,http://Www.sandmtnbrewery.com,2018-08-23T23:20:25.741Z,2018-07-24T01:32:47.721Z
38,Serda Brewing Company,micro,600 Government St,,,Mobile,Alabama,,36602-1720,United States,-88.0493871301972,30.6879563,2519299349,http://www.serdabrewing.com,2018-08-23T23:20:26.545Z,2018-07-24T01:32:47.735Z
39,Siluria Brewing Company,planning,,,,Alabaster,Alabama,,35007-8501,United States,-86.8163773,33.2442813,2054827661,http://www.siluriabrewing.com,2018-08-23T23:20:26.994Z,2018-07-24T01:32:47.749Z
40,"Singin' River Brewing Company, LLC",micro,526 E College St,,,Florence,Alabama,,35630-5764,United States,-87.668929940884,34.8016657,2567600000,http://www.singinriverbrewing.com,2018-08-23T23:20:27.838Z,2018-07-24T01:32:47.762Z
41,Straight to Ale,micro,2610 Clinton Ave W,,,Huntsville,Alabama,,35805-3046,United States,-86.5932014,34.7277523,2566039096,http://www.straighttoale.com,2018-08-23T23:20:28.760Z,2018-07-24T01:32:47.775Z
42,Tallulah Brewing Company,micro,1804 4th Ave S,,,Jasper,Alabama,,35501-5330,United States,-87.278675,33.830796,2055308555,,2018-08-23T23:20:29.640Z,2018-07-24T01:32:47.788Z
45,Twisted Barley Brewing Company,micro,520 19th St W,,,Jasper,Alabama,,35501-5351,United States,-87.28338,33.832359,2052653253,,2018-08-23T23:20:32.254Z,2018-07-24T01:32:47.826Z
47,49th State Brewing Co,brewpub,248 Parks Hwy 5 Mile,,,Healy,Alaska,,99743,United States,,,,,2018-08-11T21:35:44.679Z,2018-07-24T01:32:47.858Z
51,Arkose Brewery,micro,650 E Steel Loop,,,Palmer,Alaska,,99645-6689,United States,,,9077462337,http://www.arkosebrewery.com,2018-08-11T21:35:44.816Z,2018-07-24T01:32:47.911Z
53,Baranof Island Brewing Co,micro,1209 Sawmill Creek Rd Ste A,,,Sitka,Alaska,,99835-9759,United States,,,9077472739,http://www.baranofislandbrewing.com,2018-08-11T21:35:44.879Z,2018-07-24T01:32:47.938Z
59,Cynosure Brewing,micro,144 E Potter Dr Unit E,,,Anchorage,Alaska,,99518-1363,United States,,,9075632966,,2018-08-11T21:35:45.165Z,2018-07-24T01:32:48.054Z
60,Denali Brewing Company,micro,37083 Talkeetna Spur Rd,,,Talkeetna,Alaska,,99676,United States,,,9077332536,http://www.denalibrewing.com,2018-08-11T21:35:45.194Z,2018-07-24T01:32:48.068Z
63,Gakona Brewing Company,micro,Mile 0.5 Tok Cutoff Hwy,,,Gakona,Alaska,,99586-0336,United States,,,,,2018-08-11T21:35:45.288Z,2018-07-24T01:32:48.121Z
65,Glacier Brewhouse,brewpub,737 W 5th Ave Ste 110,,,Anchorage,Alaska,,99501-2129,United States,,,9072742739,http://www.glacierbrewhouse.com,2018-08-11T21:35:45.348Z,2018-07-24T01:32:48.152Z
66,"Grace Ridge Brewing, Inc.",micro,3388 B St Suite 2,,,Homer,Alaska,,99603-7905,United States,,,,,2018-08-11T21:35:45.387Z,2018-07-24T01:32:48.168Z
69,Homer Brewing Co,micro,1411 Lake Shore Dr,,,Homer,Alaska,,99603-7945,United States,,,,,2018-08-11T21:35:45.514Z,2018-07-24T01:32:48.209Z
74,Kassik's Brewery,micro,47160 Spruce Haven St,,,Kenai,Alaska,,99611-9677,United States,,,,,2018-08-11T21:35:45.692Z,2018-07-24T01:32:48.272Z
82,Odd Man Rush,micro,10930 Mausel St Ste A1,,,Eagle River,Alaska,,99577-8095,United States,,,9076962337,http://www.oddmanrushbrewing.com,2018-08-11T21:35:45.962Z,2018-07-24T01:32:48.376Z
86,RoughWoods Inn,brewpub,623 North A St,,,Nenana,Alaska,,99760-9999,United States,,,9078325299,http://www.roughwoodsinn.biz,2018-08-11T21:35:46.096Z,2018-07-24T01:32:48.439Z
87,Seward Brewing,brewpub,139 4th Ave,,,Seward,Alaska,,99664,United States,,,9074220337,http://www.sewardbrewingcompany.com,2018-08-11T21:35:46.137Z,2018-07-24T01:32:48.453Z
89,Skagway Brewing Co,brewpub,641 Broadway St Ste 946,,,Skagway,Alaska,,99840-9800,United States,,,9079832759,http://www.skagwaybrewing.com,2018-08-11T21:35:46.203Z,2018-07-24T01:32:48.483Z
92,12 West Brewing Company,micro,3000 E Ray Rd Bldg 6,,,Gilbert,Arizona,,85296-7832,United States,,,6023395014,http://www.12westbrewing.com,2018-08-11T21:35:46.300Z,2018-07-24T01:32:48.548Z
48,49th State Brewing Co - Anchorage,brewpub,717 W 3rd Ave,,,Anchorage,Alaska,,99501-2104,United States,-149.895819630259,61.2197366,9076832739,http://www.49statebrewing.com/,2018-08-23T23:20:34.898Z,2018-07-24T01:32:47.871Z
49,Alaskan Brewing Co.,regional,5429 Shaune Dr,,,Juneau,Alaska,,99801-9540,United States,-134.491876286925,58.3568123068526,9077805866,http://www.alaskanbeer.com,2018-08-23T23:20:35.752Z,2018-07-24T01:32:47.883Z
50,Anchorage Brewing Co,micro,148 W 91st Ave,,,Anchorage,Alaska,,99515-1901,United States,-149.8893581,61.1385311,9073605104,http://www.anchoragebrewingcompany.com,2018-08-23T23:20:36.630Z,2018-07-24T01:32:47.898Z
57,Broken Tooth Brewing Co,brewpub,2021 Spar Ave,,,Anchorage,Alaska,,99501-1815,United States,-149.843763795249,61.2225517048454,9072784999,,2018-08-23T23:20:42.576Z,2018-07-24T01:32:47.992Z
58,"Cooper Landing Brewing Company, LLC.",micro,,,,Cooper Landing,Alaska,,99572,United States,-149.847849500835,60.4952185,9072236101,http://www.cooperlandingbrewing.com,2018-08-23T23:20:42.968Z,2018-07-24T01:32:48.040Z
61,Devil's Club Brewing,brewpub,100 N Franklin St,,,Juneau,Alaska,,99801-1223,United States,-134.406956,58.301309,9077232337,http://www.devilsclubbrewing.com,2018-08-23T23:20:45.517Z,2018-07-24T01:32:48.086Z
62,Faults Brewing,planning,,,,Anchorage,Alaska,,99509-0312,United States,-149.8948523,61.2163129,9073019922,,2018-08-23T23:20:45.951Z,2018-07-24T01:32:48.105Z
64,Girdwood Brewing Company,micro,2700 Alyeska Highway,,,Girdwood,Alaska,,99587-0058,United States,-149.1540907,60.9578421,907783,http://www.girdwoodbrewing.com,2018-08-23T23:20:47.669Z,2018-07-24T01:32:48.135Z
67,Growler Bay Brewing Co,planning,,,,Valdez,Alaska,,99686-3716,United States,-146.3493638,61.1299396,9072555191,,2018-08-23T23:20:49.912Z,2018-07-24T01:32:48.182Z
68,Haines Brewing Co,micro,327 Main St,,,Haines,Alaska,,99827,United States,-135.4551927,59.2357624,9077663823,http://www.hainesbrewing.com,2018-08-23T23:20:50.755Z,2018-07-24T01:32:48.196Z
70,HooDoo Brewing Co,micro,1951 Fox Ave,,,Fairbanks,Alaska,,99701-2701,United States,-147.759819939718,64.8485550111944,9074592337,http://www.hoodoobrew.com,2018-08-23T23:20:52.424Z,2018-07-24T01:32:48.221Z
71,Humpy's Great Alaskan Alehouse,contract,610 W 6th Ave,,,Anchorage,Alaska,,99501-2225,United States,-149.893892836775,61.2165020023101,9072762337,http://www.humpysalaska.com,2018-08-23T23:20:53.300Z,2018-07-24T01:32:48.234Z
72,Icy Strait Brewery,micro,286 Front St,,,Hoonah,Alaska,,99829,United States,-135.446488673469,58.110318744898,9079576260,,2018-08-23T23:20:54.191Z,2018-07-24T01:32:48.248Z
73,"Inside Passage Brewing Company, LLC",planning,,,,Ketchikan,Alaska,,99901-6502,United States,-131.6466819,55.3430696,5133240762,,2018-08-23T23:20:54.588Z,2018-07-24T01:32:48.261Z
75,Kenai River Brewing Co,brewpub,308 Homestead Ln,,,Soldotna,Alaska,,99669-8010,United States,-151.0561141,60.4850753,9072622337,http://www.kenairiverbrewing.com,2018-08-23T23:20:56.247Z,2018-07-24T01:32:48.287Z
77,Klondike Brewing Company,brewpub,365 2nd Ave,,,Skagway,Alaska,,99840,United States,-135.318872070707,59.4538574343434,9079832778,http://www.klondikebeer.com,2018-08-23T23:20:58.035Z,2018-07-24T01:32:48.315Z
78,"Kodiak Island Brewing Co, LLC",micro,117 Lower Mill Bay Rd,,,Kodiak,Alaska,,99615-6580,United States,-152.40715497121,57.7900825595856,9074862537,http://www.kodiakbrewery.com,2018-08-23T23:20:58.860Z,2018-07-24T01:32:48.329Z
79,Last Frontier Brewing Company,brewpub,238 N Boundary St,,,Wasilla,Alaska,,99654-7127,United States,-149.439553425176,61.5814829990806,9073577200,,2018-08-23T23:20:59.705Z,2018-07-24T01:32:48.342Z
80,Midnight Sun Brewing Co,micro,8111 Dimond Hook Dr,,,Anchorage,Alaska,,99507-3144,United States,-149.8445465,61.1471249,9073441179,http://www.midnightsunbrewing.com,2018-08-23T23:21:00.537Z,2018-07-24T01:32:48.354Z
81,Midnite Mine Brewpub,planning,,,,Fairbanks,Alaska,,99701-4838,United States,-147.716675,64.837845,9073784067,,2018-08-23T23:21:00.948Z,2018-07-24T01:32:48.365Z
84,Resolution Brewing Company,brewpub,3024 Mountain View Dr Ste 105,,,Anchorage,Alaska,,99501-3141,United States,-149.823091047009,61.2199788932932,9073304523,http://www.resolutionbeer.com,2018-08-23T23:21:03.575Z,2018-07-24T01:32:48.407Z
85,"Resolution Brewing Compnay, LLC",micro,3024 Mountain View Drive,,,Anchorage,Alaska,,99501,United States,-149.823091047009,61.2199788932932,9077485297,http://www.resolutionbeer.com,2018-08-23T23:21:04.418Z,2018-07-24T01:32:48.424Z
88,Silver Gulch Brewing Co,micro,2195 Old Steese Highway,,,Fox,Alaska,,99712,United States,-147.62197608655,64.9570858831622,9074522739,http://www.silvergulch.com,2018-08-23T23:21:07.021Z,2018-07-24T01:32:48.467Z
90,St Elias Brewing Co,micro,434 Sharkathmi Ave,,,Soldotna,Alaska,,99669-7665,United States,-151.047229286693,60.4914867311424,9072607837,,2018-08-23T23:21:08.664Z,2018-07-24T01:32:48.497Z
91,Turnagain Brewing,planning,,,,Anchorage,Alaska,,99507-1226,United States,-149.8948523,61.2163129,9073011657,,2018-08-23T23:21:09.084Z,2018-07-24T01:32:48.511Z
93,12 West Brewing Company - Production Facility,micro,,,,Mesa,Arizona,,85207,United States,-111.586066176293,33.436188,,,2018-08-23T23:21:09.992Z,2018-07-24T01:32:48.563Z
95,8-Bit Aleworks,micro,1050 N Fairway Dr Bldg F Ste 10,,,Avondale,Arizona,,85323-5206,United States,,,6239251650,http://www.8-bitaleworks.com,2018-08-11T21:35:46.401Z,2018-07-24T01:32:48.596Z
96,Arizona Craft Brewing,micro,"473 Elgin Road, Suite BH",,,Elgin,Arizona,,85611,United States,,,520369342,,2018-08-11T21:35:46.428Z,2018-07-24T01:32:48.610Z
97,Arizona Wilderness Brewing,brewpub,721 N Arizona Ave,,,Gilbert,Arizona,,85233-3405,United States,,,4804972739,http://Azwbeer.com,2018-08-11T21:35:46.458Z,2018-07-24T01:32:48.623Z
100,Barnstar Brewing,micro,4050 North Tonto Road (Forest Service Rd.102),,,Skull Valley,Arizona,,86338,United States,,,9284422337,http://www.barnstarbrew.com,2018-08-11T21:35:46.552Z,2018-07-24T01:32:48.663Z
102,Beaver Street Brewery,brewpub,11 S Beaver St Ste 1,,,Flagstaff,Arizona,,86001-5500,United States,,,9287790079,http://www.beaverstreetbrewery.com,2018-08-11T21:35:46.628Z,2018-07-24T01:32:48.689Z
103,"Beer Research Institute, The",brewpub,1641 S Stateley Dr Ste 104,,,Mesa,Arizona,,85204,United States,,,4808922020,http://www.bri.beer,2018-08-11T21:35:46.659Z,2018-07-24T01:32:48.701Z
106,Black Horse Brewery,micro,1058 Burton Rd,,,Show Low,Arizona,,85901-3924,United States,,,9285379349,http://www.blackhorsebrewery.us,2018-08-11T21:35:46.753Z,2018-07-24T01:32:48.744Z
108,Blasted Barley Beer Company,brewpub,404 S Mill Ave Ste 101,,,Tempe,Arizona,,85281-2879,United States,,,4809675887,http://www.blastedbarley.com,2018-08-11T21:35:46.813Z,2018-07-24T01:32:48.774Z
112,"Button Brew House, LLC",micro,6800 N Camino Martin Ste 160,,,Tucson,Arizona,,85741-2395,United States,,,5202688543,http://www.button.beer,2018-08-11T21:35:46.951Z,2018-07-24T01:32:48.824Z
113,Catalina Brewing Company,micro,6918 N Camino Martin,,,Tucson,Arizona,,85741-2281,United States,,,5203293622,http://www.catalinabrewingco.com/,2018-08-11T21:35:46.985Z,2018-07-24T01:32:48.835Z
115,Copper Brothel Brewery,micro,3112 Hwy 83,,,Sonoita,Arizona,,85637,United States,,,5204056721,http://www.copperbrothelbrewery.com,2018-08-11T21:35:47.049Z,2018-07-24T01:32:48.860Z
117,Copper Mine Brewing Co,micro,3455 S Palo Verde Rd STE 135,,,Tucson,Arizona,,85713,United States,,,5203336140,http://www.copperminebrewing.com,2018-08-11T21:35:47.093Z,2018-07-24T01:32:48.886Z
122,Dark Sky Brewing Co.,micro,117 N Beaver St Ste A,,,Flagstaff,Arizona,,86001-5677,United States,,,9282354525,http://www.darkskybrewing.com,2018-08-11T21:35:47.238Z,2018-07-24T01:32:48.964Z
128,Dubina Brewing Co.,brewpub,17035 N 67th Ave Ste 6,,,Glendale,Arizona,,85308-3655,United States,,,6234127770,http://www.dubinabrewing.com,2018-08-11T21:35:47.442Z,2018-07-24T01:32:49.054Z
134,Four Peaks Brewing Co,large,1340 E 8th St Ste 104,,,Tempe,Arizona,,85281-4396,United States,,,4803039967,http://www.fourpeaks.com,2018-08-11T21:35:47.685Z,2018-07-24T01:32:49.158Z
135,Freak'N Brewing Company,micro,9299 W Olive Ave Ste 513,,,Peoria,Arizona,,85345-8385,United States,,,6237385804,http://www.freaknbrew.com,2018-08-11T21:35:47.718Z,2018-07-24T01:32:49.172Z
137,Good Bad Ugly Brewing Co. @ Tavern+Bowl Westgate,brewpub,6770 N Sunrise Blvd Ste G100,,,Glendale,Arizona,,85305-3224,United States,,,9282088376,http://www.tavernbowlwestgate.com,2018-08-11T21:35:47.786Z,2018-07-24T01:32:49.200Z
139,Gordon Biersch Brewery Restaurant - Tempe,brewpub,420 S Mill Ave Ste 201,,,Tempe,Arizona,,85281-2870,United States,,,4807360033,http://www.craftworksrestaurants.com,2018-08-11T21:35:47.880Z,2018-07-24T01:32:49.226Z
140,Grand Canyon Brewing,brewpub,301 N 7th St Ste 101,,,Williams,Arizona,,86046,United States,,,,,2018-08-11T21:35:47.924Z,2018-07-24T01:32:49.238Z
99,Barley Brothers Brewery,brewpub,1425 McCulloch Blvd N,,,Lake Havasu City,Arizona,,86403-6597,United States,-114.3206399,34.4770677,9285057837,http://www.barleybrothers.com,2018-08-23T23:21:16.167Z,2018-07-24T01:32:48.650Z
101,Barrio Brewing Co,micro,800 E 16th St,,,Tucson,Arizona,,85719-6603,United States,-110.959665,32.214613,5207912739,http://www.barriobrewing.co,2018-08-23T23:21:18.433Z,2018-07-24T01:32:48.676Z
105,Black Bridge Brewery,micro,421 E Beale St,,,Kingman,Arizona,,86401-5833,United States,-114.051737005448,35.1895876968531,9283773618,http://www.blackbridgebrewery.com,2018-08-23T23:21:22.085Z,2018-07-24T01:32:48.730Z
110,Brewery in Planning - Sierra Vista,planning,,,,Sierra Vista,Arizona,,85635-8419,United States,-110.3036929,31.5545401,2625013053,,2018-08-23T23:21:26.012Z,2018-07-24T01:32:48.798Z
111,"Brewery in Planning - Yuma, AZ",planning,,,,Yuma,Arizona,,85364-8478,United States,-114.624397,32.7253249,9285020644,,2018-08-23T23:21:26.504Z,2018-07-24T01:32:48.811Z
114,College Street Brewhouse and Pub,micro,1940 College Dr,,,Lake Havasu City,Arizona,,86403-1981,United States,-114.347596097639,34.5075404422947,9288542739,,2018-08-23T23:21:29.516Z,2018-07-24T01:32:48.847Z
118,Coppertop Alehouse and Still Works,brewpub,220 S Montezuma St,,,Prescott,Arizona,,86303-4720,United States,-112.470303973229,34.5385194418589,9283517712,http://www.coppertopalehouse.com,2018-08-23T23:21:32.310Z,2018-07-24T01:32:48.902Z
119,Corbett Brewing Company,micro,309 E 7th St,,,Tucson,Arizona,,85705,United States,-110.966790000908,32.2263408526684,,,2018-08-23T23:21:33.286Z,2018-07-24T01:32:48.916Z
120,CRAFT 64,contract,6922 E Main St,,,Scottsdale,Arizona,,85251-4312,United States,-111.931927098678,33.4931529975966,4809460542,http://www.craft64.com,2018-08-23T23:21:34.232Z,2018-07-24T01:32:48.930Z
121,Crooked Tooth Brewing Co.,micro,228 E 6th St,,,Tucson,Arizona,,85705-8424,United States,-110.967733199346,32.2276230220053,5204445305,http://www.crookedtoothbrewing.com,2018-08-23T23:21:35.280Z,2018-07-24T01:32:48.948Z
123,Deep Roots Brewing,planning,,,,Phoenix,Arizona,,85007-3115,United States,-112.0773456,33.4485866,6023306790,http://www.deeprootsbrewing.com,2018-08-23T23:21:36.726Z,2018-07-24T01:32:48.978Z
124,Desert Eagle Brewing Company,micro,150 W Main St,,,Mesa,Arizona,,85201-7310,United States,-111.8568311,33.4148261,4806562662,http://www.deserteaglebrewing.com,2018-08-23T23:21:38.208Z,2018-07-24T01:32:48.994Z
125,Desert Monks Brewing Co.,planning,,,,Gilbert,Arizona,,85296-3480,United States,-111.7890239,33.3528259,4805257444,https://www.desertmonksbrewing.com/,2018-08-23T23:21:38.615Z,2018-07-24T01:32:49.010Z
126,Dillinger Brewing Company,micro,3895 N Oracle Rd,,,Tucson,Arizona,,85705-3228,United States,-110.9785303,32.2997436,5202072312,http://www.dillingerbrewing.com,2018-08-23T23:21:39.622Z,2018-07-24T01:32:49.024Z
129,Edge Of The World Brewery,micro,70 N Central St,,,Colorado City,Arizona,,86021-1524,United States,-112.9740725,36.9941047,9288758710,http://edgeoftheworld.bar,2018-08-23T23:21:42.484Z,2018-07-24T01:32:49.082Z
131,Flagstaff Brewing Co,brewpub,16 E Route 66,,,Flagstaff,Arizona,,86001-5792,United States,-111.523296,35.2109064,9287731442,http://www.flagbrew.com,2018-08-23T23:21:44.320Z,2018-07-24T01:32:49.113Z
132,Flying Basset Brewing,brewpub,720 W Ray Rd,,,Gilbert,Arizona,,85233,United States,-111.805438886076,33.3209814810127,4804261373,http://www.flyingbassetbrewing.com,2018-08-23T23:21:44.805Z,2018-07-24T01:32:49.126Z
133,Four Peaks Brewery & Taproom,large,2401 S Wilson St,,,Tempe,Arizona,,85282-2054,United States,-111.944654908083,33.402871377966,4803039967,http://www.fourpeaks.com,2018-08-23T23:21:45.718Z,2018-07-24T01:32:49.143Z
136,Goldwater Brewing Co,micro,3608 N Scottsdale Rd,,,Scottsdale,Arizona,,85251-5612,United States,-111.9254955,33.658427,4803507305,http://www.goldwaterbrewing.com,2018-08-23T23:21:48.585Z,2018-07-24T01:32:49.185Z
138,Gordon Biersch Brewery Restaurant - Glendale,brewpub,6915 N 95th Ave,,,Glendale,Arizona,,85305-2488,United States,-112.2638679,33.5050851,6238774300,http://www.craftworksrestaurants.com,2018-08-23T23:21:50.771Z,2018-07-24T01:32:49.213Z
144,Greenwood Brewing LLC,contract,600 N 4th St Apt 210,,,Phoenix,Arizona,,85004-4489,United States,,,4802089500,http://www.greenwoodbrews.com,2018-08-11T21:35:48.095Z,2018-07-24T01:32:49.290Z
147,Historic Brewing Company,micro,4366 E Huntington Dr Bldg 2,,,Flagstaff,Arizona,,86004-9400,United States,,,8554844677,http://www.historicbrewingcompany.com,2018-08-11T21:35:48.186Z,2018-07-24T01:32:49.329Z
149,Huss Brewing,micro,1520 W Mineral Rd Ste 102,,,Tempe,Arizona,,85283-4343,United States,,,4802647611,,2018-08-11T21:35:48.239Z,2018-07-24T01:32:49.356Z
150,Insurgent Brewing Co. LLC,micro,990 N State Route 89 Ste B,,,Chino Valley,Arizona,,86323-5139,United States,,,9289254773,http://www.insurgentbrewingco.com,2018-08-11T21:35:48.268Z,2018-07-24T01:32:49.370Z
151,Iron John's Brewing Company,micro,245 S Plumer Ave Ste 27,,,Tucson,Arizona,,85719-6348,United States,,,5202373448,http://www.ironjohnsbrewing.com,2018-08-11T21:35:48.307Z,2018-07-24T01:32:49.388Z
158,McFate's Tap + Barrel,brewpub,7337 E Shea Blvd Ste 105,,,Scottsdale,Arizona,,85260-6465,United States,,,4809941275,http://www.fatebrewing.com,2018-08-11T21:35:48.588Z,2018-07-24T01:32:49.483Z
159,Mesquite River Brewing,micro,"13610 N Scottsdale Rd, Suite 18",,,Scottsdale,Arizona,,85254-4037,United States,,,4806567696,http://www.mesquiteriverbrewing.com,2018-08-11T21:35:48.654Z,2018-07-24T01:32:49.495Z
161,Mother Road Brewery and Taproom,micro,1300 East Butler Ave Ste 200,,,Flagstaff,Arizona,,86001,United States,,,9287740492,http://www.motherroadbeer.com/butler-brewery,2018-08-11T21:35:48.720Z,2018-07-24T01:32:49.520Z
165,O.H.S.O. Brewery,brewpub,10810 N Tatum Blvd Ste 126,,,Phoenix,Arizona,,85028-6057,United States,,,6029009003,http://www.ohsobrewery.com,2018-08-11T21:35:48.834Z,2018-07-24T01:32:49.571Z
168,Oak Creek Brewery & Grill,brewpub,336 State Route 179 Ste D201,,,Sedona,Arizona,,86336-6183,United States,,,9282823300,,2018-08-11T21:35:48.925Z,2018-07-24T01:32:49.613Z
169,Oak Creek Brewing Co,brewpub,2050 Yavapai Dr Ste 2C,,,Sedona,Arizona,,86336-4559,United States,,,9282039441,http://www.oakcreekbrew.com,2018-08-11T21:35:48.956Z,2018-07-24T01:32:49.625Z
174,Peoria Artisan Brewery,brewpub,10144 W. Lake Pleasant Parkway Suite 1130,,,Peoria,Arizona,,85382,United States,,,6236959357,http://www.peoriaartisanbrewing.com,2018-08-11T21:35:49.128Z,2018-07-24T01:32:49.693Z
175,Peoria Artisan Brewery,brewpub,10144 W Lake Pleasant Pkwy Ste 1130,,,Peoria,Arizona,,85382-9716,United States,,,6235364804,http://www.peoriaartisanbrewing.com,2018-08-11T21:35:49.158Z,2018-07-24T01:32:49.706Z
177,Prescott Brewing Co,brewpub,130 W Gurley St Ste A,,,Prescott,Arizona,,86301-3603,United States,,,9287712795,http://www.prescottbrewingcompany.com,2018-08-11T21:35:49.220Z,2018-07-24T01:32:49.732Z
185,Rock Bottom Brewery - Arrowhead,brewpub,7640 W Bell Rd,,,Glendale,Arizona,,85308-8619,United States,,,6238788822,http://www.rockbottom.com,2018-08-11T21:35:49.477Z,2018-07-24T01:32:49.837Z
142,Granite Mountain Brewing,micro,123 N Cortez St,,,Prescott,Arizona,,86302-1109,United States,-112.468601799769,34.54238481217,9287785535,http://www.granitemountainbrewing.com,2018-08-23T23:21:54.265Z,2018-07-24T01:32:49.264Z
143,Green Feet Brewing,micro,3669 E 44th St,,,Tucson,Arizona,,85713-6814,United States,-110.9232648,32.1843632,5209771691,http://www.greenfeetbrewing.com,2018-08-23T23:21:55.134Z,2018-07-24T01:32:49.277Z
145,Helio Basin Brewing Company,brewpub,3935 E Thomas Rd,,,Phoenix,Arizona,,85018-7511,United States,-112.0028173,33.4804619,6023543525,http://www.heliobasinbrewing.com,2018-08-23T23:21:56.677Z,2018-07-24T01:32:49.303Z
146,Helton Brewing Company,brewpub,2144 E Indian School Rd,,,Phoenix,Arizona,,85016-6130,United States,-111.9805956,33.4946865,,,2018-08-23T23:21:57.740Z,2018-07-24T01:32:49.316Z
152,LazyG Brewhouse,planning,,,,Prescott,Arizona,,86303-4270,United States,-112.469518,34.5402813,4806951218,,2018-08-23T23:22:02.614Z,2018-07-24T01:32:49.402Z
156,Lumberyard Brewing Co Taproom and Grille,micro,5 S San Francisco St,,,Flagstaff,Arizona,,86001-5736,United States,-111.648578,35.1964377,9287792739,http://www.lumberyardbrewingcompany.com,2018-08-23T23:22:06.213Z,2018-07-24T01:32:49.458Z
157,McFate Brewing Company,brewpub,1312 N Scottsdale Rd,,,Scottsdale,Arizona,,85257-3488,United States,-111.9254955,33.658427,4806569100,http://mcfatebrewing.com,2018-08-23T23:22:07.211Z,2018-07-24T01:32:49.471Z
160,"Mother Bunch Brewing, Inc.",micro,825 N 7th St,,,Phoenix,Arizona,,85006-3793,United States,-112.0649987,33.4572674,6023683580,http://www.motherbunchbrew.com,2018-08-23T23:22:09.888Z,2018-07-24T01:32:49.507Z
162,Mother Road Brewing Co,micro,7 S Mikes Pike,,,Flagstaff,Arizona,,86001-5589,United States,-111.6524478,35.196928,9287749139,http://www.motherroadbeer.com,2018-08-23T23:22:11.676Z,2018-07-24T01:32:49.533Z
164,North Mountain Brewing Co,brewpub,522 E Dunlap Ave,,,Phoenix,Arizona,,85020-2916,United States,-112.066091857742,33.5678786503786,6028615999,http://www.northmountainbrewing.com,2018-08-23T23:22:13.416Z,2018-07-24T01:32:49.559Z
166,O.H.S.O. Brewery - Gilbert,brewpub,335 N Gilbert Rd,,,Gilbert,Arizona,,85234-5766,United States,-111.7896117,33.3508552,6029009004,,2018-08-23T23:22:15.286Z,2018-07-24T01:32:49.588Z
167,O.H.S.O. Eatery + NanoBrewery,brewpub,4900 E Indian School Rd,,,Phoenix,Arizona,,85018-5554,United States,-111.975830991319,33.49501715,6029550358,http://www.ohsobrewery.com,2018-08-23T23:22:16.170Z,2018-07-24T01:32:49.601Z
170,Old Bisbee Brewing,micro,23 Brewery Ave,,,Bisbee,Arizona,,85603,United States,-109.913843769231,31.4427216923077,5204322739,http://www.oldbisbeebrewingcompany.com,2018-08-23T23:22:18.838Z,2018-07-24T01:32:49.639Z
171,Old Ellsworth Brewing Company,brewpub,22005 S Ellsworth Rd,,,Queen Creek,Arizona,,85142-8707,United States,-111.634389355296,33.2451128463629,4804330651,http://www.oldebc.com,2018-08-23T23:22:19.737Z,2018-07-24T01:32:49.653Z
172,Oro Brewing Company,micro,210 W Main St,,,Mesa,Arizona,,85201-7312,United States,-111.837050306223,33.4151998242077,4803988247,http://www.orobrewing.com,2018-08-23T23:22:20.588Z,2018-07-24T01:32:49.666Z
176,Pinetop Brewing Company,brewpub,159 W White Mountain Blvd,,,Lakeside,Arizona,,85929-6527,United States,-109.956176923077,34.1430123076923,9283581971,http://www.pinetopbeer.com,2018-08-23T23:22:24.286Z,2018-07-24T01:32:49.719Z
178,Prescott Brewing Co - Production Facility,micro,6396 Lear Ln,,,Prescott,Arizona,,86301-9118,United States,-112.4132617,34.649529,9287712795,http://www.prescottbrewingcompany.com,2018-08-23T23:22:26.083Z,2018-07-24T01:32:49.745Z
179,Prison Hill Brewing Co,brewpub,278 S Main St,,,Yuma,Arizona,,85364-1425,United States,-114.6181995,32.7229185,9282764001,,2018-08-23T23:22:26.907Z,2018-07-24T01:32:49.757Z
180,Public Brewhouse,micro,209 N Hoff Ave,,,Tucson,Arizona,,85705-8537,United States,-110.964884816327,32.2240171836735,5207752337,http://www.publicbrewhouse.com,2018-08-23T23:22:27.759Z,2018-07-24T01:32:49.771Z
181,Pueblo Vida Brewing Co,micro,115 E Broadway Blvd,,,Tucson,Arizona,,85701-2011,United States,-110.9451764,32.2214274,5206237168,http://www.pueblovidabrewing.com,2018-08-23T23:22:28.358Z,2018-07-24T01:32:49.783Z
183,Rickety Cricket Brewing,brewpub,312 E Beale St,,,Kingman,Arizona,,86401-5832,United States,-114.061498100513,35.19028906381,9287532337,http://www.ricketycricketbrewing.com,2018-08-23T23:22:30.332Z,2018-07-24T01:32:49.809Z
184,Roadrunner Abbey Brewing,planning,,,,Chandler,Arizona,,85249-4724,United States,-111.8408489,33.3067132,4805708283,,2018-08-23T23:22:30.774Z,2018-07-24T01:32:49.823Z
186,Saddle Mountain Brewing Company,brewpub,15651 W Roosevelt St,,,Goodyear,Arizona,,85338-9309,United States,-112.3970112,33.4572737,6239809524,,2018-08-23T23:22:32.605Z,2018-07-24T01:32:49.849Z
201,Ten Fifty Five Brewing,micro,3810 E 44th St Ste 315,,,Tucson,Arizona,,85713-5474,United States,,,5204618073,http://www.1055brewing.com,2018-08-11T21:35:50.475Z,2018-07-24T01:32:50.062Z
202,THAT Brewery - Cottonwood,micro,300 E Cherry St Unit B,,,Cottonwood,Arizona,,86326-6178,United States,,,9282023013,http://www.thatbrewery.com,2018-08-11T21:35:50.514Z,2018-07-24T01:32:50.075Z
209,Thunder Canyon Brewery,brewpub,220 E Broadway Blvd Ste 2,,,Tucson,Arizona,,85701-2043,United States,,,5203963480,http://www.thundercanyonbrewery.com,2018-08-11T21:35:50.705Z,2018-07-24T01:32:50.171Z
211,Trail Crest Brewing Company,brewpub,1800 S Milton Rd Ste 11,,,Flagstaff,Arizona,,86001,United States,,,9284405085,http://www.trailcrestbrewing.com,2018-08-11T21:35:50.765Z,2018-07-24T01:32:50.198Z
213,Uncle Bear's Brewery,brewpub,4921 E Ray Rd Ste 103,,,Phoenix,Arizona,,85044-6495,United States,,,4802770765,http://www.unclebearsaz.com,2018-08-11T21:35:50.845Z,2018-07-24T01:32:50.224Z
214,Verde Brewing Company,micro,724 Industrial Dr Unit 7A,,,Camp Verde,Arizona,,86322,United States,,,9285678626,http://www.verdebrewing.com,2018-08-11T21:35:50.877Z,2018-07-24T01:32:50.238Z
216,Wanderlust Brewing Company,micro,1519 N Main St Ste 102,,,Flagstaff,Arizona,,86004-4970,United States,,,9283517952,http://www.wanderlustbrewing.com,2018-08-11T21:35:50.936Z,2018-07-24T01:32:50.263Z
222,Bike Rack Brewing Co,micro,410 SW A St Ste 6,,,Bentonville,Arkansas,,72712-5839,United States,,,4792686648,http://www.bikerackbrewing.com,2018-08-11T21:35:51.150Z,2018-07-24T01:32:50.340Z
226,Brick Oven Pizza Co / Brick & Forge Brewing,brewpub,814 US-62,,,Harrison,Arkansas,,72601,United States,,,8702364200,,2018-08-11T21:35:51.288Z,2018-07-24T01:32:50.387Z
227,Bubba Brew's Brewing Company,micro,8091 Airport Rd,,,Bonnerdale,Arkansas,,71933-6648,United States,,,8703564001,http://www.bubbabrewsbrewingco.com,2018-08-11T21:35:51.319Z,2018-07-24T01:32:50.399Z
230,Core Brewing - Hot Springs,brewpub,833 Central Ave,,,Hot Springs National Park,Arkansas,,71901,United States,,,4793068898,,2018-08-11T21:35:51.428Z,2018-07-24T01:32:50.435Z
231,Core Brewing - SoMa,brewpub,1214 S. Main St,,,Little Rock,Arkansas,,72202,United States,,,4793068898,,2018-08-11T21:35:51.461Z,2018-07-24T01:32:50.447Z
232,Core Brewing & Distilling Co,micro,2470 N Lowell Rd Ste A3,,,Springdale,Arkansas,,72764-1819,United States,,,4793068898,http://www.corebeer.com,2018-08-11T21:35:51.495Z,2018-07-24T01:32:50.464Z
188,SanTan Brewing Co,planning,,,,Phoenix,Arizona,,85014-2435,United States,-112.0773456,33.4485866,,,2018-08-23T23:22:33.922Z,2018-07-24T01:32:49.873Z
189,SanTan Brewing Co - Uptown Chandler,micro,495 E. Warner Rd.,,,Chandler,Arizona,,85225,United States,-111.8384052,33.3352048,4809178700,,2018-08-23T23:22:34.914Z,2018-07-24T01:32:49.885Z
190,Science,planning,,,,Phoenix,Arizona,,85020-5620,United States,-112.0773456,33.4485866,,,2018-08-23T23:22:35.383Z,2018-07-24T01:32:49.897Z
192,Sedona Beer Company,planning,,,,Sedona,Arizona,,86336-4170,United States,-111.7929891,34.8657757,,http://www.sedonabeerco.com,2018-08-23T23:22:36.703Z,2018-07-24T01:32:49.921Z
193,Sentinel Peak Brewing Company,brewpub,4746 E Grant Rd,,,Tucson,Arizona,,85712-2703,United States,-110.8552229,32.2505857,5207779456,http://www.sentinelpeakbrewing.com,2018-08-23T23:22:37.702Z,2018-07-24T01:32:49.933Z
194,Sleepy Dog Brewing Co,micro,1920 E University Dr,,,Tempe,Arizona,,85281-4608,United States,-111.9041833,33.422606,4809675476,,2018-08-23T23:22:38.578Z,2018-07-24T01:32:49.945Z
195,Sonoran Brewing,contract,3002 E Washington St,,,Phoenix,Arizona,,85034-1518,United States,-111.9805737,33.4475332,6025108996,http://www.sonoranbrewing.com,2018-08-23T23:22:39.673Z,2018-07-24T01:32:49.957Z
196,State 48 Barrel and Lager House,planning,,,,Scottsdale,Arizona,,85260-1924,United States,-111.8992365,33.5091215,,,2018-08-23T23:22:40.070Z,2018-07-24T01:32:49.969Z
197,State 48 Brewery,planning,,,,Phoenix,Arizona,,85003-1626,United States,-112.0773456,33.4485866,,,2018-08-23T23:22:40.558Z,2018-07-24T01:32:49.981Z
199,Sun Up Brewing Co.,brewpub,322 E Camelback Rd,,,Phoenix,Arizona,,85012-1614,United States,-112.068777346556,33.50950925,6026708924,http://sunup.beer,2018-08-23T23:22:42.395Z,2018-07-24T01:32:50.036Z
200,Sun Up Brewing Company 330,planning,,,,Phoenix,Arizona,,85012,United States,-112.0773456,33.4485866,,,2018-08-23T23:22:42.843Z,2018-07-24T01:32:50.050Z
